Name	Address	Lat	Long
 Pizzaiolo Primo	8 Market  Street Pittsburgh, PA 15222	40.4380579	-80.0043106
 Scarpaci&#39;s	307 Shiloh St Pittsburgh, PA 15211	40.4289912	-80.0071661
 Verdetto&#39;s Bar &amp; Restaurant	814 Madison Ave Pittsburgh, PA 15212	40.4552897	-79.996931
1311	1311 E Carson St Pittsburgh, PA 15203	40.428958	-79.9848242
1313 Bar	1313 Kennedy  Avenue Duquesne, PA 15110	40.367021	-79.856197
1613 Saloon	1613 Brownsville Rd Pittsburgh, PA 15210	40.3993734	-79.9887811
19th Hole Pub &amp; Grill	10150 Kummer  Road Allison Park, PA 15101		
2126 East Carson St Building	2126 Carson Street Pittsburgh, PA 15203	40.428173	-79.975133
2132 E Carson Bar &amp; Restaurant	2132 Carson Street Pittsburgh, PA 15203	40.4282138	-79.9748773
218 Bar &amp; Grill	218 7th Avenue Tarentum, PA 15084	40.60013	-79.761543
21st Street Coffee &amp; Tea	2002 Smallman Street Pittsburgh, PA 15222	40.4516916	-79.9844073
235 Tavern 	3420 Universal  Road Pittsburgh, PA 15235	40.489679	-79.783121
2512 East Carson St	2512 Carson  Street Pittsburgh, PA 15203	40.42746	-79.969291
3 Lakes Golf Course 19th Hole	6700 Saltsburg Road Pittsburgh, PA 15235	40.477851	-79.805051
31 Sports Bar Grille	1020 Washington  Pike Bridgeville, PA 15017	40.3660233	-80.1063555
424 Walnut	424 Walnut St Sewickley, PA 15143	40.5405874	-80.1820105
5 Fools	9566 Perry Hwy Pittsburgh, PA 15237	40.5803829	-80.0377718
5801 Video Lounge and Cafe	5801 Ellsworth  Avenue Pittsburgh, PA 15232	40.4563651	-79.9307593
6&#39;s Grill	320 Waddell Ave Clairton, PA 15025	40.293041	-79.882518
64 Bridge St	64 Bridge  Street Pittsburgh, PA 15223	40.4964862	-79.9417709
941 Saloon	941 Liberty Avenue Pittsburgh, PA 15222	40.4435542	-79.9966108
99 Bottles	1001 Washington Avenue Carnegie, PA 15106	40.3987685	-80.0822718
AD&#39;S Pittsburgh Cafe	226 Meyran  Avenue Pittsburgh, PA 15213	40.439681	-79.957556
AMC Theaters Loews Waterfront 22	300 Waterfront  Drive Homestead, PA 15120	40.4117908	-79.9121671
AMF Noble Manor Lanes	2440 Noblestown Rd Pittsburgh, PA 15205	40.427507	-80.058263
AMF Noble Manor Lanes Snack Shop	2440 Noblestown Rd Pittsburgh, PA 15205	40.427507	-80.058263
Acacia	2108 E Carson Street Pittsburgh, PA 15203	40.4282761	-79.9759045
Ace Tavern	716 Broadway Ave Mc Kees Rocks, PA 15136	40.4728444	-80.0737637
Acorn Club	7535 Roslyn St Pittsburgh, PA 15218	40.4199886	-79.8851392
Adrian&#39;s Pizza	4092 Gibsonia  Road Gibsonia, PA 15044	40.6348716	-79.9410309
Aiello&#39;s Pizza	2112 Murray Avenue Pittsburgh, PA 15217	40.4332608	-79.9231982
Al&#39;s Cafe	435 McMurray Rd Bethel Park, PA 15102	40.312635	-80.065776
Aladdin&#39;s Eatery	5878 Forbes Ave Pittsburgh, PA 15217	40.4378199	-79.9199427
Aladdin&#39;s Eatery #17	630 Washington Rd Pittsburgh, PA 15228	40.3818693	-80.0444203
Albert&#39;s Lounge	2856 Broadway  Avenue Pittsburgh, PA 15216	40.3978077	-80.0360566
Alexander&#39;s Italian Bistro	5104 Liberty  Avenue Pittsburgh, PA 15224	40.4584453	-79.9436052
Alexion&#39;s Bar	141 Hawthorne Avenue Carnegie, PA 15106	40.4278803	-80.0736622
Alfred&#39;s &amp; Anna&#39;s Belvederes 	4016 Butler Street Pittsburgh, PA 15201	40.4689613	-79.9615203
Ali Baba Authentic Middle Eastern Food 	404 Craig  Street Pittsburgh, PA 15213	40.445056	-79.9490592
Alihan&#39;s Mediterranean Cuisine	124 6th Street Pittsburgh, PA 15222	40.4434715	-80.0030276
Alioto&#39;s	17 Grant Avenue Pittsburgh, PA 15223	40.5036865	-79.948875
All Star Sports Bar &amp; Grill	6302 Robinson Center Drive Pittsburgh, PA 15205		
Allegheny 6 Pack &amp; Doghouse	1301 Pittsburgh Street Cheswick, PA 15024	40.5414317	-79.802147
Allegheny City Brewing 	507 Foreland  Street Pittsburgh, PA 15212	40.454191	-80.000442
Allegheny Country Rifle Club	99 Schuetzen Park Rd Pittsburgh, PA 15209	40.499194	-79.992196
Allegheny HYP Club	619 Wm Penn Place Pittsburgh, PA 15219		
Alpine Hunting &amp; Fishing Club	220 Alpine Road Bridgeville, PA 15017	40.3362822	-80.1417962
Altius	1230 Grandview Ave Pittsburgh, PA 15211	40.4384823	-80.0192858
Amel&#39;s Restaurant &amp; Lounge	435 McNeilly Rd Pittsburgh, PA 15226	40.3830692	-80.0155838
American Croation Club of Duquesne	1111 W Grant Ave Duquesne, PA 15110	40.3695949	-79.856623
American Legion #527	103 W Braddock Ave Braddock, PA 15104	40.407601	-79.876902
American Legion George Walter Jr Post #106	1332 N Canal St Pittsburgh, PA 15215	40.496275	-79.927998
American Legion Home Assn #820	4339 Old Wm Penn Hwy Monroeville, PA 15146		
American Legion Post #48	59 Garfield Street Natrona Heights, PA 15065	40.6136659	-79.7234555
American Legion Post #490	1008 Castle Shannon Blvd Pittsburgh, PA 15234	40.365335	-80.0246109
American Legion Post #600 / Oakmont	650 Isabella Street Oakmont, PA 15139	40.5202193	-79.8411196
American Legion Post #712	650 Old Clairton Rd Pittsburgh, PA 15236	40.32447	-79.957884
American Legion Post #75	660 Miller Ave Clairton, PA 15025	40.29073	-79.8836819
American Legion Post #935	280 Joseph St Pittsburgh, PA 15227	40.394448	-79.969605
American Legion Post #980	7824 Saltsburg Rd Pittsburgh, PA 15239	40.474713	-79.765962
American Legion Post / Manchester	172 6th Ave Pittsburgh, PA 15229	40.5269531	-80.0221549
American Slovenian Citizens - ACME Club	230 Herron Avenue Cheswick, PA 15024	40.5442364	-79.8151802
Anchor Inn	2202 Freeport Road Natrona Heights, PA 15065	40.6282736	-79.7193536
Andora Fox Chapel	599 Dorseyville Road Pittsburgh, PA 15238	40.5377057	-79.9114627
Andora Restaurant Sewickley	1616 Mt Nebo  Road Sewickley, PA 15143		
Angelia&#39;s Grille	1817 McKees Rocks Rd Mc Kees Rocks, PA 15136	40.4688035	-80.0980401
Ann&#39;s Restaurant &amp; Lounge	2783 South Park Road Bethel Park, PA 15102	40.3276615	-80.0346682
Annie&#39;s Hitching Post	314 Portvue Avenue Mc Keesport, PA 15133		
Anthony Jr&#39;s Pizza &amp; Deli	1024 5th Coraopolis, PA 15108		
Anthony&#39;s Coal Fired Pizza	1810 Settlers Ridge Center Drive Pittsburgh, PA 15205		
Anthony&#39;s Coal Fired Pizza	2740 Stroschein Road Monroeville, PA 15146	40.4379308	-79.7689553
Appian Way Cafe &amp; Lounge	418 Moon Clinton Rd Coraopolis, PA 15108	40.5094678	-80.2394506
Apple Inn	2895 W Liberty  Avenue Pittsburgh, PA 15216	40.3948467	-80.0342585
Applebee&#39;s Neighborhood Grill &amp; Bar #2010013	1050 Village Center Drive Tarentum, PA 15084	40.5671888	-79.8027979
Applebee&#39;s Neighborhood Grill &amp; Bar #2010018	525 Grandview Crossing  Drive Gibsonia, PA 15044		
Applebee&#39;s Neighborhood Grill &amp; Bar #2020011	2101 Greentree Road Pittsburgh, PA 15220	40.3905672	-80.0724608
Applebee&#39;s Neighborhood Grill &amp; Bar #2020012	4801 McKnight  Road Pittsburgh, PA 15237	40.522828	-80.006531
Applebee&#39;s Neighborhood Grill &amp; Bar #2020013	1601 S Braddock Ave Pittsburgh, PA 15218	40.4263385	-79.8889429
Applebee&#39;s Neighborhood Grill &amp; Bar #2020014	2045 Lebanon Church  Road West Mifflin, PA 15122	40.3486124	-79.9481085
Applebee&#39;s Neighborhood Grill &amp; Bar #2020017	3440 Wm Penn  Highway Pittsburgh, PA 15235		
Applebee&#39;s Neighborhood Grill &amp; Bar #2020021	6570 Steubenville Pike Pittsburgh, PA 15205	40.4483419	-80.1572174
Apteka 	4606 Penn  Avenue Pittsburgh, PA 15224	40.4656355	-79.9493238
Archie&#39;s	2328 E Carson St Pittsburgh, PA 15203	40.4280178	-79.9718039
Argonne Inn	1257 Argonne Drive Natrona Heights, PA 15065	40.610179	-79.732684
Armand&#39;s Bar	4755 Liberty Ave Pittsburgh, PA 15224	40.4614563	-79.9481743
Armstrong&#39;s Restaurant	5301 Grove (at Baptist / Caste Village) Road Pittsburgh, PA 15236		
Around The Corner Bar &amp; Grill	1707 Babcock Blvd Pittsburgh, PA 15209	40.5005313	-79.9810772
Arriba Wine Bar @ Engine House 25	3337 Penn Avenue Pittsburgh, PA 15201	40.4624	-79.9678787
Art&#39;s Tavern	2852 Penn Ave Pittsburgh, PA 15222	40.4576367	-79.9741413
Atria&#39;s	10 Old Clairton Road Pittsburgh, PA 15236	40.3398124	-79.9654559
Atria&#39;s	12980 Perry Hwy Wexford, PA 15090	40.6426194	-80.0670089
Atria&#39;s Restaurant &amp; Tavern	5517 Wm Flynn Hwy Gibsonia, PA 15044		
Atria&#39;s Restaurant &amp; Tavern	103 Federal Street Pittsburgh, PA 15212	40.4480683	-80.00424
Atria&#39;s Restaurant &amp; Tavern	110 Beverly Rd Pittsburgh, PA 15216	40.3936983	-80.0467393
August Henry&#39;s City Saloon	946 Penn Avenue Pittsburgh, PA 15222	40.4440164	-79.9962956
Azul Bar - Y - Cantina	122 Broad St Leetsdale, PA 15056	40.566402	-80.2105005
B P O E / Allegheny Elks Club #339	400 Cedar Ave Pittsburgh, PA 15212	40.4518258	-80.0007752
B P O E / Elks #1090	1150 Stoops Ferry Rd Coraopolis, PA 15108		
B P O E / Elks Club #2213 	2425 South Park Road Bethel Park, PA 15102	40.3293168	-80.0231213
B P O E / Elks Club Oakmont #1668	106 Washington Avenue Oakmont, PA 15139	40.5162084	-79.8474269
B P O E / Elks Club Wilkinsburg #577	718 Brown Ave Turtle Creek, PA 15145	40.4276863	-79.8365234
BD&#39;s Mongolian Grill	428 27th Street Pittsburgh, PA 15203	40.4282789	-79.9657314
BJ&quot;s Restaurant &amp; Brew House #590	1819 Washington Rd Pittsburgh, PA 15241	40.3450122	-80.0554318
BJ&#39;s Restaurant &amp; Brewhouse	8970 Covenant Avenue Pittsburgh, PA 15237	40.5701307	-80.0230829
BRGR	1500 Washington  Road Pittsburgh, PA 15228	40.3569591	-80.0518073
Bado&#39;s Pizza &amp; Deli	307 Beverly Rd Pittsburgh, PA 15216	40.388623	-80.0498751
Bahama Breeze #3041	6100 Robinson Center  Drive Pittsburgh, PA 15205		
Bakersfield 	940 Penn  Avenue Pittsburgh, PA 15222	40.4439437	-79.9965813
Bakn	335 Main Street Carnegie, PA 15106	40.409746	-80.083623
Baldwin Backdraft	3049 Churchview Ave Pittsburgh, PA 15227	40.3861425	-79.9676463
Baltimore Crab House	176 Curry Hollow Rd Pittsburgh, PA 15236	40.3384939	-79.9688663
Balwem Connolly Club	48 Greenway Drive Pittsburgh, PA 15204	40.450527	-80.052318
Bangkok Balcony	5846 Forbes Ave / 2nd Fl Pittsburgh, PA 15217		
Bar 11	1101 Bradish Street Pittsburgh, PA 15203	40.4271724	-79.9874543
Bar 48  Bar &amp; Grille	101 Simpson Howell Road Elizabeth, PA 15037	40.2726927	-79.8372154
Bar Louie	244 Bridge  Street Homestead, PA 15120		
Bar Louie 	240 Station Square Dr / Bessemer Pittsburgh, PA 15219		
Bar Louie #1601	330 Shore  Drive Pittsburgh, PA 15212	40.4460877	-80.0103221
Bar Marco @ the Firehouse	2216 Penn Avenue Pittsburgh, PA 15222	40.4524729	-79.9815138
Bar Symon	&nbsp; Pgh Intl Airport / AC-17 Pittsburgh, PA 15231		
Bar on Brown	635 Brown Avenue Turtle Creek, PA 15145	40.424985	-79.834987
Barb&#39;s Country Kitchen	4711 Butler St Pittsburgh, PA 15201	40.4745089	-79.9579076
Barker&#39;s Frosted Mug	1608 Pittsburgh Street Cheswick, PA 15024	40.5408969	-79.7971242
Barley	319 6th Avenue Tarentum, PA 15084	40.603055	-79.753322
Barrel Junction	3108 Wm Flynn Highway Allison Park, PA 15101		
Barrel Junction	5560 William Flynn Highway Gibsonia, PA 15044	40.6330641	-79.9395907
Barto&#39;s Bar	859/861 5th Ave Coraopolis, PA 15108	40.519017	-80.167558
Beadling Sports Club	675 Painters Run Rd Pittsburgh, PA 15228	40.361471	-80.069227
Bears Inn	710 Hite Road Harwick, PA 15049	40.5554775	-79.8083579
Becker&#39;s Cafe	315 Olivia St Mc Kees Rocks, PA 15136	40.4746521	-80.0571267
Bedrock Cafe	604 Hampshire Ave Pittsburgh, PA 15216	40.4107656	-80.0192513
Bee&#39;z Bistro &amp; Pub	3249 Washington Pike Suite #1004 Bridgeville, PA 15017	40.3406094	-80.1198224
Beehive Coffeehouse / Rowdy Buck	1323 E Carson St Pittsburgh, PA 15203	40.428815	-79.9843106
Beemer&#39;s	600 5th  Avenue Mc Keesport, PA 15132	40.3513734	-79.8594934
Beer Belly&#39;s	235 5th St West Elizabeth, PA 15088	40.2682285	-79.9041296
Beer Lime &amp; Sunshine	411 Wood Street Pittsburgh, PA 15222	40.4398239	-80.0012038
Beerhead Bar Beer Market 	110 Federal Street Pittsburgh, PA 15212	40.4481082	-80.0038358
Bella Frutteto	2602 Brandt School Road Wexford, PA 15090	40.6155836	-80.0929885
Bella Luna Trattoria	5060 Wm Penn Hwy Monroeville, PA 15146		
Bella Notte	1914 Penn Avenue Pittsburgh, PA 15222	40.4508598	-79.9839287
Bella Vista	1204 Grandview Ave Pittsburgh, PA 15211	40.4379769	-80.0183123
Bellisario&#39;s Restaurant	1710 Duncan Ave Allison Park, PA 15101	40.5661986	-79.9982161
Benihana	2100 Greentree Road Pittsburgh, PA 15220	40.3921909	-80.0702556
Benjamin&#39;s Western Avenue Burger Bar	900 Western Avenue Pittsburgh, PA 15233	40.4520989	-80.016762
Berkey&#39;s Tavern	706 Ambridge Ave Ambridge, PA 15003	40.5887414	-80.2035218
Big Dogs 	1435 Freeport Road Cheswick, PA 15024	40.541057	-79.8078441
Big Jim&#39;s	201 Saline St Pittsburgh, PA 15207	40.4271297	-79.9495967
Big Mike&#39;s Tavern	396 Butler Street Pittsburgh, PA 15223	40.4977004	-79.9438702
Bigham Tavern	321 Bigham St Pittsburgh, PA 15211	40.4323916	-80.0150504
Bill Buda&#39;s Bar &amp; Grill	3087 5th Ave Ext Mc Keesport, PA 15132		
Bill&#39;s Bar &amp; Burger	1001 Liberty Avenue Pittsburgh, PA 15222	40.4442087	-79.9946687
Billy Kay&#39;s	701 Railroad Street Verona, PA 15147	40.505058	-79.8439609
Billy&#39;s Roadhouse	10150 Old Perry Hwy Wexford, PA 15090	40.5979898	-80.0457227
Birmingham Bridge Tavern	2901 Sarah St Pittsburgh, PA 15203	40.4245046	-79.9645648
Bishop&#39;s Corner	4701 Campbells Run Rd Pittsburgh, PA 15205	40.430691	-80.1350444
Bistro 19	711 Washington Rd Pittsburgh, PA 15228	40.3800882	-80.0444373
Bistro 9101	9101 Perry  Highway Pittsburgh, PA 15237	40.5719043	-80.0369822
Bites &amp; Brews / Elbow Room	5750 Ellsworth  Avenue Pittsburgh, PA 15232	40.4557053	-79.930891
Black &amp; Gold Sports Bar 	999 Steen Road / Trader Jacks Flea Market Bridgeville, PA 15017		
Black Beauty Lounge	2037 Centre Avenue Pittsburgh, PA 15219	40.4443871	-79.9792498
Black Thorn Pub	625 Long Rd Pittsburgh, PA 15235	40.4544085	-79.8374187
Blaine Hill BBQ	3011 Liberty Way Mc Keesport, PA 15133	40.321376	-79.8580603
Blend Bar	436 7th Avenue Pittsburgh, PA 15219	40.4421111	-79.9955541
Blinky&#39;s Noble Grill &amp; Bar	2350 Noblestown  Road Pittsburgh, PA 15205	40.4274344	-80.0556837
Block 292	292 Beverly  Road Pittsburgh, PA 15216	40.389079	-80.049528
Blondie&#39;s	811 Allegheny River Boulevard Verona, PA 15147	40.506797	-79.842589
Blondies	1035 Chartiers Ave Mc Kees Rocks, PA 15136	40.464807	-80.0678609
Bloomfield Bridge Tavern	4412 Liberty Ave Pittsburgh, PA 15224	40.463252	-79.9525956
Blue Dust	601 Amity Street Homestead, PA 15120	40.4079565	-79.9116502
Blue Flame Rest	360 State Hwy 51 Clairton, PA 15025		
Blue Haven Lounge	492 Nixon Road Cheswick, PA 15024	40.5561315	-79.8203588
Blue Moon On Butler St	5115 Butler St Pittsburgh, PA 15201	40.4788739	-79.9556425
Blue North	1701 Duncan Avenue Allison Park, PA 15101	40.5673753	-79.9994328
Blush Sports Bar	135 9th  Street Pittsburgh, PA 15222	40.4442033	-79.9983438
Bob Bets Lounge	5455 Curry Rd Pittsburgh, PA 15236	40.337159	-79.9912092
Bob&#39;s Garage	1372 Freeport Road Pittsburgh, PA 15238	40.4895782	-79.8723566
Bob&#39;s Lounge	944 Greensburg Pike East Pittsburgh, PA 15112	40.4445473	-79.8604245
Bobby P&#39;S Inn The Ruff	6229 Saltsburg Road Pittsburgh, PA 15235	40.4843559	-79.8159614
Bobby&#39;s Lounge	3304 Saw Mill Run Blvd Pittsburgh, PA 15227	40.3753532	-79.9833533
Bocktown Beer &amp; Grill	690 Chauvet Drive Pittsburgh, PA 15275	40.445952	-80.1807909
Bonefish Grill #0309	1835 Washington Road Pittsburgh, PA 15241	40.3452316	-80.0563137
Bonefish Grill #329	8950 Covenant  Avenue Pittsburgh, PA 15237	40.5696377	-80.0231316
Boomerang Bar	1928 Monongahela Ave Pittsburgh, PA 15218	40.421034	-79.890146
Bootlegger&#39;s	403 Semple St Pittsburgh, PA 15213	40.4370188	-79.9548448
Boots	819 2nd Avenue Brackenridge, PA 15014	40.604242	-79.74427
Bottega Dei Sapori	&nbsp; Pgh Intl Airport / AC-8A/B Pittsburgh, PA 15231		
Boulevard Restaurant	605 Mt Royal  Boulevard Pittsburgh, PA 15223		
Brackenridge American Legion Post 226	845 1st Avenue Brackenridge, PA 15014	40.6028847	-79.7423071
Brass Monkey	428 N State St Clairton, PA 15025	40.308402	-79.8885362
Bravo! Cucina Italian #34	1500 Washington Rd Pittsburgh, PA 15228	40.3569591	-80.0518073
Bravo! Cucina Italiana	250 Bridge Street Homestead, PA 15120		
Bravo! Cucina Italiana	211 Summit Park Drive Pittsburgh, PA 15275	40.4485228	-80.1806074
Bravo! Cucina Italiana	4976 McKnight Rd Pittsburgh, PA 15237	40.5313255	-80.0092614
Breaker&#39;s Lounge	1413 Potomac Avenue Pittsburgh, PA 15216	40.3952987	-80.034823
Brewer&#39;s Hotel	3315 Liberty Ave Pittsburgh, PA 15201	40.461509	-79.9678598
Brews Brothers	315 Mt Lebanon Boulevard Pittsburgh, PA 15234		
Brewski&#39;s	801 E Carson St Pittsburgh, PA 15203	40.428858	-79.990906
Brillobox	4104 Penn  Avenue Pittsburgh, PA 15224	40.465505	-79.9547632
Broad Street Bistro	1025 Broad Street North Versailles, PA 15137	40.374158	-79.79728
Bronze Hood	5920 Steubenville Pike Mc Kees Rocks, PA 15136	40.448866	-80.142405
Brookline N Sinker Bar 	806 Brookline  Boulevard Pittsburgh, PA 15226	40.3933485	-80.0199874
Brothers Grimm	136 Old Beaver Grade Road Coraopolis, PA 15108	40.466277	-80.1533505
Bruceton Grille 	530 Bruceton  Road Pittsburgh, PA 15236	40.328073	-79.946763
Bruceton Station 	1152 Cochran Mill  Road Pittsburgh, PA 15236		
Bruegger&#39;s Bagels	&nbsp; Pgh Intl Airport / SE-10A/B Pittsburgh, PA 15231		
Bruneaux	409 Beaver  Street Sewickley, PA 15143	40.5412761	-80.1813903
Brush Creek Inn	295 Northgate  Drive Warrendale, PA 15086	40.6549818	-80.0809218
Bubba&#39;s Bar &amp; Grill	312-14 Ringold St Mc Keesport, PA 15132		
Bubba&#39;s Gourmet Burghers &amp; Beer	3109 Washington Pike Bridgeville, PA 15017	40.3485006	-80.1114895
Buca Di Beppo	6600 Robinson Center Drive Pittsburgh, PA 15205		
Buca Di Beppo	210 W Station Sq Dr Pittsburgh, PA 15219		
Buckhead Saloon	225 Station Sq Dr Pittsburgh, PA 15219		
Bud&#39;s Place	1128 Brownsville Rd Pittsburgh, PA 15210	40.404606	-79.990753
Buffalo Wild Wings #318	9996 Mountain View Drive West Mifflin, PA 15122	40.3400558	-79.9528995
Buffalo Wild Wings Grill &amp; Bar  	500 Grandview Crossing  Drive Gibsonia, PA 15044		
Buffalo Wild Wings Grill &amp; Bar  #302	3469 Wm Penn  Highway Pittsburgh, PA 15235		
Buffalo Wild Wings Grill &amp; Bar #21	480 Home Drive Pittsburgh, PA 15275	40.4511434	-80.1831886
Buford&#39;s Kitchen	5980 University Boulevard Coraopolis, PA 15108		
Buford&#39;s Kitchen / Uptown	1014 5th  Avenue Pittsburgh, PA 15219	40.4385515	-79.9904322
Bulldog Pub &amp; Grill	1818 Morningside Avenue Pittsburgh, PA 15206	40.4867047	-79.9265301
Burgatory	299 Bridge Street Homestead, PA 15120		
Burgatory	932 Freeport Road Pittsburgh, PA 15238	40.4891418	-79.8930872
Burgatory	300 McHolme Drive Pittsburgh, PA 15275	40.4484249	-80.1746607
Burgatory / McCandless 	700 Providence  Boulevard Pittsburgh, PA 15237	40.5699485	-80.0215095
Burgatory / North Shore	342 North Shore  Drive Pittsburgh, PA 15212	40.4463109	-80.0111334
Burger&#39;z on 8	6044 Wm Flynn Highway Bakerstown, PA 15007		
Burgh&#39;s Pizza &amp; Wings	533 Washington  Avenue Bridgeville, PA 15017	40.3575556	-80.1122958
Butter&#39;s	2703 Grover St Mc Keesport, PA 15132	40.341636	-79.845837
C-Note&#39;s Bar &amp; Pizzeria	524 State Street Clairton, PA 15025	40.2935044	-79.8746384
CC&#39;s Cafe	2218 Main St Pittsburgh, PA 15215	40.4935637	-79.914513
CJ Chug&#39;s	2895 Custer Ave Pittsburgh, PA 15227	40.394497	-79.970855
Cabana Bar 	100 Village Club Drive Wexford, PA 15090	40.633976	-80.0507874
Cadillac Ranch All American Bar &amp; Grill	1060 Settlers Ridge Center Drive Pittsburgh, PA 15205		
Caesar&#39;s Tavern	701 Penn Ave Turtle Creek, PA 15145	40.405226	-79.826057
Cafe Fifth Avenue	818 5th Avenue Pittsburgh, PA 15219	40.4387014	-79.992011
Cafe IO	300  A Beverly Rd Pittsburgh, PA 15216	40.3888811	-80.0498574
Cafe Milano	134 6th Street Pittsburgh, PA 15222	40.4430956	-80.0026254
Cafe Nico&#39;s	212 Shiloh St Pittsburgh, PA 15211	40.430334	-80.0075678
Cafe Notte	8070 Ohio River Blvd Pittsburgh, PA 15202	40.5096845	-80.0917109
Caf&#233; Sam	5242 Baum Blvd Pittsburgh, PA 15224	40.456228	-79.9402508
Cain&#39;s Saloon	3239 W Liberty  Avenue Pittsburgh, PA 15216	40.3897325	-80.0408987
Cal&#39;s Cantina	617 Eden Park Blvd Mc Keesport, PA 15132	40.3297658	-79.8335839
Cala Lily 	500 Grandview Crossing  Drive Gibsonia, PA 15044		
Calabria&#39;s Restaurant	3107 Library  Road Pittsburgh, PA 15234	40.3733822	-80.0062991
Caliente Pizza &amp; Draft House	4624 Liberty  Avenue Pittsburgh, PA 15224	40.4619826	-79.9501464
Caliente Pizza &amp; Draft House	329 Castle Shannon  Boulevard Pittsburgh, PA 15228	40.3762608	-80.0367425
Caliente Pizza &amp; Draft House	4706 William Flynn Highway Allison Park, PA 15101	40.5939265	-79.9470311
California Pizza Kitchen	1000 Ross Park Mall Drive Pittsburgh, PA 15237	40.5389691	-80.0077114
Cambria Suites @ Consol - Social Circle 	1320 Centre Avenue Pittsburgh, PA 15219	40.4402268	-79.9877998
Campus Bookstore	3610 5th Ave Pittsburgh, PA 15213	40.441389	-79.9586018
Cantley&#39;s Night Life	609 W Main St Carnegie, PA 15106	40.4020244	-80.0945324
Capital Grille #8031	301 5th Avenue Pittsburgh, PA 15222	40.4409188	-79.9996159
Cappy&#39;s Cafe	5431 Walnut St Pittsburgh, PA 15232	40.45109	-79.9343681
Capri Pizzeria &amp; Bar	6001 Penn Ave Pittsburgh, PA 15206	40.4616502	-79.9245395
Carbonara&#39;s Ristorante	250 Mt Lebanon  Boulevard Pittsburgh, PA 15234		
Carl&#39;s Tavern	3386 Wm Penn Hwy Pittsburgh, PA 15235		
Carline Cafe	109 California Avenue Pittsburgh, PA 15202	40.503677	-80.073663
Carmella&#39;s Plates &amp; Pints	1908 Carson Street Pittsburgh, PA 15203	40.4283832	-79.9787151
Carmody&#39;s Grille 	4905 Grand Avenue Pittsburgh, PA 15225	40.5100272	-80.1253252
Carnegie Museum Cafe	4400 Forbes  Avenue Pittsburgh, PA 15213		
Carnivores	215 Allegheny Avenue Oakmont, PA 15139	40.514488	-79.844005
Carol&#39;s Cafe	840 Monongahela Ave Glassport, PA 15045	40.32129	-79.892703
Carriage Inn	1601 Lovedale  Road Elizabeth, PA 15037	40.2848843	-79.8439134
Carsalas Bar &amp; Grill	5633 Homeville Rd West Mifflin, PA 15122	40.3679844	-79.8715022
Carson City Saloon	1401 Carson Street Pittsburgh, PA 15203	40.440933	-80.0200186
Carson Street Deli	1507 Carson Street Pittsburgh, PA 15203	40.4290442	-79.9830861
Casa D&#39;Ice	1901 Lincoln Hwy North Versailles, PA 15137	40.368084	-79.777527
Casa Reyna	2031 Penn Avenue Pittsburgh, PA 15222	40.4517093	-79.9834519
Casbah	229 Highland  Avenue Pittsburgh, PA 15206	40.4709118	-79.9823198
Casey&#39;s Draft House	1811 E Carson  Street Pittsburgh, PA 15203	40.4289435	-79.9799804
Casey&#39;s Family Restaurant	3008 Wm Flynn Hwy Allison Park, PA 15101		
Castle Tavern	6347 Library Road Library, PA 15129	40.2910489	-80.0284334
Cattivo	146 44th St Pittsburgh, PA 15201	40.4725156	-79.9616872
Cavo	1916 Smallman Street Pittsburgh, PA 15222	40.4515309	-79.9849774
Cefalo&#39;s Restaurant &amp; Night Club	428 Washington Ave Carnegie, PA 15106	40.408103	-80.0840807
Celebrations &amp; More	8110 Steubenville Pike Imperial, PA 15126	40.4365774	-80.2542519
Cenci&#39;s Pizzeria &amp; Restaurant	11530 Perry Highway Wexford, PA 15090	40.6254324	-80.0537093
Center Tavern	7934 Saltsburg Rd Pittsburgh, PA 15239	40.477936	-79.758163
Central Diner &amp; Grill	6408 Steubenville Pike Pittsburgh, PA 15205	40.4487237	-80.1567788
Century Square Luxury Cinemas	2001 Mountain View Drive Pittsburgh, PA 15222		
Cestone&#39;s Pizza	200 Virginia Ave Pittsburgh, PA 15211	40.4307986	-80.009588
Champs Sports Bar &amp; Grill	200 10th Street Pittsburgh, PA 15215	40.4444512	-79.9956459
Champs Sports Grill &amp; Lounge	540 Rodi Road Pittsburgh, PA 15235	40.450745	-79.827163
Chan&#39;s Tea House	1009 West View Park Dr Pittsburgh, PA 15229	40.5160448	-80.0378082
Characters 	2622 Brownsville Road Pittsburgh, PA 15227	40.3847335	-79.9782652
Charlie Murdochs	1005 E Carson St Pittsburgh, PA 15203	40.4288847	-79.9881612
Chartiers Country Club 10th Tee	601 Baldwin Road Pittsburgh, PA 15205	40.4347538	-80.0929763
Chartiers Country Club Clubhouse	601 Baldwin Road Pittsburgh, PA 15205	40.4347538	-80.0929763
Chaz &amp; Odette	5102 Baum  Boulevard Pittsburgh, PA 15224	40.4553023	-79.9436172
Cheerleaders	3100 Liberty Ave Pittsburgh, PA 15201	40.4587804	-79.9707046
Cheers	7082 Lemington Ave Pittsburgh, PA 15206	40.46913	-79.896713
Chelsea Grille	515 Allegheny Avenue Oakmont, PA 15139	40.5181162	-79.8434868
Chic&#39;s Place	879 Forest Ave Homestead, PA 15120		
Chief&#39;s Cafe	307 N Craig St Pittsburgh, PA 15213	40.4520561	-79.952299
Chili&#39;s Grill &amp; Bar #1127	2020 Pittsburgh Mills Boulevard Tarentum, PA 15084	40.571277	-79.802699
Chili&#39;s Grill &amp; Bar #1152	855 Freeport Rd Pittsburgh, PA 15238	40.4887977	-79.8913956
Chili&#39;s Grill &amp; Bar #383	7404 McKnight Rd Pittsburgh, PA 15237	40.5411794	-80.0119297
Chili&#39;s Grill &amp; Bar #386	2207 Mountain View  Drive West Mifflin, PA 15122	40.3470553	-79.9440089
China Palace	5440 Walnut St Pittsburgh, PA 15232	40.4509303	-79.9339316
China Palace	10441 Perry  Highway Wexford, PA 15090	40.6068339	-80.052499
China Palace III	409 Broad St Sewickley, PA 15143	40.53975	-80.1814773
China Park	532 Monongahela Ave Glassport, PA 15045	40.3264333	-79.8927108
Chinatown Inn	520 3rd  Ave Pittsburgh, PA 15219	40.737381	-80.31699
Chuck E Cheese&#39;s	8100 McKnight Rd Pittsburgh, PA 15237	40.5585482	-80.0235296
Chuck E Cheese&#39;s	1035 Washington Pike Bridgeville, PA 15017	40.3643963	-80.1104031
Chuck E Cheese&#39;s	3800 Wm Penn Hwy Monroeville, PA 15146		
Chuck&#39;s Tavern	519 U.S. Route 30 Imperial, PA 15126		
Chugger&#39;s Bar	709 Monongahela Ave Glassport, PA 15045	40.323979	-79.892149
Ciao II ! An Italian Cafe	289 Settlers Ridge Center Drive Pittsburgh, PA 15205		
Ciccanti&#39;s A K A 51 Bar	1206 Route 51 Clairton, PA 15025	40.3122309	-79.938566
Cigar Bar / Jernigan&#39;s 	1500 Washington  Road Pittsburgh, PA 15228	40.3569591	-80.0518073
Cigar Bar Pittsburgh 	6302 Robinson Center Drive Pittsburgh, PA 15205		
Cinemark North Hills &amp; XD #1082	851 Providence Boulevard Pittsburgh, PA 15237	40.5705042	-80.0196744
Cioppino / Osteria 2350	2350 Railroad Street Pittsburgh, PA 15222	40.454099	-79.9822571
Circle Inn	34 E Crafton Ave Pittsburgh, PA 15205	40.4355287	-80.0660976
Circus Bar/T&#39;s Lounge &amp; Restaurant	7526 Center &amp; Washington St Pittsburgh, PA 15218		
City Theatre	1300 Bingham St Pittsburgh, PA 15203	40.4292638	-79.9850266
City View Event Center LLC	510 Station Sq Dr Pittsburgh, PA 15219		
City of Bridges Cafe	&nbsp; Pgh Intl Airport / LT-3A Pittsburgh, PA 15231		
Claddagh Irish Pub	407 Cinema Dr Pittsburgh, PA 15203	40.428022	-79.9648998
Clairton Sportsmen&#39;s Club	412 Coal Valley Rd / RD  1 Clairton, PA 15025		
Clancy&#39;s Pub	202 McClure St Dravosburg, PA 15034	40.3505301	-79.8868645
Clark Bar &amp; Grill	503 Martindale Street Pittsburgh, PA 15212	40.4489884	-80.0088714
Clarks Restaurant	333 Rouser Road Coraopolis, PA 15108		
Cliff&#39;s Bar &amp; Grill	1417 N Lang  Street Pittsburgh, PA 15208	40.4626589	-79.8975611
Club Cafe	56 S 12th St Pittsburgh, PA 15203	40.4289304	-79.9866393
Club Elegance	804 Braddock Avenue Braddock, PA 15104	40.4011769	-79.86621
Club Lanes	341 E 8th Ave Homestead, PA 15120	40.4086559	-79.9082024
Clyde &amp; Patti&#39;s Lounge	901 Freeport Road Cheswick, PA 15024	40.540989	-79.8160149
Coach&#39;s Bottleshop &amp; Grille	3105 Banksville Road Pittsburgh, PA 15216	40.400162	-80.0430396
Cocina Mendoza	300 Mt Lebanon  Boulevard Pittsburgh, PA 15234		
Cocothe&#39;	541 Beaver  Street Sewickley, PA 15143	40.5393751	-80.1792471
Cole&#39;s Pub	527 U.S. Route 30 Imperial, PA 15126		
Cole&#39;s Wexford Hotel Bar	161 Church Rd Wexford, PA 15090	40.6256114	-80.0559569
Comfort Inn / Inndigo Blue Restaurant &amp; Bar	699 Rodi Rd Pittsburgh, PA 15235	40.4429942	-79.8263518
Comfort Inn Restaurant	4607 McKnight  Road Pittsburgh, PA 15237	40.5056803	-80.0089471
Condrin&#39;s Tavern	4501 Torley St Pittsburgh, PA 15224	40.4648989	-79.9504469
Conley&#39;s Bar	5245 Butler St Pittsburgh, PA 15201	40.481505	-79.9539829
Controversy	1635 Carson Street Pittsburgh, PA 15219	40.4421894	-80.0234934
Coral Lounge	4071 Homestead-Duquesne Rd West Mifflin, PA 15122	40.3879773	-79.8943605
Coriander	2201 Murray  Avenue Pittsburgh, PA 15217	40.4321506	-79.9234024
Corner Cafe	2500 S 18th St Pittsburgh, PA 15203	40.421942	-79.9841066
Corner Market &amp; Ale 	875 Greentree  Road Pittsburgh, PA 15220	40.4244926	-80.0416254
Cornerstone Restaurant	301  Freeport Rd Pittsburgh, PA 15215	40.489564	-79.9032766
Cory Village Cafe	1033 4th Ave Coraopolis, PA 15108	40.518124	-80.162327
Country Club Restaurant &amp; Lounge	300 E Smithfield St Mc Keesport, PA 15135	40.3096013	-79.8294917
Courthouse Tavern	310 Forbes Avenue Pittsburgh, PA 15222	40.4397825	-80.0004518
Courtyard By Marriott / Restaurant 	401 Waterfront Drive Homestead, PA 15120	40.4123308	-79.9106465
Courtyard By Marriott Settlers Ridge Restaurant	5100 Campbells Run Rd Pittsburgh, PA 15205	40.4389629	-80.1516354
Courtyard Pittsburgh Monroeville Restaurant 	3962 Wm Penn  Highway Monroeville, PA 15146		
Courtyard by Marriott  Bistro Shadyside	5308 Liberty  Avenue Pittsburgh, PA 15224	40.4560895	-79.9396789
Courtyard by Marriott / The Bistro Restaurant 	450 Cherrington Pkwy Coraopolis, PA 15108		
Courtyard by Marriott Pittsburgh DT Restaurant	945 Penn Avenue Pittsburgh, PA 15222	40.4443613	-79.9965067
Coyote Cafe / Howler&#39;s	4509 Liberty  Avenue Pittsburgh, PA 15224	40.4631195	-79.9513033
Crafthouse Stage &amp; Grill @ Legacy Lanes	5024 Curry Road Pittsburgh, PA 15236	40.3500542	-79.9965438
Craig&#39;s Cocktails	3122 Chartiers Avenue Pittsburgh, PA 15204	40.4536538	-80.0616693
Craig&#39;s Rounding Third	1301 Kennedy Ave Duquesne, PA 15110	40.3672768	-79.855959
Crepes Parisiennes	207 S Craig  Street Pittsburgh, PA 15213	40.4460679	-79.948641
Cricket Lounge	280 Morewood Ave Pittsburgh, PA 15213	40.4544859	-79.9450092
Cross Creek Inn	620 Boston Hollow Road Elizabeth, PA 15037	40.2920469	-79.8336032
CrossRoads II	1502 Saxonburg Boulevard Tarentum, PA 15084	40.6543726	-79.8383925
Crowne Plaza - Pittsburgh South PJ&#39;s Grille	164 Ft Couch Road Pittsburgh, PA 15241		
Crowne Plaza Hotel Restaurant / Bistro 40	401 Holiday Drive Pittsburgh, PA 15220	40.420382	-80.0565098
Crud&#39;s	1400 Brinton Rd Braddock, PA 15104	40.4214813	-79.8616238
Cruze Bar 	1600 Smallman  Street Pittsburgh, PA 15222	40.4495395	-79.987478
Crystal On Penn	1211 Penn Avenue Pittsburgh, PA 15222	40.446098	-79.9922053
Cuddy Sportsmens Club	&nbsp; South Fayette Street / Box 61 Cuddy, PA 15031		
Cupka&#39;s Cafe	48 27th Street Pittsburgh, PA 15203	40.4568944	-79.9782311
Cupka&#39;s Cafe II	2314 Carson Street Pittsburgh, PA 15203	40.4280153	-79.9723381
Cure 	5336 Butler Street Pittsburgh, PA 15201	40.4826786	-79.9511551
Cuzamil Restaurante Mexicano	2107 Murray Ave Pittsburgh, PA 15217	40.433469	-79.9229764
Cuzzin&#39;s Cafe	3301 Main St Homestead, PA 15120	40.387025	-79.902125
D &amp; T Country Corral	2622 Bowman Ave Mc Keesport, PA 15132	40.357935	-79.83492
D&#39;s Six Pack &amp; Dogz / The Loft	1118 Braddock  Avenue Pittsburgh, PA 15218	40.4320562	-79.8937685
DB&#39;s American Cafe	870 4th Avenue Coraopolis, PA 15108	40.5193423	-80.1666945
DJ&#39;s	7141 Frankstown Ave Pittsburgh, PA 15208	40.4576235	-79.8966362
DLCC / Hall A2 &amp; Pantry A1	1000 Ft Duquesne Boulevard Pittsburgh, PA 15222		
DLCC / Hall B Concession	1000 Ft Duquesne Boulevard Pittsburgh, PA 15222		
DLCC / Hall C Concession	1000 Ft Duquesne Boulevard Pittsburgh, PA 15222		
DLCC / Hall D Concession	1000 Ft Duquesne Boulevard Pittsburgh, PA 15222		
DLCC / Hall E Concession	1000 Ft Duquesne Boulevard Pittsburgh, PA 15222		
Dad&#39;s Pub &amp; Grub	4320 Northern Pike Monroeville, PA 15146	40.43369	-79.750897
Dale&#39;s Bar &amp; Grill II	4377 Murray Ave Pittsburgh, PA 15217	40.4198999	-79.9279759
Danny&#39;s Bar &amp; Grill	1511 Center Ave Pittsburgh, PA 15229	40.5145015	-80.0448525
Darbea&#39;s Tavern	1962 Lowrie  Street Pittsburgh, PA 15212	40.467528	-79.980261
Dave &amp; Buster&#39;s	180 E Waterfront Dr Homestead, PA 15120	40.4092932	-79.9141865
Dave&#39;s Tavern	1943 Big Sewickley Creek Rd Sewickley, PA 15143	40.608665	-80.161704
De Blasio&#39;s	1717 Cochran Rd Pittsburgh, PA 15220	40.3926337	-80.065436
Dee&#39;s Cafe	1314 E Carson St Pittsburgh, PA 15203	40.4285731	-79.9846699
Deer Lakes Bowl &amp; Lounge	284 East Union  Road Cheswick, PA 15024	40.611385	-79.853772
Delallo&#39;s Fort Couch Cafe	91 Fort Couch  Road Pittsburgh, PA 15241	40.3389986	-80.052185
Denise &amp; Earl&#39;s	7709 Frankstown Ave Pittsburgh, PA 15208	40.4556206	-79.8876375
Denunzio&#39;s	2644 Mosside Blvd Monroeville, PA 15146	40.4318347	-79.7505475
Devil Dog Saloon	815 6th Avenue Brackenridge, PA 15014	40.605678	-79.745327
Devils &amp; Dolls	1713 Carson Street Pittsburgh, PA 15203	40.4290709	-79.9813936
Di Pietro&#39;s Ristorante	412 Perry Highway Pittsburgh, PA 15229	40.518468	-80.0316117
DiAnoia&#39;s Eatery	2549 Penn Avenue Pittsburgh, PA 15222	40.4549226	-79.9787773
Diamond Market	430 Market  Street Pittsburgh, PA 15222	40.4410016	-80.0021736
Diamond Run Golf Club	132 Laurel Oak Dr Sewickley, PA 15143	40.55764	-80.1028083
Diamond Run Halfway House	132 Laurel Oak Dr Sewickley, PA 15143	40.55764	-80.1028083
Diamond&#39;s Jim Cafe	2002 Brownsville Rd Pittsburgh, PA 15210	40.394849	-79.986963
Diesel Club Lounge	1601 E Carson St Pittsburgh, PA 15203	40.4289663	-79.9825172
Dietch&#39;s Bar &amp; Grill	272 Freeport Road Pittsburgh, PA 15238	40.4929409	-79.8626052
Dimario&#39;s Restaurant &amp; Bar	429 Railroad  Street Bridgeville, PA 15017	40.3582786	-80.1102621
Dinette	5996 Centre  Avenue Pittsburgh, PA 15206	40.4595929	-79.9253253
Dish Osteria &amp; Bar	128 S 17th St Pittsburgh, PA 15203	40.4275026	-79.982307
Ditka&#39;s Restaurant	12980 Perry Hwy Wexford, PA 15090	40.6426194	-80.0670089
Ditka&#39;s Restaurant	1 Robinson Plaza Pittsburgh, PA 15205	40.4484359	-80.1631602
Dive Bar &amp; Grille	5147 Butler Street Pittsburgh, PA 15201	40.4796882	-79.9550917
Dive Bar &amp; Grille	12017 Perry  Highway Wexford, PA 15090	40.6318496	-80.0583868
Do Drop Inn	2615 Freeport Road Natrona Heights, PA 15065	40.6339469	-79.7138795
Doll&#39;s Bar	200 Vondera St Homestead, PA 15120		
Don&#39;s Bar	151 Margaret St Pittsburgh, PA 15210	40.410065	-79.987562
Don&#39;s Bar &amp; Grill	207 Bettis Rd West Mifflin, PA 15122	40.3577092	-79.8937033
Donato&#39;s Fox Chapel	46 Fox Chapel Road Pittsburgh, PA 15238	40.4883071	-79.8827597
Donnie&#39;s Honeydew	553 Brushton Ave Pittsburgh, PA 15208	40.45154	-79.890158
Donny&#39;s Place	1226 Herron Ave Pittsburgh, PA 15219	40.4592527	-79.9656408
Dorido&#39;s Restaurant	6408 Brownsville Rd Pittsburgh, PA 15236	40.3215204	-79.9956289
Dorothy 6 Blast Furnace Cafe	224 8th  Avenue Homestead, PA 15120	40.4072836	-79.909811
Dot&#39;s Family Restaurant	2634 5th Ave Mc Keesport, PA 15132	40.3565161	-79.8330786
Double Down Saloon	1635 Nobles Lane Pittsburgh, PA 15210	40.3963208	-79.9970441
Double L Bar	307 Grant Avenue Pittsburgh, PA 15209	40.4793991	-79.9723656
Double R Cafe	709 East St Pittsburgh, PA 15212	40.4544479	-79.9981538
Double S Saloon	610 Evans Ave Mc Keesport, PA 15132	40.349933	-79.84976
Double Wide Grille	2339 Carson  Street Pittsburgh, PA 15203	40.428513	-79.971327
DoubleTree By Hilton Pgh Cranberry Restaurant	910 Sheraton  Drive Mars, PA 16046	40.6685634	-80.0950135
DoubleTree Hotel / Jacksons Restaurant Rotisserie	8402 University Blvd Coraopolis, PA 15108		
Doubletree Hotel / Bigelow Grille	1 Bigelow Square Pittsburgh, PA 15219	40.4405269	-79.9940152
Doubletree Pittsburgh Restaurant Convention Center	101 Mall  Boulevard Monroeville, PA 15146	40.431988	-79.7936134
Doubletree by Hilton Season&#39;s Club	500 Mansfield Avenue Pittsburgh, PA 15205	40.4188335	-80.0584184
Doug&#39;s Den	2301 Brownsville Rd Pittsburgh, PA 15210	40.389305	-79.985024
Down the Road Lounge	700 Unity Center Rd Pittsburgh, PA 15239	40.485236	-79.769482
Downey&#39;s House	6080 Steubenville Pike Mc Kees Rocks, PA 15136	40.443688	-80.145731
Draai Laag Brewing Company	501 East Ohio Street Pittsburgh, PA 15209	40.4533444	-80.0004461
Drew Menas&#39; Restaurant &amp; Lounge	1456 Lincoln Hwy North Versailles, PA 15137	40.3728573	-79.7934093
Drinks	348 Center Ave Pittsburgh, PA 15229	40.5164811	-80.0219606
Duke&#39;s 8th &amp; Hays Wine Bar	122 8th Avenue Homestead, PA 15120	40.4062917	-79.9113326
Duke&#39;s Rib House &amp; Grille	1910 Cochran Road Pittsburgh, PA 15220	40.3932959	-80.0656653
Duke&#39;s Upper Deck Cafe	122 W 8th  Avenue Homestead, PA 15120	40.4053132	-79.9126076
Dulembas Bar	4700 Penn Ave Pittsburgh, PA 15224	40.4654669	-79.947989
Duquesne Club	325 6th Avenue Pittsburgh, PA 15222	40.5319682	-80.0229431
Duquesne Club Fitness Center	339 6th Avenue Pittsburgh, PA 15222	40.5319682	-80.0229431
Duquesne Veteran&#39;s Association	215 2nd  Street Duquesne, PA 15110	40.40545	-79.874572
Duran&#39;s Restaurant &amp; Lounge	12 E Main St Carnegie, PA 15106	40.4068135	-80.0873186
E-Towne Bar &amp; Grille	304 Butler Street Pittsburgh, PA 15223	40.4953248	-79.9451145
EBA Club	721 White Street Mc Keesport, PA 15132	40.349274	-79.852258
Ease Modern Comfort Cuisine	1100 South Braddock Avenue Pittsburgh, PA 15218	40.4326319	-79.8941711
East End Brewing Company	6580 Frankstown  Avenue Pittsburgh, PA 15206	40.459362	-79.911678
East End Brewing Taproom 	108 19th Street Pittsburgh, PA 15222	40.4508435	-79.9850201
Easy Street	301 Grant St / Oxford Centre R-1 Pittsburgh, PA 15219		
Eddie Merlots	444 Liberty Avenue Pittsburgh, PA 15222	40.4408674	-80.0047092
Eddie&#39;s Restaurant &amp; Lounge	509 Wall Ave Wilmerding, PA 15148	40.394489	-79.785472
Edgewood Country Club Restaurant	100 Churchill Rd Pittsburgh, PA 15235	40.430393	-79.829331
Edgeworth Swim Club Restaurant	511 East Dr Sewickley, PA 15143		
Egghead&#39;s Saloon	1162 Brookline Blvd Pittsburgh, PA 15226	40.3919342	-80.0134823
Eighteen The Cafe at Pinskers 	2028 Murray  Avenue Pittsburgh, PA 15217	40.434041	-79.9231187
Eighty Acres Kitchen &amp; Bar	1910 New Texas  Road Pittsburgh, PA 15239		
El Campesino	4097 Wm Penn  Highway Monroeville, PA 15146		
El Campesino Restaurante Mexicano	460 Home Drive Pittsburgh, PA 15275	40.4512448	-80.1833764
El Campesino Restaurante Mexicano	4771 McKnight Rd Pittsburgh, PA 15237	40.5207632	-80.0057933
El Paso Mexican Grill	1155 Washington Pike #61 Bridgeville, PA 15017		
Eleven	1150 Smallman Street Pittsburgh, PA 15222	40.4460808	-79.9930939
Elliot&#39;s BBQ &amp; Steakhouse 	611 Old Clairton  Road Pittsburgh, PA 15236	40.325286	-79.956346
Elliott&#39;s Backstreet BBQ	306 Lewis Run Rd Clairton, PA 15025	40.3326001	-79.9314167
Elwood&#39;s Pub	163 Little Deer Creek  Road Rural Ridge, PA 15075		
Embassy Suites / Bridges 446 Restaurant	550 Cherrington  Parkway Coraopolis, PA 15108		
Embassy Suites By Hilton Downtown Restaurant	535 Smithfield  Street Pittsburgh, PA 15222	40.4413521	-79.9980174
Emil&#39;s Cafe	414 Hawkins Ave Braddock, PA 15104	40.4134643	-79.8802474
Emiliano&#39;s Mexican Grill &amp; Bar	2557 E Carson St Pittsburgh, PA 15203	40.4277474	-79.9685946
Empire Palace	5100 Corporate Drive Pittsburgh, PA 15237	40.5614199	-80.0245728
Emporio	11978 Perry  Highway Wexford, PA 15090	40.6324345	-80.0563681
Emsworth Inn	197 Hazelwood Ave Pittsburgh, PA 15202	40.4118919	-79.9418089
Engineers&#39; Society Of West Pa	337 4th  Avenue Pittsburgh, PA 15222	40.4391288	-79.9998961
Ernie&#39;s Tavern	1102 Brackenridge Avenue Brackenridge, PA 15014	40.605475	-79.7358409
Essie&#39;s Original Hot Dog Shop	3901 Forbes  Avenue Pittsburgh, PA 15213	40.4425605	-79.9565407
Evergreen Cafe	7328 Penn Ave Pittsburgh, PA 15208	40.4480826	-79.8985301
Excuses Bar &amp; Grill	2526 E Carson St Pittsburgh, PA 15203	40.4272804	-79.9687188
Fair Oaks Lounge	660 Ambridge Ave Ambridge, PA 15003	40.587541	-80.2065536
Fairmont PGH / Habitat / Andy&#39;s	510 Market Street Pittsburgh, PA 15222	40.441487	-80.0016733
Fairway Grille 	1530 Hamiton Road Pittsburgh, PA 15234		
Fairways Lounge	1500 Locust  Street Braddock, PA 15104	40.4092824	-79.8524644
Falker&#39;s Tavern	721 Walnut Street Clairton, PA 15025	40.3482324	-79.8643469
Fat Heads South Shore Saloon	1805 E. Carson Street Pittsburgh, PA 15203	40.4289667	-79.9801756
Feng Japanese 	4305 Main Street Pittsburgh, PA 15224	40.4642375	-79.9529562
Fin McCools	1501 E Carson St Pittsburgh, PA 15203	40.4290803	-79.9832825
Fire Side Public House	6290 Broad  Street Pittsburgh, PA 15206	40.4603948	-79.9193675
Flinn&#39;s Pub	12270 Frankstown Rd Pittsburgh, PA 15235	40.47321	-79.8199549
Flip Flops	342 Center  Avenue Pittsburgh, PA 15229	40.5162445	-80.0220778
Flix Sports Bar &amp; Grill	1701 Lincoln Highway North Versailles, PA 15137	40.3718575	-79.7866694
Floreffe Hotel Bar &amp; Pizza	1617 State  Street Clairton, PA 15025	40.262119	-79.9133166
Fodis Tavern	1021 Mt Royal Blvd Pittsburgh, PA 15223		
Foli&#39;s Place	1050 Brinton Rd Pittsburgh, PA 15221	40.4290647	-79.8746666
Fonzi&#39;s East End Grill	2721 5th  Avenue Mc Keesport, PA 15132	40.3575327	-79.8326779
Ford&#39;s Bar	1402 Evergreen Ave Pittsburgh, PA 15209	40.496389	-79.976045
Fort Pitt Inn	7780 Steubenville Pike Oakdale, PA 15071	40.4401565	-80.2104503
Fox Chapel Golf Club	426 Fox Chapel Road Pittsburgh, PA 15238	40.5224917	-79.877455
Fox Chapel Yacht Club Pool  Snack Bar/Baja Grill	1366 Old Freeport Road Pittsburgh, PA 15238	40.486365	-79.872736
Frank&#39;s Pizza	641 North Avenue Pittsburgh, PA 15209	40.4453893	-79.8841284
Frank&#39;s Pub &amp; Grill 88	5454 Library  Road Bethel Park, PA 15102	40.3246798	-80.0260307
Frank&#39;s Tavern	2317 New England Rd West Mifflin, PA 15122	40.3314949	-79.91933
Frankies Extra Long	3535 Butler  Street Pittsburgh, PA 15201	40.4649762	-79.9658505
Franklin Inn	2313 Rochester Rd Pittsburgh, PA 15237	40.5783131	-80.0781165
Franktuary Lawrenceville	3810 Butler Street Pittsburgh, PA 15201	40.4669198	-79.9640019
Franktuary Market Square	115 Forbes Avenue Pittsburgh, PA 15222	40.4410869	-80.0033104
Fraternal Order Of Eagles #1634	315 James Street Verona, PA 15147	40.503991	-79.844092
Fred&#39;s Pub / Johnson&#39;s Tavern	7300 Lemington  Avenue Pittsburgh, PA 15206	40.46701	-79.889938
Free Fork 	18 Highland Mall 4005 Natrona Heights, PA 15065		
Frescos / Chadwick / Crown Catering	1 Wexford Sq / Perry Hwy Wexford, PA 15090		
Friendly Inn	936 Broadway Ave Pitcairn, PA 15140	40.401257	-79.773145
Frisch&#39;s	&nbsp; Caste Village Shopping Center Pittsburgh, PA 15236		
Fuel &amp; Fuddle	212 Oakland  Avenue Pittsburgh, PA 15213	40.4411003	-79.9567958
Full Pint Wild Side 	5310 Butler Street Pittsburgh, PA 15201	40.4823362	-79.9521025
Fundaze Backbar	2550 Brownsville Road Pittsburgh, PA 15219	40.385609	-79.97897
Gaetano&#39;s Restaurant	1617 Banksville Rd Pittsburgh, PA 15216	40.4097359	-80.0313774
Galaxy	7246 Kelly Street Pittsburgh, PA 15208	40.4548773	-79.8953928
Gametime Tavern	1620-22 Spring Garden  Avenue Pittsburgh, PA 15212	40.466759	-79.98545
Garage Door Saloon &amp; Pizza Romano	219 Atwood St Pittsburgh, PA 15213	40.4407534	-79.9568309
Garden Bar &amp; Lounge	4912 Gardenville Rd Pittsburgh, PA 15236	40.3458433	-80.0073127
Garden of Eating	7900 Steubenville Pike Imperial, PA 15126	40.440723	-80.227872
Garvey&#39;s	41 Sterling St Pittsburgh, PA 15203	40.446321	-80.0684059
Gateway Clipper / Dock &amp; Commissary	350 W Station Sq Dr/ Dock Pittsburgh, PA 15219		
Gateway Clipper / Duchess	350 W Station Sq Dr/ Dock Pittsburgh, PA 15219		
Gateway Clipper / Empress	350 W Station Sq Dr/ Dock Pittsburgh, PA 15219		
Gateway Clipper / Princess	350 W Station Sq Dr/ Dock Pittsburgh, PA 15219		
Gateway Clipper / The Countess	350 W Station Sq Dr/ Dock Pittsburgh, PA 15219		
Gateway Clipper / The Majestic	350 W Station Sq Dr/ Dock Pittsburgh, PA 15219		
Gateway Clipper / Three Rivers Queen	350 W Station Sq Dr Pittsburgh, PA 15219		
Gateway Grill	4251 Northern Pike Monroeville, PA 15146	40.4341275	-79.7560568
Gateway Inn	5641 Wm Flynn Hwy Gibsonia, PA 15044		
Gator&#39;s Grille	3410 Saxonburg Boulevard Glenshaw, PA 15116	40.5496014	-79.913536
Gene&#39;s Place	3616 Louisa St Pittsburgh, PA 15213	40.439421	-79.9560956
Gennaro&#39;s Pizza &amp; Pasta	1728 E Carson Street Pittsburgh, PA 15203	40.4285889	-79.9810393
Genoa Pizza &amp; Bar	111 Market  Street Pittsburgh, PA 15222	40.4389186	-80.0039649
Genuine Pub	111 Sandy Creek Road Verona, PA 15147	40.4840496	-79.8533566
Geppetto Cafe	4121 Butler  Street Pittsburgh, PA 15201	40.4701019	-79.9609173
GetGo #3057	6513 Steubenville Pike Pittsburgh, PA 15205	40.4474586	-80.1630923
GetGo Cafe #3476	800 Allegheny River  Boulevard Verona, PA 15147	40.5068849	-79.8430705
Getaway Cafe	3049 Sussex Ave Pittsburgh, PA 15226	40.3845792	-80.0157112
Getgo Elizabeth Cafe #3005	1000 Hayden Boulevard Elizabeth, PA 15037	40.2647407	-79.8794451
Gianna Via&#39;s	5301 Grove Road Pittsburgh, PA 15236	40.3586613	-80.0016524
Giant Eagle #24 Cafe 	3239 Washington Pike Bridgeville, PA 15017	40.3409545	-80.1185257
Giant Eagle Cafe	400 Northtowne Square Gibsonia, PA 15044		
Giant Eagle Cafe #0004	5055 Library  Road Bethel Park, PA 15102	40.3388304	-80.0245754
Giant Eagle Cafe #0073	9901 Mountain View Drive West Mifflin, PA 15122	40.3396703	-79.9497458
Giant Eagle Cafe #068	5990 University Boulevard Coraopolis, PA 15108		
Giant Eagle Cafe #18	1671 Butler Plank Road Glenshaw, PA 15116	40.5376611	-79.9651634
Giant Eagle Cafe #25	1029 West View Park Drive Pittsburgh, PA 15229	40.5165385	-80.0375742
Giant Eagle Cafe #37	&nbsp; Quaker Village Shopping Center Leetsdale, PA 15056		
Giant Eagle Cafe #40	5550 Centre Avenue Pittsburgh, PA 15232	40.4565374	-79.9344344
Giant Eagle Cafe #43	155 Towne Center Drive Wexford, PA 15090		
Giant Eagle Cafe #52	132 Ben Avon Hts  Road Pittsburgh, PA 15237		
Giant Eagle Cafe #60	4010 Monroeville Boulevard Monroeville, PA 15146	40.432086	-79.7726358
Giant Eagle Cafe #61	2021 Wharton Street Pittsburgh, PA 15203	40.4310089	-79.976705
Giant Eagle Cafe #616	600 Brentwood Towne Square Way Pittsburgh, PA 15227		
Giant Eagle Cafe #619	1705 Braddock  Avenue Pittsburgh, PA 15218	40.4257051	-79.8865838
Giant Eagle Cafe #6379	420 Waterfront  Drive Homestead, PA 15120	40.4111498	-79.908469
Giant Eagle Cafe #646	51 Walsh Road Pittsburgh, PA 15205		
Giant Eagle Market District #14 Starbucks	7000 Oxford Drive Bethel Park, PA 15102	40.3471251	-80.0466811
Giant Eagle Market District #47 / Cafe	100 Settlers Ridge Center Drive Pittsburgh, PA 15205		
Giant Eagle Wexford Cafe #45	9805 McKnight  Road Pittsburgh, PA 15237	40.5847057	-80.0396431
Gil&#39;s Cafe	2700 Brownsville Road Library, PA 15129	40.2909757	-79.9973439
Gino Bros Pizzeria	55 Alpha Drive Pittsburgh, PA 15238	40.4920166	-79.8667577
Girasole	733 Copeland St Pittsburgh, PA 15232	40.4511949	-79.9346096
Glassport American Legion Post #443	417 Monongahela Ave Glassport, PA 15045	40.3284878	-79.8924974
Golden Gate Restaurant	700 St Clair Ave Clairton, PA 15025	40.2933564	-79.8892533
Golden Goblet	1741 Golden Mile Highway Monroeville, PA 15146	40.4426506	-79.7138333
Good Time Bar	1304 Evergreen Avenue Pittsburgh, PA 15209	40.495202	-79.975783
Goodfellas Deli &amp; Draft House	1518 Mt Nebo  Road Sewickley, PA 15143		
Goodfellas Restaurant &amp; Tavern 	1915 McCague Street Pittsburgh, PA 15218		
Gooski&#39;s	3117 Brereton Ave Pittsburgh, PA 15219	40.4568361	-79.9664977
Gorman&#39;s Pub / Portofino&#39;s	3301 Saw Mill Run Blvd Pittsburgh, PA 15227	40.375428	-79.982898
Gran Agave Mexican Restaurant	152 Bridge Street Homestead, PA 15120		
Gran Canal Caffe	1021  N Canal St Pittsburgh, PA 15215	40.4947213	-79.9317787
Grand Concourse	100 W Station Sq Dr Pittsburgh, PA 15219		
Grandview	1000 Clubhouse Dr Braddock, PA 15104	40.4034049	-79.8557821
Grandview Saloon &amp; Coal Hill Steakhouse	1212 Grandview Ave Pittsburgh, PA 15211	40.4381192	-80.0185368
Grant Bar	114 Grant Avenue Pittsburgh, PA 15209	40.4783094	-79.9696949
Grant St Tavern	310 Grant Street Pittsburgh, PA 15219	40.4376694	-79.9974916
Grapperia	3801 Butler Street Pittsburgh, PA 15201	40.4670557	-79.9644245
Graziano&#39;s Pizzeria	4109 Penn Ave Pittsburgh, PA 15224	40.465884	-79.9548726
Grazie Restaurant &amp; Event Center	100 Village Club Drive Wexford, PA 15090	40.633976	-80.0507874
Green Forest Brazilian Restaurant	655 Rodi Rd Pittsburgh, PA 15235	40.4464844	-79.8267957
Green Front Inn	2341 E Carson St Pittsburgh, PA 15203	40.4284858	-79.9714959
Green Oaks Country Club	5741 3rd St Verona, PA 15147	40.489191	-79.83994
Green Pepper	2020 Murray Avenue Pittsburgh, PA 15217	40.4341336	-79.9231338
Greentree Inn	1006 Greentree Road Pittsburgh, PA 15220	40.4168413	-80.0454066
Grieco&#39;s Carefree Inn	903 Route 910 Indianola, PA 15051	40.5678004	-79.8593491
Grille 565	565 Lincoln Avenue Pittsburgh, PA 15202	40.4615512	-79.9081532
Grist House Brewing	10 Sherman Street Pittsburgh, PA 15209	40.47886	-79.971985
Grit &amp; Grace	535 Liberty Avenue Pittsburgh, PA 15222	40.4419941	-80.0025549
Gus&#39;s Cafe 	4717 Butler Street Pittsburgh, PA 15201	40.474628	-79.957999
Guyasuta Lounge	1004 N Canal St Pittsburgh, PA 15215	40.4948051	-79.932352
H &amp; H Lounge	1903 Leechburg Rd Pittsburgh, PA 15235	40.493474	-79.789948
H&#39;s Bar &amp; Grill	4257 Verona Road Verona, PA 15147	40.466973	-79.86467
Hal&#39;s Bar &amp; Grill	3225 Babcock Blvd Pittsburgh, PA 15237	40.5245995	-80.0165555
Halfway To Heaven	2510 Lincoln Boulevard Elizabeth, PA 15037	40.301801	-79.865078
Hambones Restaurant &amp; Pub	4207 Butler St Pittsburgh, PA 15201	40.470484	-79.9607427
Hampton Inn &amp; Suites / Settlers Ridge Restaurant	5000 Campbells Run Road Pittsburgh, PA 15205	40.4385492	-80.1503716
Happy Day Lounge	313 North Avenue Pittsburgh, PA 15209	40.482126	-79.974163
Happy Hour Saloon	129 Schwab  Avenue Homestead, PA 15120		
Hard Rock Cafe 	230 W Station Sq Dr Pittsburgh, PA 15219		
Harris Grill	5747 Ellsworth Ave Pittsburgh, PA 15232	40.4559645	-79.9313082
Harry&#39;s Bar &amp; Grill @ Pittsburgh National Golf Club	287 Monier Road Gibsonia, PA 15044	40.6506059	-79.8797507
Harvey Wilner&#39;s Village Tavern	1620 Pennsylvania Ave West Mifflin, PA 15122	40.362357	-79.8585015
Heights Tavern	1400 Crafton Boulevard Pittsburgh, PA 15205	40.4375401	-80.0576043
Heinz Field /  Hickory Bridge BBQ #426	500 Art Rooney Avenue Pittsburgh, PA 15212	40.4473455	-80.0142135
Heinz Field / 305 Concession	500 Art Rooney Avenue Pittsburgh, PA 15212	40.4473455	-80.0142135
Heinz Field / 310 Concession &amp; #308#311#307	500 Art Rooney Avenue Pittsburgh, PA 15212	40.4473455	-80.0142135
Heinz Field / Allegheny Fry Company #106	500 Art Rooney Avenue Pittsburgh, PA 15212	40.4473455	-80.0142135
Heinz Field / Allegheny Fry Company #136	500 Art Rooney Avenue Pittsburgh, PA 15212	40.4473455	-80.0142135
Heinz Field / Amp Tent	1 Art Rooney Avenue Pittsburgh, PA 15212	40.4462873	-80.0138843
Heinz Field / Burgatory 147S	500 Art Rooney Drive Pittsburgh, PA 15212	40.4473455	-80.0142135
Heinz Field / Champion&#39;s Club Grill C149	500 Art Rooney Drive Pittsburgh, PA 15212	40.4473455	-80.0142135
Heinz Field / Champion&#39;s Club Italian Station C151	500 Art Rooney Drive Pittsburgh, PA 15212	40.4473455	-80.0142135
Heinz Field / Champion&#39;s Club Main Bar C148	500 Art Rooney Drive Pittsburgh, PA 15212	40.4473455	-80.0142135
Heinz Field / Champion&#39;s Club Pantry	500 Art Rooney Drive Pittsburgh, PA 15212	40.4473455	-80.0142135
Heinz Field / East Club Bar Rm#207#211#214#204#205	500 Art Rooney Avenue Pittsburgh, PA 15212	40.4473455	-80.0142135
Heinz Field / Franco&#39;s Italian Sausage 146S	500 Art Rooney Drive Pittsburgh, PA 15212	40.4473455	-80.0142135
Heinz Field / Goal Line Stand RM#114	500 Art Rooney Avenue Pittsburgh, PA 15212	40.4473455	-80.0142135
Heinz Field / Goal Line Stand Rm#108	500 Art Rooney Avenue Pittsburgh, PA 15212	40.4473455	-80.0142135
Heinz Field / Goal Line Stand Rm#120	500 Art Rooney Avenue Pittsburgh, PA 15212	40.4473455	-80.0142135
Heinz Field / Goal Line Stand Rm#124	500 Art Rooney Avenue Pittsburgh, PA 15212	40.4473455	-80.0142135
Heinz Field / Goal Line Stand Rm#130	500 Art Rooney Avenue Pittsburgh, PA 15212		
Heinz Field / Goal Line Stand Rm#134	500 Art Rooney Avenue Pittsburgh, PA 15212	40.4473455	-80.0142135
Heinz Field / Goal Line Stand Rm#138	500 Art Rooney Avenue Pittsburgh, PA 15212	40.4473455	-80.0142135
Heinz Field / Goal Line Stand Rm#424	500 Art Rooney Avenue Pittsburgh, PA 15212	40.4473455	-80.0142135
Heinz Field / Goal Line Stand Rm#508	500 Art Rooney Avenue Pittsburgh, PA 15212	40.4473455	-80.0142135
Heinz Field / Goal Line Stand Rm#511	500 Art Rooney Avenue Pittsburgh, PA 15212	40.4473455	-80.0142135
Heinz Field / Goal Line Stand Rm#513	500 Art Rooney Avenue Pittsburgh, PA 15212	40.4473455	-80.0142135
Heinz Field / Goal Line Stand Rm#531	500 Art Rooney Avenue Pittsburgh, PA 15212	40.4473455	-80.0142135
Heinz Field / Goal Line Stand Rm#535	500 Art Rooney Avenue Pittsburgh, PA 15212	40.4473455	-80.0142135
Heinz Field / Goal Line Stand Rm#538/Vending #539	500 Art Rooney Avenue Pittsburgh, PA 15212	40.4473455	-80.0142135
Heinz Field / Grid Iron Grill Rm#122	500 Art Rooney Avenue Pittsburgh, PA 15212	40.4473455	-80.0142135
Heinz Field / Grid Iron Grill Rm#509	500 Art Rooney Avenue Pittsburgh, PA 15212		
Heinz Field / Grid Iron Grill Rm#533	500 Art Rooney Avenue Pittsburgh, PA 15212	40.4473455	-80.0142135
Heinz Field / Heroes Bar Rm#128/Vending #127	500 Art Rooney Avenue Pittsburgh, PA 15212	40.4473455	-80.0142135
Heinz Field / Hickory Bridge Rm#129	500 Art Rooney Avenue Pittsburgh, PA 15212	40.4473455	-80.0142135
Heinz Field / Italian Market #230/Vending#229	500 Art Rooney Avenue Pittsburgh, PA 15212	40.4473455	-80.0142135
Heinz Field / Italian Market Rm#206	500 Art Rooney Avenue Pittsburgh, PA 15212	40.4473455	-80.0142135
Heinz Field / Old Allegheny Cafe Rm#215/Vending#216	500 Art Rooney Avenue Pittsburgh, PA 15212	40.4473455	-80.0142135
Heinz Field / Old Allegheny Cafe Rm#239	500 Art Rooney Avenue Pittsburgh, PA 15212	40.4473455	-80.0142135
Heinz Field / Papa John&#39;s 151S	500 Art Rooney Drive Pittsburgh, PA 15212	40.4473455	-80.0142135
Heinz Field / Primanti Brothers Rm#110	500 Art Rooney Avenue Pittsburgh, PA 15212	40.4473455	-80.0142135
Heinz Field / Primanti Brothers Rm#132	500 Art Rooney Avenue Pittsburgh, PA 15212	40.4473455	-80.0142135
Heinz Field / Pub 33	500 Art Rooney Avenue Pittsburgh, PA 15212	40.4473455	-80.0142135
Heinz Field / Quaker Steak &amp; Lube Rm#112	500 Art Rooney Avenue Pittsburgh, PA 15212	40.4473455	-80.0142135
Heinz Field / Red Zone Express Rm#119	500 Art Rooney Avenue Pittsburgh, PA 15212	40.4473455	-80.0142135
Heinz Field / Steel City Grill #212	500 Art Rooney  Drive Pittsburgh, PA 15212	40.4473455	-80.0142135
Heinz Field / Steel City Grill Rm#209	500 Art Rooney Avenue Pittsburgh, PA 15212	40.4473455	-80.0142135
Heinz Field / Steel City Grill Rm#233	500 Art Rooney Avenue Pittsburgh, PA 15212	40.4473455	-80.0142135
Heinz Field / Steel City Grill Rm#236	500 Art Rooney Avenue Pittsburgh, PA 15212	40.4473455	-80.0142135
Heinz Field / West Club Bar / Room #231#235#240#237#238	500 Art Rooney Avenue Pittsburgh, PA 15212	40.4473455	-80.0142135
Heinz Hall Main Kitchen &amp; Bar	600 Penn Avenue Pittsburgh, PA 15222	40.442652	-80.0013959
Helicon Brewing	102 Union Avenue Oakdale, PA 15071	40.396589	-80.184957
Hello Bistro #1	3605 Forbes Avenue Pittsburgh, PA 15213	40.4409286	-79.9583548
Helmet Heads Bar &amp; Grille	4962 Library Road Bethel Park, PA 15102	40.3434982	-80.0268677
Hemingway&#39;s Cafe	3911 Forbes Ave Pittsburgh, PA 15213	40.442287	-79.9563515
Herb&#39;s Cafe	2511 Grandview Ave Mc Keesport, PA 15132	40.335439	-79.834625
Hi Sound Karioke	6316 Forbes Avenue Pittsburgh, PA 15217	40.4380187	-79.9185138
Hidden Harbor @ The Independenent 	1708 Shady  Avenue Pittsburgh, PA 15217	40.4376509	-79.9195142
Hidy&#39;s Cafe	115 W Braddock Ave Braddock, PA 15104	40.407873	-79.877274
High Rollers	519 E 8th Ave Homestead, PA 15120	40.409118	-79.905749
Highland Bar	517 Perry Hwy Pittsburgh, PA 15229	40.5222885	-80.0344315
Hilltop Tavern	750 Warrington  Avenue Pittsburgh, PA 15210	40.421595	-79.99387
Hilltoppers Pub	1700 Lowrie St Pittsburgh, PA 15212	40.4639354	-79.9826699
Hilton Garden Inn / The Garden Grille &amp; Bar	3454 Forbes  Avenue Pittsburgh, PA 15213	40.4394295	-79.9594009
Hilton Garden Inn Robinson - Restaurant	303 Park Manor Drive Pittsburgh, PA 15205	40.4505123	-80.1641401
Hitchhiker Brewing Company	190 Castle Shannon  Boulevard Pittsburgh, PA 15228	40.3775401	-80.0406599
Hofbrauhaus	2705 Water  Street Pittsburgh, PA 15203	40.4287081	-79.9645651
Hoffstot&#39;s/Cafe Monaco	533 Allegheny Avenue Oakmont, PA 15139	40.5186473	-79.8433906
Hog&#39;s Bar &amp; Grill	1724 Prospect Road Pittsburgh, PA 15236	40.358748	-79.9591
Hog&#39;s Head Bar &amp; Grill	3433 Spring Garden  Road Pittsburgh, PA 15212	40.4824514	-79.9962122
Holiday Inn / Madison&#39;s Restaurant and Lounge	2750 Mosside  Boulevard Monroeville, PA 15146	40.4370575	-79.7554003
Holiday Inn Express Pittsburgh Airport Restaurant	5311 Campbells Run Road Pittsburgh, PA 15205	40.4431131	-80.1600039
Hollywood Show Bar	836 Linden Avenue East Pittsburgh, PA 15112	40.4008492	-79.8346809
Homerun Harry&#39;s	225 W Station Sq Dr/ Commerce Ct Pittsburgh, PA 15219		
Homestead Capri Pizza	820 Amity Street Homestead, PA 15120	40.4065788	-79.9103719
Homestead Slavs Social Club	815 Ann St Homestead, PA 15120	40.4074637	-79.9086954
Homewood American Legion	4491 Verona Rd Verona, PA 15147	40.473596	-79.857129
Homewood Suites Hotel Restaurant	2000 GSK Drive Coraopolis, PA 15108		
Homewood Suites Restaurant	1410 Smallman Street Pittsburgh, PA 15222	40.4479812	-79.9898632
Honest John&#39;s 	216 8th Avenue Homestead, PA 15120	40.4072651	-79.9101652
Hoople&#39;s	2221 Brownsville Rd Pittsburgh, PA 15210	40.390766	-79.985881
Hoots Again	3115 Walnut St Mc Keesport, PA 15132	40.33078	-79.842895
Hop Farm Brewing Company	5601 Butler Street Pittsburgh, PA 15201	40.4846953	-79.9479546
Hop&#39;s Place	3037 Shadeland Ave Pittsburgh, PA 15212	40.4726441	-80.0315075
Hot Rod Cafe	205 Boggs  Avenue Pittsburgh, PA 15211	40.4261197	-80.0076392
Hot Shots South Park Saloon	4099 Brownsville  Road Library, PA 15129	40.2864389	-80.0198172
Hotel Monaco / Biergarten / 9th Floor	458 Strawberry Way Pittsburgh, PA 15219	40.441657	-79.9961543
Hotel Monaco / The Commoner Restaurant &amp; Bar	458 Strawberry  Way Pittsburgh, PA 15219	40.441657	-79.9961543
Hotel Parry Restaurant	644 W 7th Ave Homestead, PA 15120	40.3977284	-79.923259
Hotel Richland - Restaurant	5370 Wm Flynn Hwy Gibsonia, PA 15044		
Hotel Terrace Hall Restaurant	2335 Centre Ave Pittsburgh, PA 15219	40.445833	-79.9729594
Hott Rodz	626 Monongahela Ave Glassport, PA 15045	40.32513	-79.892774
Hough&#39;s	563 Greenfield Ave Pittsburgh, PA 15207	40.4262651	-79.9403121
Houlihan&#39;s Galleria Mall	1500 Washington Rd Pittsburgh, PA 15228	40.3569591	-80.0518073
Houlihan&#39;s Restaurant	100 Robinson Center Drive Pittsburgh, PA 15205		
Houlihan???s in Station Square 	125 Station Sq Drive / Freight House Shops 15 Pittsburgh, PA 15219		
House Of Lee	8145 Ohio River Blvd Pittsburgh, PA 15202	40.5100424	-80.0950708
Howard&#39;s Park Place Pub	534 Peebles St Pittsburgh, PA 15221	40.4413065	-79.8944459
Howard&#39;s Tavern	98 Center Ave Pittsburgh, PA 15229	40.5091523	-80.0286449
Howl at the Moon	125 7th Street Pittsburgh, PA 15222	40.4438831	-80.000227
Hula Bar &amp; Grill	759 Railroad Avenue Verona, PA 15147	40.506476	-79.8438852
Hunan Chinese &amp; Bubble Tea -Smoothie	239 Atwood  Street Pittsburgh, PA 15213	40.4402935	-79.9562773
Huntz Tavern	645 Butler Street Pittsburgh, PA 15223	40.5032954	-79.9473761
Hyatt House / Shadyside Restaurant	5335 Baum  Boulevard Pittsburgh, PA 15224	40.4570283	-79.9390595
Hyatt House Southside Works Restaurant	2795 South Water Street Pittsburgh, PA 15223	40.4283628	-79.9639518
Hyatt Place Restaurant	260 Shore Drive Pittsburgh, PA 15212	40.4466866	-80.0089281
Hyatt Regency Pgh Int&#39;l Airport / Restaurant	1111 Airport Boulevard / Pgh Int&#39;l Airport Pittsburgh, PA 15231		
Hyde Park Prime Steakhouse	247  North Shore  Drive Pittsburgh, PA 15212	40.446175	-80.0082771
Hyeholde Restaurant	1516 Coraopolis Heights Rd Coraopolis, PA 15108		
Ice Castle Bar 	990 Castle Shannon Boulevard Pittsburgh, PA 15234	40.3660903	-80.0265822
Ichiban II	1160 Park Manor Boulevard Pittsburgh, PA 15205	40.4532646	-80.1653898
Ichiban Steakhouse	983  Freeport Rd Pittsburgh, PA 15238	40.4871937	-79.8855575
Ichiban Steakhouse &amp; Sushi Bar	1500 Village Run  Road Wexford, PA 15090	40.633555	-80.0577947
Il Forno	115 Federal Street Pittsburgh, PA 15212	40.4471507	-80.0064087
Il Pizzaiolo	703 Washington Rd Pittsburgh, PA 15228	40.380192	-80.0444813
Il Pizzaiolo	701 Warrendale Village Drive Warrendale, PA 15086	40.6567612	-80.0910779
Images Bar	965 Liberty Avenue Pittsburgh, PA 15222	40.4437932	-79.9957245
Improv - Restaurant &amp; Comedy Showcase	166 E Bridge St Homestead, PA 15120		
Independent Brewing Company	1704 Shady Avenue Pittsburgh, PA 15217	40.4376813	-79.9195192
Industry Public House	140 Andrew Drive Pittsburgh, PA 15275	40.451885	-80.1768917
Industry Public House	4305 Butler Street Pittsburgh, PA 15201	40.4709302	-79.9604413
Insurrection Aleworks	1635 Railroad Street Carnegie, PA 15106	40.392451	-80.087404
Interchange Lounge	1560 Worthington Ave Clairton, PA 15025	40.2923805	-79.9094898
Iron Creek Bar &amp; Grille	611 Millers Run Road Cuddy, PA 15031	40.3481607	-80.1554604
It&#39;s Dogg&#39;n It	1936 Murray Avenue Pittsburgh, PA 15217	40.4350675	-79.9229625
Italian Village Pizza	979  Freeport Rd Pittsburgh, PA 15238	40.4880681	-79.886955
Italo American Citizens Club	1130 Rodi  Road Turtle Creek, PA 15145	40.4246435	-79.8153841
Ivy Restaurant	360 Castle Shannon Blvd Pittsburgh, PA 15234	40.3751538	-80.0366799
J &amp; S Pizza	1828 Union Avenue Natrona Heights, PA 15065	40.6237805	-79.7220875
J Clarks	9805 McKnight Rd Pittsburgh, PA 15237	40.5847057	-80.0396431
J D &#39;s at RIDC Park	180 Gamma Drive Pittsburgh, PA 15238	40.5019257	-79.8604898
J G &#39;s Tarentum Station Grille	101 Station Drive Tarentum, PA 15084		
J L &#39;s Double Headers	2349 Vondera St Homestead, PA 15120		
JP&#39;s Bar	4970 Library Road Bethel Park, PA 15102	40.343314	-80.0267351
Jack&#39;s Rose Bar	1117 E Carson St Pittsburgh, PA 15203	40.4288491	-79.9866356
Jackman Inn	918 Jackman Ave Pittsburgh, PA 15202		
Jade Grille	670 Washington Rd Pittsburgh, PA 15228	40.3805957	-80.0448481
Jailhouse Saloon	929 5th Ave Coraopolis, PA 15108	40.5180967	-80.1654336
James Street Gastropub &amp; Speakeasy	422 Foreland Street Pittsburgh, PA 15212	40.4544277	-80.0010718
James Street Tavern	1224 James St / Rear Monroeville, PA 15146		
Jamison&#39;s	3113 Liberty Avenue Pittsburgh, PA 15216	40.459586	-79.9701989
Jay&#39;s Other Place	3888 Wm Flynn Highway Allison Park, PA 15101		
Jays Lounge	2176 Webster Avenue Pittsburgh, PA 15219	40.447162	-79.977905
Jb&#39;s Roadside Bar &amp; Grill	1633 Saxonburg Boulevard Tarentum, PA 15084	40.647305	-79.84612
Jeckyl &amp; Hyde	140 S 18th St Pittsburgh, PA 15203	40.4265787	-79.9809497
Jefferson Hideaway	1172 Jefferson Heights Road Pittsburgh, PA 15235	40.444519	-79.8132139
Jergel&#39;s Rhythm Grille	103 Slade Lane Warrendale, PA 15086	40.6546897	-80.0822175
Jerome Bettis&#39; Grill #36	393 North Shore  Drive Pittsburgh, PA 15212	40.4455502	-80.0113372
Jim&#39;s Pub	2612 Liberty Way Mc Keesport, PA 15133	40.3283139	-79.8564878
Jimmy D&#39;S	1707 Carson Street Pittsburgh, PA 15203	40.4290373	-79.9816094
Jimmy Wan&#39;s Restaurant &amp; Lounge	1337 Old Freeport Road Pittsburgh, PA 15238	40.4888872	-79.874634
Jimmy Z&#39;s Place	3889 Brighton  Road Pittsburgh, PA 15212	40.486719	-80.0371858
Jockey Club Of Etna	1 Isabella Street Pittsburgh, PA 15223	40.4475206	-80.0040431
Jocko&#39;s Pub	901 Main St Pittsburgh, PA 15215	40.494403	-79.9336749
Joe&#39;s	4814 Buttermilk Hollow Rd West Mifflin, PA 15122	40.358184	-79.909575
Joe&#39;s Crab Shack	226 W Station Sq / Bessemer Pittsburgh, PA 15219		
Joe&#39;s Crab Shack	6491 Robinson Center Drive Pittsburgh, PA 15205		
John Anthony&#39;s Restaurant Lounge	115 Center New Texas Rd Pittsburgh, PA 15239		
Johnny O&#39;s Bar &amp; Grille	5533 Walnut Street Pittsburgh, PA 15232	40.4517596	-79.9325658
Johnny&#39;s	112 Westinghouse  Avenue Wilmerding, PA 15148	40.3927933	-79.8100251
Johnny&#39;s Hide-A-Way	618 California Ave Pittsburgh, PA 15202	40.501409	-80.068654
Jose &amp; Tony&#39;s	1573 McFarland  Road Pittsburgh, PA 15216	40.3930291	-80.0459532
Joseph Tambellini Restaurant	5701 Bryant St Pittsburgh, PA 15206	40.4765877	-79.9214518
Jugo Slav Ed &amp; Enter Hm Cover	5225 N Pennsylvania Ave Bethel Park, PA 15102	40.329322	-80.033318
Just Cousins	203 Grant Avenue Pittsburgh, PA 15209	40.5496894	-80.0392566
K &amp; M Pub	200 Mt Oliver St Pittsburgh, PA 15210		
KB Forward Lanes	5844 Forward Ave Pittsburgh, PA 15217	40.4292017	-79.9223235
KBox	214 Craig Street Pittsburgh, PA 15213	40.4503566	-79.9508477
Kanczes City Saloon	1016 Duquesne Blvd Duquesne, PA 15110	40.384196	-79.859182
Kar Hing	211 North Ave East Pittsburgh, PA 15112	40.4080257	-79.8408849
Karans Restaurant	224 Wall Ave Wilmerding, PA 15148	40.3930603	-79.7977827
Karwoskis Tavern	132 S 24th St Pittsburgh, PA 15203	40.426338	-79.971936
Katana	3229 Liberty Avenue Pittsburgh, PA 15216	40.4608163	-79.9683969
Kay&#39;s Bar	1011 Sharpshill Rd Pittsburgh, PA 15215		
Kaya	2000 Smallman Street Pittsburgh, PA 15222	40.4516503	-79.9844699
Keith-Holmes  VFW Post 402	412 Mulberry St Coraopolis, PA 15108	40.5172377	-80.1627554
Kelly&#39;s Bar	6012 Centre Ave Pittsburgh, PA 15232	40.4600196	-79.9247677
Kelly&#39;s Korner	285 45th St Pittsburgh, PA 15201	40.470662	-79.956909
Kenny&#39;s Place	1404 5th Ave Pittsburgh, PA 15219	40.4383628	-79.9861781
Kennywood / Backyard BBQ 	4800 Kennywood Boulevard West Mifflin, PA 15122	40.3878426	-79.8645927
Keystone Grille House	827 Linden Ave East Pittsburgh, PA 15112	40.4008337	-79.8347397
Khalil&#39;s II Restaurant 	4755-57 Baum Blvd Pittsburgh, PA 15213	40.45407	-79.9498996
Kiku Japanese Restaurant	225 W Station Sq Dr Pittsburgh, PA 15219		
Killian&#39;s Pub	531 Freeport Road Creighton, PA 15030	40.5758886	-79.7783092
Kimmie&#39;s Restaurant &amp; Lounge	900 Park Ave Pittsburgh, PA 15234	40.4446021	-79.8758641
Kiyoshi	6506 University Blvd Coraopolis, PA 15108		
Knuckleheads	146 Three Degree Road Pittsburgh, PA 15237	40.5446007	-80.0314063
Kopy&#39;s Bar	80 S 12th St Pittsburgh, PA 15203	40.428097	-79.986718
Korea Garden Restaurant	414 Semple St Pittsburgh, PA 15213	40.4366464	-79.9546926
Korner Pub 	4 Bower Hill Rd Pittsburgh, PA 15228	40.3870932	-80.0440294
Kosbar Ranch Lounge	363 Coraopolis Road Coraopolis, PA 15108	40.5035617	-80.1360857
Kretzler&#39;s Tavern	2240 Babcock Blvd Pittsburgh, PA 15237	40.5131469	-79.997592
Krista&#39;s Cantina	2650 California Pittsburgh, PA 15212		
Krivan Hall Assoc	628 Garfield Street Springdale, PA 15144	40.538716	-79.782804
Kuhn&#39;s Cafe	4801 McKnight Road Pittsburgh, PA 15237	40.522828	-80.006531
Kynor&#39;s Korner Cafe	4235 3rd St Mc Keesport, PA 15132	40.321182	-79.837774
LN Fish	995 Greensburg Pk East Pittsburgh, PA 15112		
La Barbe Restaurant	4397 Old Wm Penn Hwy Monroeville, PA 15146		
La Cappella	1041 Freeport Rd Pittsburgh, PA 15238	40.4884157	-79.885518
Ladles	516 Pittsburgh Street Springdale, PA 15144	40.541041	-79.7858679
Lady Di Lounge	7904  Frankstown Ave Pittsburgh, PA 15221	40.454916	-79.88561
Lafayette Hotel Restaurant	301 S Main St Pittsburgh, PA 15215	40.4940447	-79.937614
Lapko&#39;s Bar &amp; Grill	340 8th  Avenue Homestead, PA 15120	40.4084992	-79.9075025
Larry&#39;s Hotel Bar	3401 Walnut St Mc Keesport, PA 15132	40.3295101	-79.8412186
Las Velas	21 Market Square Pittsburgh, PA 15222	40.440794	-80.0021061
Laughing Buddha Bar	1778 Highland Avenue Pittsburgh, PA 15241	40.5032084	-79.9389503
Lava Lounge	2204 E Carson St Pittsburgh, PA 15203	40.428184	-79.9743249
Le Mardi Gras	731 Copeland St Pittsburgh, PA 15232	40.4512509	-79.9346096
LeMont Restaurant	1114 Grandview Ave Pittsburgh, PA 15211	40.4377679	-80.0178151
Lee Tuck	134 Steuben Street Pittsburgh, PA 15220	40.442505	-80.033957
Lee&#39;s Bar &amp; Grill	428 Brownsville Rd Pittsburgh, PA 15210	40.4127462	-79.9894767
Lefty&#39;s In The Strip	2021 Penn Avenue Pittsburgh, PA 15222	40.4516204	-79.9835998
Legends Tavern	914 Brownsville Rd Pittsburgh, PA 15210	40.407216	-79.992233
Legion Memorial Assoc	2813  Capital St Mc Keesport, PA 15131		
Legume Bistro / Butterjoint	214 Craig Street Pittsburgh, PA 15213	40.4503566	-79.9508477
Leiserv 11th Frame Lounge	5840 Buttermilk Hollow Road Pittsburgh, PA 15207	40.3642673	-79.9086573
LemonHead&#39;s Brightwood Grille	5317 Brightwood  Road Bethel Park, PA 15102	40.3273772	-80.0300697
Lemontree Lounge	400 Arlington Street Sturgeon, PA 15082		
Lenny&#39;s	4118 Bakerstown-Culmerville Road Gibsonia, PA 15044	40.651519	-79.916604
Level 20 Sports Bar &amp; Grill	1033 Paxton  Drive Bethel Park, PA 15102	40.3365442	-80.0241059
Liam&#39;s Fish Wings &amp; Things	501 Penn Avenue Pittsburgh, PA 15221	40.444901	-79.886846
Liberty Boro Veterans Assoc	2701 C St Mc Keesport, PA 15133		
Lidia&#39;s	1400 Smallman Street Pittsburgh, PA 15222	40.4484631	-79.9894086
Little Tokyo	636 Washington Rd Pittsburgh, PA 15228	40.3818121	-80.0444905
Little Tokyo Bistro	2122 E Carson St Pittsburgh, PA 15203	40.4281728	-79.97535
Local Bar &amp; Kitchen	1513 Carson Street Pittsburgh, PA 15203	40.4289981	-79.982867
Local Brew House 	120 Federal  Street Pittsburgh, PA 15212	40.4482202	-80.0039053
Logan&#39;s Pub	301 Craig  Street Pittsburgh, PA 15213	40.4519461	-79.9522871
Loggia Libera Italia #941	101 6th St Glassport, PA 15045	40.326161	-79.893214
Lombardozzi&#39;s	4786 Liberty Ave Pittsburgh, PA 15224	40.4604776	-79.947344
Lone Star Steakhouse &amp; Saloon	6111 Mountain View  Drive West Mifflin, PA 15122	40.3428986	-79.9411598
LongHorn Steakhouse #5245	410 W Waterfront Dr Homestead, PA 15120	40.4042365	-79.9188351
LongHorn Steakhouse #5293	200 Robinson Center Drive Pittsburgh, PA 15205		
LongHorn Steakhouse #5525	9150 Covenant  Avenue Pittsburgh, PA 15237	40.5712927	-80.0229829
Longue Vue Club	400 Longue Vue Dr Verona, PA 15147		
Loose Moose Saloon	5185 Brownsville Rd Pittsburgh, PA 15236	40.3439421	-79.9848135
Lorenz Cafe	718 Lorenz Avenue Pittsburgh, PA 15220	40.4448018	-80.0397234
Lot 17	4617 Liberty Ave Pittsburgh, PA 15224	40.4625595	-79.9501667
Lou Magoo&#39;s	401 Lincoln Hwy North Versailles, PA 15137	40.381767	-79.818835
Lou&#39;s Little Corner Bar	4924 Liberty Ave Pittsburgh, PA 15224	40.459341	-79.9451899
Loughlin&#39;s Pub	2373 Saxonburg Boulevard Cheswick, PA 15024	40.6078667	-79.8678514
Lounge 7101 2nd Time Around	7101 Frankstown Ave Pittsburgh, PA 15208	40.458094	-79.898276
Lounge on Verona	4343 Verona Road Verona, PA 15147	40.468019	-79.86215
Loyal Order Of Moose #46	1044 Saxonburg Blvd Glenshaw, PA 15116	40.5194956	-79.9390181
Lucca Ristorante &amp; Wine Bar	317 S Craig  Street Pittsburgh, PA 15213	40.445176	-79.9484908
Luciano&#39;s Italian Brick Oven	1212 Long Run  Road Mc Keesport, PA 15131	40.3336125	-79.8117608
Luciano&#39;s Pizza	1030 Clifton Rd Bethel Park, PA 15102	40.2974292	-80.0450656
Luciano&#39;s Pizza &amp; Sixpack	1411 Duncan Ave Pittsburgh, PA 15237	40.5675932	-80.0071093
Lucky Franks	312 Braddock Avenue Braddock, PA 15104	40.405133	-79.872165
Luke Wholey&#39;s Wild Alaska Grill	2106 Penn Avenue Pittsburgh, PA 15222	40.4517212	-79.9826196
Lula	515 Broad Street Sewickley, PA 15143	40.540662	-80.1800005
Luma Restaurant	186 Castle Shannon Blvd Pittsburgh, PA 15228	40.3775166	-80.0407254
Lytle Cafe	5040 Lytle St Pittsburgh, PA 15207	40.4067966	-79.9456056
M &amp; J Bistro	2017 Carson Street Pittsburgh, PA 15203	40.4287193	-79.9769083
MJ&#39;s Steel City Saloon	682 Cliff Mine Road Coraopolis, PA 15108	40.4542644	-80.2153095
Mad Mex	4100 Wm Penn Highway Monroeville, PA 15146		
Mad Mex	2 Robinson Plaza / Suite 100 Pittsburgh, PA 15205	40.448905	-80.1645641
Mad Mex	7905 McKnight Road Pittsburgh, PA 15237	40.5496301	-80.019363
Mad Mex	220 S Highland    Avenue Pittsburgh, PA 15206	40.4582441	-79.9254299
Mad Mex	2101 Greentree Road Pittsburgh, PA 15220	40.3905672	-80.0724608
Mad Mex	370 Atwood  Street Pittsburgh, PA 15213	40.4380685	-79.9541864
Mahoneys / Little E&#39;s Restaurant 	949 Liberty Avenue Pittsburgh, PA 15222	40.4436406	-79.9963117
Main Street Bar &amp; Billards	604 Main St Pittsburgh, PA 15215	40.494833	-79.935638
Mallorca	2228 E Carson St Pittsburgh, PA 15203	40.4280823	-79.9734048
Mama Pepino&#39;s	44 Monongahela Ave Glassport, PA 15045	40.3348801	-79.8909161
Manny&#39;s Rook Station Cafe	201 Hawthorne Avenue Carnegie, PA 15106	40.4151524	-80.0679399
Manor Theatre	1729 Murray Ave Pittsburgh, PA 15217	40.4372999	-79.922629
Mansions on Fifth Restaurant	5105 5th Avenue Pittsburgh, PA 15232	40.4481108	-79.9383159
Maple Creek Inn	1100 Maple Ave Turtle Creek, PA 15145	40.407646	-79.820293
Maple Crest Golf Course	3892 Logans Ferry Rd Monroeville, PA 15146	40.4556772	-79.7730695
Mar-Kee Lounge	655 Baldwin Street Bridgeville, PA 15017	40.3578255	-80.1064998
Marco&#39;s	3019 Jacks Run Rd Mc Keesport, PA 15131	40.3444592	-79.7975838
Marina Pub	314 Arch Street Verona, PA 15147	40.499909	-79.847185
Mario&#39;s Eastside Saloon	5442 Walnut Street Pittsburgh, PA 15232	40.4509603	-79.933838
Mario&#39;s Italian Restaurant	935 Beaver Grade Road Coraopolis, PA 15108	40.5113286	-80.212909
Mario&#39;s Southside Saloon/ Blue Lou&#39;s	1510 E Carson St Pittsburgh, PA 15203	40.428681	-79.9830206
Market District Bar / Giant Eagle #72	910 Freeport Road Pittsburgh, PA 15238	40.4882333	-79.893913
Market Street Grocery	435 Market Street Pittsburgh, PA 15222	40.4412099	-80.0024645
Market Street Saloon	100 2nd Street Elizabeth, PA 15037	40.6500359	-74.1895469
Marriott City Center / Steelhead Brasserie &amp; Wine Bar	112 Washington  Place Pittsburgh, PA 15219	40.4394236	-79.9921601
Marroni&#39;s	1 Ohio River Boulevard Leetsdale, PA 15056	40.567203	-80.212158
Marshall&#39;s Lounge	1254 Brookline Blvd. Pittsburgh, PA 15226	40.3920077	-80.0110395
Matt&#39;s Sub Shack &amp; Pizza	713 Little Deer Creek Valley  Road Russellton, PA 15076	40.618783	-79.834051
Matteo&#39;s	3615 Butler Street Pittsburgh, PA 15201	40.4658865	-79.9652774
Max &amp; Erma&#39;s #333054	936 Sheraton Drive Mars, PA 16046	40.6725445	-80.0974022
Max &amp; Erma&#39;s #333061	130 Andrew Drive Pittsburgh, PA 15275	40.4517437	-80.175819
Max &amp; Erma&#39;s #333072	2740 Mosside  Boulevard Monroeville, PA 15146	40.4367963	-79.7573709
Max N Odi&#39;s	500 Monongahela Ave Glassport, PA 15045	40.3275404	-79.8927954
Max&#39;s Allegheny Tavern	537 Suismon St Pittsburgh, PA 15212	40.4551822	-79.9997366
Maxwell&#39;s Pub	519 Brownsville Rd Pittsburgh, PA 15210	40.411412	-79.989581
McArdle Tavern	1600 Bingham St Pittsburgh, PA 15203	40.4293926	-79.9825239
McClaren&#39;s	2000 Whitaker Way Homestead, PA 15120	40.4031104	-79.8901609
McCormick &amp; Schmick&#39;s Seafood Restaurant	2667 Sidney St Pittsburgh, PA 15203	40.4280386	-79.9665614
McCormick &amp; Schmick&#39;s Seafood Restaurant	301 5th Avenue Pittsburgh, PA 15222	40.4409188	-79.9996159
McCoy&#39;s Pub &amp; Grille	5027 Curry Rd Pittsburgh, PA 15236	40.3496346	-79.9956927
McFadden&#39;s Pittsburgh	211 Shore  Drive Pittsburgh, PA 15212	40.4463247	-80.0076447
McKees Point Palisades Performing Arts Corp	100 5th Ave Mc Keesport, PA 15132	40.3504613	-79.8688334
McKeesport Beer Barrel	545 5th Ave Mc Keesport, PA 15132	40.351678	-79.860227
McKeesport Turners	2701 Walnut St Mc Keesport, PA 15132	40.333429	-79.847174
McMinn&#39;s Pub	3925 Willow  Avenue Pittsburgh, PA 15234	40.3639029	-80.0279158
McNeilly Beer	441 McNeilly Road Pittsburgh, PA 15226	40.3829977	-80.015417
Meat &amp; Potatoes	649 Penn Avenue Pittsburgh, PA 15222	40.4431504	-80.0011433
Mei-Mei&#39;s Mandarin Gourmet	305 Wood Street Pittsburgh, PA 15222	40.4392206	-80.0017051
Mellon&#39;s Pub	502 Eden Park Blvd Mc Keesport, PA 15132	40.3279579	-79.8360385
Melrose Tavern	2712 Brownsville Rd Pittsburgh, PA 15227	40.3839972	-79.9777383
Mercurio&#39;s Gelato &amp; Pizza	5523 Walnut Street Pittsburgh, PA 15232	40.4515766	-79.9328425
Mexi-Casa 	3001 Liberty Avenue Pittsburgh, PA 15217	40.4582714	-79.972117
Mia Madre Trattoria	500 Pine Hollow Road Coraopolis, PA 15108		
Michael A&#39;s	804 Allegheny River Boulevard Oakmont, PA 15139	40.5240543	-79.8411533
Michael&#39;s Lounge	331 Singer Ave Mc Kees Rocks, PA 15136	40.469496	-80.076759
Michael&#39;s Pizza Bar Restaurant	2612 Sarah St Pittsburgh, PA 15203	40.4262517	-79.9681943
Michael&#39;s Pub	1111 James St Turtle Creek, PA 15145	40.417473	-79.81458
Michael&#39;s Restaurant	3052 Churchview Pittsburgh, PA 15227		
Mickey T&#39;s	1100 Lincoln Hwy North Versailles, PA 15137	40.3779472	-79.8040108
Mickey&#39;s Place &amp; Kennedy Lanes Bowling Center	1625 Pine Hollow  Road Mc Kees Rocks, PA 15136	40.4751292	-80.0857501
Middle Road Inn	1822 Middle Road Glenshaw, PA 15116	40.5386274	-79.933206
Mifflin Social Club	4025 South &amp; Irene St West Mifflin, PA 15122		
Mike &amp; Tony&#39;s Gyros	1155 Washington Pike Bridgeville, PA 15017	40.3692707	-80.1055518
Mike&#39;s New Moon Saloon	2059 Saxonburg Boulevard Gibsonia, PA 15044	40.624919	-79.861025
Mike&#39;s Place	19 Ferry St Leetsdale, PA 15056	40.5624658	-80.2096267
Mike&#39;s Wife&#39;s Bar &amp; Grill	905 Allegheny  Avenue Oakmont, PA 15139	40.5260295	-79.8410096
Milestone / Pizza Di Roma	2809 Brownsville  Road Pittsburgh, PA 15227	40.3833954	-79.9769036
Miller&#39;s Seafood	3853 California Ave Pittsburgh, PA 15212	40.4851126	-80.0416966
Mineo&#39;s Pizza House 	2124 Murray Ave Pittsburgh, PA 15217	40.432968	-79.923336
Mitchell&#39;s Bar &amp; Restaurant	304 Ross St Pittsburgh, PA 15219	40.4370972	-79.996521
Mitchell&#39;s Fish Market	185 Waterfront Drive Homestead, PA 15120	40.4108518	-79.915587
Mitchell&#39;s Fish Market #1313	1500 Washington  Road Pittsburgh, PA 15228	40.3569591	-80.0518073
Mitchell&#39;s Tavern	4632 Centre Ave Pittsburgh, PA 15213	40.4520835	-79.9506065
Mixtape	4907 Penn Avenue Pittsburgh, PA 15224	40.4654736	-79.944844
Modern Cafe	862 Western Avenue Pittsburgh, PA 15233	40.4520948	-80.0164506
Moe&#39;s Southwest Grill	1597 Washington Pike Bridgeville, PA 15017	40.3826179	-80.0951259
Moe&#39;s Southwest Grill	210 Forbes Ave Pittsburgh, PA 15222	40.4404334	-80.0020462
Mohan&#39;s Bar &amp; Restaurant	7324 Saltsburg  Road Pittsburgh, PA 15235	40.4775179	-79.7867928
Moik&#39;s	104 Brownsville Rd Pittsburgh, PA 15210	40.4174975	-79.9868562
Molnar&#39;s Lounge &amp; Restaurant	2550 Hayden  Boulevard Elizabeth, PA 15037	40.2489922	-79.8770813
Monico&#39;s Bar &amp; Grille	3435 Universal Road Pittsburgh, PA 15239	40.4898658	-79.7833829
Monkey Bar &amp; Grill	703 Clairton Blvd Pittsburgh, PA 15236	40.3270337	-79.9442603
Monroeville Convention Center	209 Mall Blvd Monroeville, PA 15146	40.4326759	-79.7911664
Monte Cello&#39;s	10441 Perry Hwy Wexford, PA 15090	40.6068339	-80.052499
Monte Cello&#39;s	2198 Babcock Blvd Pittsburgh, PA 15237	40.5110851	-79.993323
Montecellos of Route 8	4655 Wm Flynn Highway Allison Park, PA 15101		
Monterey Bay Fish Grotto	1411 Grandview  Avenue Pittsburgh, PA 15211	40.4386376	-80.0212657
Monterey Pub	1227 Monterey  Street Pittsburgh, PA 15212	40.4556166	-80.0132463
Montour Heights Country Club Restaurant	1491 Coraopolis Heights Rd Coraopolis, PA 15108		
Montour Hotel	1500 4th Ave Coraopolis, PA 15108	40.5148035	-80.1546329
Moon Golf Club	505 McCormick Rd Coraopolis, PA 15108		
Moondog&#39;s	378 Freeport Road Pittsburgh, PA 15238	40.4942453	-79.8598397
Moonlite Cafe	530 Brookline Blvd Pittsburgh, PA 15226	40.3954586	-80.0229105
Morcilla	3519 Butler Street Pittsburgh, PA 15201	40.4645928	-79.9661946
Mosside Restaurant &amp; Lounge	2127 Mosside Blvd Monroeville, PA 15146	40.3993105	-79.7683389
Mount Troy Inn	2021 Mt Troy Road Pittsburgh, PA 15212		
Mozart Room @ Heinz Hall	600 Penn Avenue Pittsburgh, PA 15222	40.442652	-80.0013959
Mr. Smalls Theatre &amp; Funhouse Restaurant	400 Lincoln Avenue Pittsburgh, PA 15209	40.4944149	-80.052667
Mt Oliver Hofbrau	206 Brownsville Rd Pittsburgh, PA 15210	40.4157719	-79.987551
Mt Royal Inn	151 Mt Royal Blvd Pittsburgh, PA 15223		
Muddy Waters Oyster Bar	130 Highland  Avenue Pittsburgh, PA 15206	40.522579	-80.030976
MugShots Grill &amp; Bar	25 Walsh  Road Pittsburgh, PA 15205		
Mullaney&#39;s Harp &amp; Fiddle	2329 Penn Avenue Pittsburgh, PA 15222	40.4534116	-79.9809338
Mullen&#39;s Bar &amp; Grill	200 Federal Street Pittsburgh, PA 15212	40.448415	-80.00395
Mulligan&#39;s	1013 Lebanon Rd West Mifflin, PA 15122	40.3607613	-79.9321502
Murphy&#39;s Tap Room	1106 S Braddock Ave Pittsburgh, PA 15218	40.432371	-79.8940565
Murray Ave Grill	1720 Murray Ave Pittsburgh, PA 15217	40.4372778	-79.9231863
Murray&#39;s Cafe	2038 Noble St Pittsburgh, PA 15218	40.4206556	-79.8856265
Muzzy&#39;s II	408 2nd Street Carnegie, PA 15106	40.3920529	-80.0879187
My Big Fat Greek Gyro / The Simple Greek	431 Market Street Pittsburgh, PA 15222	40.4411266	-80.0025216
My Place	4113 Brownsville Rd Library, PA 15129	40.2864777	-80.0214385
My Thai 	3024 W Liberty  Avenue Pittsburgh, PA 15216	40.392866	-80.037466
N Braddock Amvets Post 60	1135 Wolfe Ave Braddock, PA 15104	40.407249	-79.848099
Nadine&#39;s	19 S 27th St Pittsburgh, PA 15203	40.4263819	-79.9672239
Nagel&#39;s	2100 Spring St Pittsburgh, PA 15210	40.416869	-79.977651
Nakama Japanese Steakhouse &amp; Sushi Bar	1611 E Carson St Pittsburgh, PA 15203	40.4290467	-79.9821997
Nakama North	10636 Perry  Highway Wexford, PA 15090	40.6112391	-80.0539588
Nancettas	1200 Old Freeport Road Pittsburgh, PA 15238	40.4880659	-79.8782485
Napoli Pizza	1155 Washington Pike Bridgeville, PA 15017	40.3692707	-80.1055518
Napoli Pizzaria 	2006 Murray Avenue Pittsburgh, PA 15217	40.4344211	-79.9230509
Natrona Heights VFW / Post #894	894 Veterans Lane Natrona Heights, PA 15065	40.65261	-79.7101969
Nazcar&#39;s Saloon	106 E Main St Carnegie, PA 15106	40.4074723	-80.0865633
New Amsterdam	4421 Butler St Pittsburgh, PA 15201	40.4721464	-79.9595345
New Dumpling House / Sushi Bar	2138 Murray Avenue Pittsburgh, PA 15217	40.4326061	-79.9233686
New Jug Bar	1504 Lincoln Ave Pittsburgh, PA 15206	40.4687945	-79.8957037
Nick Marie&#39;s Esta Esta	4000 Wm Penn  Highway Monroeville, PA 15146		
Nicky&#39;s Thai Kitchen III	903 Penn Avenue Pittsburgh, PA 15222	40.4439407	-79.9982321
Nico&#39;s Recovery Room	178 Pearl St Pittsburgh, PA 15224	40.4636574	-79.9489827
Nied&#39;s Hotel Restaurant	5438 Butler St Pittsburgh, PA 15201	40.4833631	-79.9498361
Nine On Nine	900 Penn Avenue Pittsburgh, PA 15222	40.443553	-79.9979642
Nola On The Square / Perl&#233;	24 Market Square Pittsburgh, PA 15222	40.4411841	-80.0030461
Nooch&#39;s Bar	409 Butler Street Pittsburgh, PA 15223	40.498171	-79.944131
Noodles &amp; Company	476 McMaster Way Pittsburgh, PA 15222		
Noodles &amp; Company	301 South Hills Village Pittsburgh, PA 15241	40.3426227	-80.0561704
Noodles &amp; Company #734	3820 Wm Penn  Highway Monroeville, PA 15146		
Nordstrom Cafe	1000 Ross Park Mall Dr Pittsburgh, PA 15237	40.5389691	-80.0077114
North Braddock VFD Co #1	1318 Wolfe Ave Braddock, PA 15104	40.405117	-79.8452527
North Park Lounge	8701 Babcock Blvd Pittsburgh, PA 15237	40.5661046	-80.0168244
North Park Lounge / Clubhouse	5301 Ranalli Dr Gibsonia, PA 15044	40.6171125	-79.9449297
North Star Hotel	8155 Steubenville Pike Mc Donald, PA 15057	40.4315036	-80.2632608
North Versailles Bowling Center / Club 475 the Last Frame	475 Lincoln Hwy North Versailles, PA 15137	40.382783	-79.822669
Norwood Inn	184 McCoy Rd Mc Kees Rocks, PA 15136	40.4751197	-80.0717663
Nox&#39;s Tavern &amp; Grille 	720 Blaw  Avenue Pittsburgh, PA 15238		
O&#39;Brien&#39;s Bar	3224 Brighton Rd Pittsburgh, PA 15212	40.4760015	-80.0312574
OTB Bicycle Cafe @ The Boathouse	10301 Pearce Mill Road Allison Park, PA 15101		
Oakdale Inn	5200 Noblestown Road Oakdale, PA 15071	40.39838	-80.186573
Oakland Restaurant Supply	3221 Penn Avenue Pittsburgh, PA 15201	40.4614244	-79.9697173
Oakmont Country Club / 9th Hole Snack Bar	1233 Hulton Rd Oakmont, PA 15139	40.5245574	-79.8282341
Oakmont Country Club Restaurant	1223 Hulton Rd Oakmont, PA 15139	40.5245209	-79.8284227
Oakmont Hotel Restaurant	235 Allegheny Avenue Oakmont, PA 15139	40.5151289	-79.8437602
Oakmont Tavern	814 Allegheny River Boulevard Oakmont, PA 15139	40.5243015	-79.8409805
Oakmont Yacht Club	11 Washington Avenue Oakmont, PA 15139	40.5168873	-79.8487432
Oaks Theater	310 Allegheny River Boulevard Oakmont, PA 15139	40.515698	-79.842668
Obey House Tavern	1337 Steuben St Pittsburgh, PA 15220	40.4425652	-80.0522163
Off The Hook	908 Warrendale Village  Drive Warrendale, PA 15086	40.6554996	-80.0915498
Old Mexico Mexican Restaurant 	3075 Clairton Blvd / Century III Mall West Mifflin, PA 15123		
Old Patton Township Social Club	1513 Maple Avenue Turtle Creek, PA 15145	40.4085528	-79.8160724
Old Town Buffet	860 Saw Mill Run  Boulevard Pittsburgh, PA 15226	40.4271963	-80.0234946
Olive or Twist	140 6th Street Pittsburgh, PA 15222	40.4429033	-80.0025614
Olivia&#39;s Banquet Facility / Foster&#39;s Pub	318 Forest Grove Road Coraopolis, PA 15108	40.480903	-80.107103
Omni William Penn Hotel  / Terrace Room &amp; Speakeasy 	530 Wm Penn Place Pittsburgh, PA 15219		
Omni William Penn Hotel / Main Kitchen	530 Wm Penn Place Pittsburgh, PA 15219		
Omni William Penn Hotel / Tap Room	530 Wm Penn Place Pittsburgh, PA 15219		
One Thirty One East	131 Main Street Carnegie, PA 15106	40.4080143	-80.0861904
Onyx Inn	1011 E Carson St Pittsburgh, PA 15203	40.428916	-79.988007
Order Of Owls / Nest #1091	725 Little Deer Creek Valley Road Russellton, PA 15076	40.6189158	-79.8337024
Order Of Owls Nest #1538	524 7th Avenue Homestead, PA 15120	40.4001944	-79.9205629
Ordinary Joe&#39;s	225 Commercial  Avenue Pittsburgh, PA 15215	40.4903151	-79.9040102
Orient Kitchen	4808 Baum Blvd Pittsburgh, PA 15213	40.4541975	-79.947105
Ormsby Ave Cafe	402 Ormsby Avenue Pittsburgh, PA 15210	40.4125687	-79.9815169
Osaka Sushi &amp; Chinese Restaurant	2101 Greentree Road Pittsburgh, PA 15220	40.3905672	-80.0724608
Outback Steakhouse  #3950	25 McMurray Rd Pittsburgh, PA 15241	40.3311062	-80.0686323
Outback Steakhouse  #3951	9395 McKnight  Road Pittsburgh, PA 15237	40.5759198	-80.0262491
Outback Steakhouse #3953	3000 Mosside Blvd Monroeville, PA 15146	40.4383875	-79.7593976
Outback Steakhouse #3954	1400 Market Place Blvd Coraopolis, PA 15108		
Over The Bar Bicycle Cafe	2518 E Carson St Pittsburgh, PA 15203	40.4274008	-79.9690681
Overlook Lounge	1131 James St Monroeville, PA 15146	40.41935	-79.8134929
Ozz Bar &amp; Grill	1882 Main Street Pittsburgh, PA 15215	40.4942508	-79.9182295
P F Chang&#39;s	148 West Bridge St Homestead, PA 15120		
P F Chang&#39;s China Bistro	1600 Settlers Ridge Center Drive Pittsburgh, PA 15205		
P Town	4740 Baum Blvd Pittsburgh, PA 15213	40.4539382	-79.9488432
PJ	3405 Walnut St Mc Keesport, PA 15132	40.3293589	-79.841053
PNC Park  / 05.33.01 N Shore Refreshments #318	115 Federal Street Pittsburgh, PA 15212	40.4471507	-80.0064087
PNC Park  / 05.49.01 N Shore Refreshments #307	115 Federal Street Pittsburgh, PA 15212	40.4471507	-80.0064087
PNC Park / 00.34.01 In Seat Service 	115 Federal Street Pittsburgh, PA 15212	40.4471507	-80.0064087
PNC Park / 01.08.02 N Shore Refreshments #135	115 Federal Street Pittsburgh, PA 15212	40.4471507	-80.0064087
PNC Park / 01.32.03 Press Dining Kitchen 	115 Federal Street Pittsburgh, PA 15212	40.4471507	-80.0064087
PNC Park / 01.402.10 The Lexus Club 	115 Federal Street Pittsburgh, PA 15212	40.4471507	-80.0064087
PNC Park / 01.57.01 N Shore Refreshments #146 &amp; 01.57.02 Portable #148	115 Federal Street Pittsburgh, PA 15212	40.4471507	-80.0064087
PNC Park / 01.59.01 Riverwalk Grill #144	115 Federal Street Pittsburgh, PA 15212	40.4471507	-80.0064087
PNC Park / 01.64.02 Manny&#39;s Bar-B-Q	115 Federal Street Pittsburgh, PA 15212	40.4471507	-80.0064087
PNC Park / 02.19.02 Pops&#39; Plaza #131-134	115 Federal Street Pittsburgh, PA 15212	40.4471507	-80.0064087
PNC Park / 02.23.01 NSRJust4U #128/02.218.01 Vend #129 - Port #130	115 Federal Street Pittsburgh, PA 15212	40.4471507	-80.0064087
PNC Park / 02.25.01 Federal Street Grill #127	115 Federal Street Pittsburgh, PA 15212	40.4471507	-80.0064087
PNC Park / 02.28.01 N Shore Refreshments #123	115 Federal Street Pittsburgh, PA 15212	40.4471507	-80.0064087
PNC Park / 02.30.01 Federal Street Grill #120	115 Federal Street Pittsburgh, PA 15212	40.4471507	-80.0064087
PNC Park / 02.415.02 BRGR &amp; Bev Wall #115	115 Federal Street Pittsburgh, PA 15212		
PNC Park / 02.44.01-02 N Shore Refreshments #114 &amp;Vendor #113	115 Federal Street Pittsburgh, PA 15212	40.4471507	-80.0064087
PNC Park / 02.47.01 NSR #108 / Quaker Steak &amp; Lube #109	115 Federal Street Pittsburgh, PA 15212	40.4471507	-80.0064087
PNC Park / 02.47.01Primanti Brothers #110	115 Federal Street Pittsburgh, PA 15212	40.4471507	-80.0064087
PNC Park / 04.15.02 Bierbauer&#39;s Grill #213	115 Federal Street Pittsburgh, PA 15212	40.4471507	-80.0064087
PNC Park / 04.24.02 Keystone Corner Bar &amp; Pantry #228	115 Federal Street Pittsburgh, PA 15212	40.4471507	-80.0064087
PNC Park / 04.28.03 Bridges Burger #222 &amp; Beer Cooler 04.26.06	115 Federal Street Pittsburgh, PA 15212	40.4471507	-80.0064087
PNC Park / 04.47.01 BBQ Pitt #210	115 Federal Street Pittsburgh, PA 15212	40.4471507	-80.0064087
PNC Park / 04.48.01 Club 3000 &amp; Pantry #207-208	115 Federal Street Pittsburgh, PA 15212	40.4471507	-80.0064087
PNC Park / 04.53.01 All You Can Eat  #201-205	115 Federal Street Pittsburgh, PA 15212	40.4471507	-80.0064087
PNC Park / 05.19.01 Federal Street Grill #332	115 Federal Street Pittsburgh, PA 15212	40.4471507	-80.0064087
PNC Park / 05.25.01 N Shore Refresh #328 &amp; 05.24.01 Vendor #329	115 Federal Street Pittsburgh, PA 15212	40.4471507	-80.0064087
PNC Park / 05.28.01 Quaker Steak &amp; Lube #322	115 Federal Street Pittsburgh, PA 15212	40.4471507	-80.0064087
PNC Park / 05.415.01 Federal Street Grill #314	115 Federal Street Pittsburgh, PA 15212	40.4471507	-80.0064087
PNC Park / 05.46.01 Pop&#39;s Potato Patch #310	115 Federal Street Pittsburgh, PA 15212	40.4471507	-80.0064087
PNC Park / 05.52.01 N Shore Refresh #305 &amp; 05.53.01 Vendor #303	115 Federal Street Pittsburgh, PA 15212	40.4471507	-80.0064087
PNC Park / Beers of the Burgh #107	115 Federal Street Pittsburgh, PA 15212	40.4471507	-80.0064087
PNC Park / Club Cambria	115 Federal Street Pittsburgh, PA 15212	40.4471507	-80.0064087
PNC Park / N Shore Refreshments #130	115 Federal Street Pittsburgh, PA 15212	40.4471507	-80.0064087
PNC Park / Rivertowne Brewing Hall of Fame Club	115 Federal Street Pittsburgh, PA 15212	40.4471507	-80.0064087
PNC Park / Skull Bar #101	115 Federal Street Pittsburgh, PA 15212	40.4471507	-80.0064087
PNC Park / Terrace Bar	115 Federal  Street Pittsburgh, PA 15212	40.4471507	-80.0064087
PNC Park / The Corner Bar	115 Federal Street Pittsburgh, PA 15212	40.4395932	-79.9889352
PPG PAINTS Arena Captain Morgan Bar #112	1001 5th Avenue Pittsburgh, PA 15219	40.4395932	-79.9889352
PPG PAINTS Arena Carvery #107C	1001 5th Avenue Pittsburgh, PA 15219	40.4395932	-79.9889352
PPG PAINTS Arena Center Bistro #113 &amp; #115	1001 5th Avenue Pittsburgh, PA 15219	40.4395932	-79.9889352
PPG PAINTS Arena Classics Rm#223	1001 5th Avenue Pittsburgh, PA 15219	40.4395932	-79.9889352
PPG PAINTS Arena Classics Room #116	1001 5th Avenue Pittsburgh, PA 15219	40.4395932	-79.9889352
PPG PAINTS Arena Classics Rooms #229 &amp; #230	1001 5th Avenue Pittsburgh, PA 15219	40.4395932	-79.9889352
PPG PAINTS Arena Concourse Bar #118	1001 5th Avenue Pittsburgh, PA 15219	40.4395932	-79.9889352
PPG PAINTS Arena Concourse Bars #106 B &amp; #108B	1001 5th Avenue Pittsburgh, PA 15219	40.4395932	-79.9889352
PPG PAINTS Arena First Niagara Bar #102	1001 5th Avenue Pittsburgh, PA 15219	40.4395932	-79.9889352
PPG PAINTS Arena First Niagra Bistro #103	1001 5th Avenue Pittsburgh, PA 15219	40.4395932	-79.9889352
PPG PAINTS Arena Lexus Club	1001 5th  Avenue Pittsburgh, PA 15219	40.4395932	-79.9889352
PPG PAINTS Arena Meat &amp; Poutines	1001 5th Avenue Pittsburgh, PA 15219	40.4395932	-79.9889352
PPG PAINTS Arena RM 119120121 BP3B	1001 5th Avenue Pittsburgh, PA 15219	40.4395932	-79.9889352
PPG PAINTS Arena Rm#211 #212	1001 5th Avenue Pittsburgh, PA 15219	40.4395932	-79.9889352
PPG PAINTS Arena Rm#231 #232 Nakama	1001 5th Avenue Pittsburgh, PA 15219	40.4395932	-79.9889352
PPG PAINTS Arena Seat #107 #108 #109	1001 5th Avenue Pittsburgh, PA 15219	40.4395932	-79.9889352
PPG PAINTS Arena Smokehouse / Burgatory Bar	1001 5th Avenue Pittsburgh, PA 15219	40.4395932	-79.9889352
PPG PAINTS Arena Suite #66	1001 5th  Avenue Pittsburgh, PA 15219	40.4395932	-79.9889352
PPG PAINTS Arena Suite Kitchen Rm #P4D	1001 5th Avenue Pittsburgh, PA 15219	40.4395932	-79.9889352
PPG PAINTS Arena Suite Pantry #P4A #P4B	1001 5th Avenue Pittsburgh, PA 15219	40.4395932	-79.9889352
PPG PAINTS Arena Taco #101	1001 5th Avenue Pittsburgh, PA 15219	40.4395932	-79.9889352
Packs &amp; Dogs	223 Shiloh St Pittsburgh, PA 15211	40.4299312	-80.0070634
Pallantia Tapas y Paella	810 Ivy  Street Pittsburgh, PA 15232	40.451213	-79.932284
Palmieri&#39;s Restaurant	101 Penn Pz Turtle Creek, PA 15145		
Palmieri&#39;s Restaurant	951 Old Frankstown Rd Pittsburgh, PA 15239	40.451551	-79.7275816
Pan	3519 Butler Street Pittsburgh, PA 15201	40.4645928	-79.9661946
Pan Asia Chinese &amp; Japanese Restaurant	5321 Clairton Blvd Pittsburgh, PA 15236	40.3434382	-79.9690533
Papa Da Vinci	3526 Blvd of The Allies Pittsburgh, PA 15213	40.434609	-79.9554667
Papa J&#39;s Ristorante	200 E Main St Carnegie, PA 15106	40.4081527	-80.085153
Papa Rocks Pizza	4512 Broadway Ave Monroeville, PA 15146	40.3929894	-79.7662989
Papaya Asian Restaurant	210 McHolme Drive Pittsburgh, PA 15275	40.448816	-80.1736885
Paradise Island Bowl	7601 Grand Ave Pittsburgh, PA 15225	40.5168294	-80.1495547
Paris 66	6018 Centre Avenue Pittsburgh, PA 15206	40.4599583	-79.9242294
Park Bruges	5801 Bryant  Street Pittsburgh, PA 15206	40.4761766	-79.9205243
Park House	403 Ohio Street Pittsburgh, PA 15212	40.4531563	-80.0013756
Park Place Pub	5719 Bryant St Pittsburgh, PA 15206	40.4762806	-79.9208471
Park Valley Lounge	5916 Brownsville Rd Pittsburgh, PA 15236	40.32633	-79.98687
Parkview Bar &amp; Grill	907 1st Avenue Brackenridge, PA 15014	40.6029482	-79.7396616
Parkway Tavern	4733 Wm Penn Hwy Monroeville, PA 15146		
Pasta Too	5260 Library  Road Bethel Park, PA 15102	40.3307539	-80.0227098
Pastoli&#39;s Pizza Pasta &amp; Paisans	1900 Murray Avenue Pittsburgh, PA 15217	40.4358112	-79.923142
Patrick&#39;s Pub	1207 Spring Run Road Extension Coraopolis, PA 15108	40.5462525	-80.2422101
Patron Mexican Grill	135 Highland Avenue Pittsburgh, PA 15206	40.5220569	-80.031241
Patron Mexican Grill	11675 Perry  Highway Wexford, PA 15090	40.6267402	-80.0555719
Patron Mexican Grill	1141 Freeport Road Pittsburgh, PA 15238	40.4884107	-79.8809619
Patron Mexican Grill	245 Mall Boulevard Monroeville, PA 15146	40.434791	-79.7874476
Patty Jo&#39;s	2700 Custer Ave Pittsburgh, PA 15227	40.39286	-79.976159
Payne Hill Grille	1101 State Rt 885 Road Clairton, PA 15025		
Pazzo Bistro	1614 Washington  Road Pittsburgh, PA 15241	40.3525872	-80.0510039
Pazzo&#39;s Italian Grill	412 Center St Mc Keesport, PA 15132	40.3522378	-79.8534003
Peanutz	408 E Ohio St Pittsburgh, PA 15212	40.4534848	-80.0012694
Pearl&#39;s Cafe	1601 McClure St Homestead, PA 15120	40.4032829	-79.9026652
Pearl&#39;s Cafe II - Hob Nob	4025 Homestead - Duquesne Rd West Mifflin, PA 15122	40.390598	-79.893851
Penn Aiken Dairy	5401 Penn Ave Pittsburgh, PA 15206	40.4648413	-79.9360368
Penn Avenue Fish Company	308 Forbes Avenue Pittsburgh, PA 15222	40.4398109	-80.0005256
Penn Brewery	800 Vinial  Street Pittsburgh, PA 15212	40.4571275	-79.9915474
Penn Hills Bar &amp; Grill	11507 Frankstown Rd Pittsburgh, PA 15235	40.4653178	-79.8312721
Pennsbury Pub &amp; Grille	1049 Pennsbury Boulevard Pittsburgh, PA 15205	40.4294451	-80.0993104
Peppercini&#39;s Italian Restaurant &amp; Lounge	5899 Steubenville Pike Mc Kees Rocks, PA 15136	40.4489939	-80.1411241
Pepperoncini&#39;s	105 Seminary Avenue / Suite 7 Oakdale, PA 15071		
Perrytowne Drafthouse	1002 Perry Hwy Pittsburgh, PA 15237	40.5394058	-80.0360781
Persin&#39;s Tavern	&nbsp; U.S. Route 30 Clinton, PA 15026		
Peter Allen&#39;s Italian	613 Penn Avenue Pittsburgh, PA 15222	40.4430284	-80.0017678
Peter&#39;s Place	1199 Washington Pike Bridgeville, PA 15017	40.3708085	-80.1013935
Peter&#39;s Pub	116 Oakland Ave Pittsburgh, PA 15213	40.4417639	-79.9574734
Petersen Events Ctr / Campus View Club &amp; Pantry Rm#4033	3719 Terrace St Pittsburgh, PA 15261	40.4438804	-79.9620712
Pgh Sports Bar &amp; Grill	3630 Library Road Pittsburgh, PA 15234	40.3653045	-80.018701
Pheasant Ridge Golf Course Restaurant	6065 Rittman Road Gibsonia, PA 15044	40.671937	-79.879707
Phillippi&#39;s Family Dining &amp; Pizzeria	2105 Freeport Road Natrona Heights, PA 15065	40.6271624	-79.7211095
Phoenix BIG Cinemas Chartiers 18	1025 Washington Pike Bridgeville, PA 15017	40.3671632	-80.110119
Phoenix Big Cinemas Stadium 18	1701 Lincoln Highway North Versailles, PA 15137	40.3718575	-79.7866694
Piacquadios	300 Mt Lebanon  Boulevard Pittsburgh, PA 15234		
Piccolina&#39;s	1580 McLaughlin Run Rd Pittsburgh, PA 15241		
Pido&#39;s Pub	1129 Ravine St Homestead, PA 15120		
Pig Iron Public House	926 Sheraton Drive Mars, PA 16046	40.6712353	-80.0970013
Pin High Pub at Hickory Heights	116 Hickory Heights Drive Bridgeville, PA 15017	40.3409755	-80.1410212
Pino&#39;s Mercato	6738 Reynolds St Pittsburgh, PA 15206	40.4502737	-79.9144887
Pints on Penn	3523 Penn Avenue Pittsburgh, PA 15201	40.4643251	-79.9641145
Piper&#39;s Pub	1828 E Carson St Pittsburgh, PA 15203	40.4284268	-79.9794308
Pirata @ Tower Two-Sixty	274 Forbes  Avenue Pittsburgh, PA 15222	40.4401745	-80.0010634
Pisa Caf&#233; &amp; Pub	22 Rich Hill  Road Cheswick, PA 15024	40.5550818	-79.8386369
Pisci&#39;s	4501 Main St Homestead, PA 15120	40.3793578	-79.9072143
Pitcairn Grill	422 Broadway Ave Pitcairn, PA 15140	40.4015272	-79.7794481
Pitt&#39;s Dogg&#39;n It	5857 Ellsworth Avenue Pittsburgh, PA 15232	40.4574318	-79.9288755
Pitt&#39;s Dogg&#39;n It	260 Atwood Street Pittsburgh, PA 15213	40.4396266	-79.9561711
Pittsburgerz Smokehouse Sports Bar &amp; Grille	415 Noblestown Road Carnegie, PA 15106	40.4131654	-80.0746762
Pittsburgh Airport Marriott / Runner Stone Mill House 	777 Aten  Road Coraopolis, PA 15108	40.460122	-80.193148
Pittsburgh Athletic Assoc Restaurant	4215 5th Ave Pittsburgh, PA 15213	40.444954	-79.954564
Pittsburgh Bottleshop Cafe	1597 Washington Pike Bridgeville, PA 15017	40.3826179	-80.0951259
Pittsburgh Field Club Restaurant	121 Field Club Road Pittsburgh, PA 15238	40.5130625	-79.889862
Pittsburgh Golf Club Cafe	5280 Northumberland St Pittsburgh, PA 15217	40.4402289	-79.9394109
Pittsburgh Golf Club Restaurant	5280 Northumberland St Pittsburgh, PA 15217	40.4402289	-79.9394109
Pittsburgh North Golf Club	3800 Bakerstown Rd Bakerstown, PA 15007	40.6561922	-79.9546123
Pizza Hut  #023988	50 Towne Square Way Pittsburgh, PA 15227		
Pizza Hut #023981	1112 Washington Pike Bridgeville, PA 15017	40.3672843	-80.1040872
Pizza Hut #023984	3036 Freeport Road Natrona Heights, PA 15065	40.6420742	-79.7100372
Pizza Hut #023985	1235 Long Run Rd Mc Keesport, PA 15131	40.336934	-79.8100027
Pizza Hut #023986	271 I/2 Clairton Blvd West Mifflin, PA 15122		
Pizza Hut #023990	7 Poplar Street Pittsburgh, PA 15221	40.4231341	-80.0498267
Pizza Hut #024000	8609 University Blvd Coraopolis, PA 15108		
Pizza Hut #024028	7301 Saltsburg Rd Pittsburgh, PA 15235	40.4773799	-79.7875682
Pizza Milano	1304 5th Ave Pittsburgh, PA 15219	40.4384661	-79.9880046
Pizza Roma	8360 Perry Hwy Pittsburgh, PA 15237	40.5584721	-80.0396152
Pizzeria Uno Chicago Bar and Grill	205 E Waterfront Dr Homestead, PA 15120	40.4115287	-79.9146958
Playdate 4 Kids @ Motel 6 	2898 Banksville Road Pittsburgh, PA 15216	40.404311	-80.04137
Plaza Azteca	1000 Sutherland Drive Pittsburgh, PA 15205	40.4565635	-80.1683987
Pleasant Bar	32 Old Clairton Blvd Pittsburgh, PA 15236	40.339601	-79.9644629
Pleasure Bar Restaurant	4729 Liberty Ave Pittsburgh, PA 15224	40.461721	-79.9486953
Plum Pan-Asian Kitchen	5996 Centre Avenue Pittsburgh, PA 15206	40.4595929	-79.9253253
Point Brugge Cafe	401 Hastings St Pittsburgh, PA 15206	40.4500419	-79.9139009
Polish White Eagles	322 1st  Ave Carnegie, PA 15106	40.402338	-80.090039
Pollock Cafe	4602 Liberty Ave Pittsburgh, PA 15224	40.4623546	-79.9508392
Pomodoro	2572 Brandt School Rd Wexford, PA 15090	40.6135085	-80.0893598
Poor Harry&#39;s Bar	1811 Leechburg Rd Pittsburgh, PA 15235	40.4932556	-79.7902046
Poor Richard&#39;s Wexford Alehouse &amp; Grill	10501 Perry  Highway Wexford, PA 15090	40.6091423	-80.0533583
Pope&#39;s Place 	3055 Brereton Avenue Pittsburgh, PA 15219	40.4568195	-79.9677159
Pork &amp; Beans	136 6th Street Pittsburgh, PA 15222	40.443036	-80.002605
Porky&#39;s	34 Bridge Street Pittsburgh, PA 15223	40.4971064	-79.9427401
Poros	2 PPG Place Pittsburgh, PA 15222	40.4404911	-80.0033204
Port Vue Pub	305 Laredo St Mc Keesport, PA 15133	40.3365387	-79.8675477
Portogallo Peppers N&#39;AT	28 Braddock Avenue Braddock, PA 15104	40.406529	-79.8744912
Praha Hotel Bar	400 Corbet Street Tarentum, PA 15084	40.6024793	-79.7519093
Pregame	1501 Sarah  Street Pittsburgh, PA 15203	40.4276386	-79.9834519
Pressley #1	6957 Hamilton Ave Pittsburgh, PA 15208	40.4558548	-79.902302
Presto Hotel Bar	5224 Thoms Run Road Presto, PA 15142	40.3723476	-80.1202273
Price&#39;s Corner Tavern	351 Pittsburgh Street Springdale, PA 15144	40.5413683	-79.7887299
Primanti Bros	1539 Washington Rd Pittsburgh, PA 15228	40.3560903	-80.0502853
Primanti Bros Bar &amp; Restaurant	46 18th Street Pittsburgh, PA 15222	40.4507144	-79.9855139
Primanti Bros Moon Twp	8651 University Boulevard Coraopolis, PA 15108		
Primanti Bros Restaurant	6 Anchor Drive Pittsburgh, PA 15238	40.5390258	-79.8390136
Primanti Bros Restaurant &amp; Bar	3847 Northern Pike Monroeville, PA 15146	40.4385397	-79.7769164
Primanti Bros Resturant	921 E Pittsburgh / McKeesport Blvd North Versailles, PA 15137	40.3829112	-79.8283945
Primanti Brothers	1832 E Carson St Pittsburgh, PA 15203	40.4285173	-79.9792869
Primanti Brothers	4501 Steubenville Pike Pittsburgh, PA 15205	40.4444173	-80.0994542
Primanti Brothers Bar &amp; Grill	2 Market  Place Pittsburgh, PA 15222	40.440691	-80.0025688
Primanti Brothers Restaurant	830 Clairton Blvd Pittsburgh, PA 15236	40.323927	-79.9438113
Primanti Brothers Restaurant	3803 Forbes Ave Pittsburgh, PA 15213	40.4417769	-79.9569556
Prince Of India	3614 5th Ave Pittsburgh, PA 15213	40.4414341	-79.9584468
Priors Tap &amp; Tavern	540 Weyman Road Pittsburgh, PA 15236	40.359369	-80.0010364
Proper Brick Oven &amp; Tap Room	139 7th Street Pittsburgh, PA 15222	40.443577	-80.000162
Providence Point Bar	500 Providence Point Boulevard Pittsburgh, PA 15243	40.377073	-80.0877584
Pub in the Park	7034 Blackhawk St Pittsburgh, PA 15218	40.4213659	-79.8975593
Pugliano&#39;s Italian Grill	1808 Golden Mile Hwy Pittsburgh, PA 15239		
Puzzlers Restaurant  &amp; Lounge	2714 Walnut Street Mc Keesport, PA 15132	40.332814	-79.847123
Qdoba Mexican Grill	3712 Forbes  Avenue Pittsburgh, PA 15213	40.4412313	-79.9570234
Quaker Steak &amp; Lube	&nbsp; Pgh Intl Airport / NE-09B Pittsburgh, PA 15231		
Quaker Steak &amp; Lube	110 Andrew Drive Pittsburgh, PA 15275	40.4505032	-80.1756893
R Bar	2883 Liberty Avenue Pittsburgh, PA 15216	40.4572267	-79.9736321
R Time at Rene&#39;s	1030 5th Ave East Mc Keesport, PA 15035	40.3830004	-79.8102683
Railyard Grill &amp; Tap Room	413 Railroad  Street Bridgeville, PA 15017	40.358572	-80.1097255
Ralph&#39;s Bar	1 Amanda Avenue Pittsburgh, PA 15210	40.4183878	-79.988571
Randy&#39;s Beer Barrel Pub	3619 Main St Homestead, PA 15120	40.3846325	-79.9036343
Real Luck Cafe	1519 Penn Avenue Pittsburgh, PA 15222	40.4486631	-79.9881646
Recovery Room	627 E North Ave Pittsburgh, PA 15212	40.4567312	-79.9988965
Red &amp; Irene&#39;s Tavern	136 20th  Street Pittsburgh, PA 15203	40.4508925	-79.9837221
Red Lobster #193	259 Clairton Blvd Pittsburgh, PA 15236	40.3384315	-79.951869
Red Lobster #229	4766 McKnight Rd Pittsburgh, PA 15237	40.5193594	-80.004266
Red Lobster #230	3941 Wm Penn  Highway Monroeville, PA 15146		
Red Lobster #6305	6150 Robinson Center Drive Pittsburgh, PA 15205		
Red Orchid	5439 Babcock  Boulevard Pittsburgh, PA 15237	40.5430485	-80.0288943
Red Robin Gourmet Burgers	200 Mall Circle  Drive Monroeville, PA 15146	40.4291832	-79.7954593
Red Robin Gourmet Burgers #307	175 E Waterfront Dr Homestead, PA 15120	40.409918	-79.9167901
Red Robin Gourmet Burgers #443	301 South Hills Village Pittsburgh, PA 15241	40.3426227	-80.0561704
Red Robin Gourmet Burgers #470	1020 Pittsburgh Mills Boulevard Tarentum, PA 15084	40.5702829	-79.7992607
Red Robin Gourmet Burgers #472	1230 Settlers Ridge Center Drive Pittsburgh, PA 15205		
Red Star Kombucha Bar	433 Market Street Rear Pittsburgh, PA 15222		
Red&#39;s Pizza &amp; Wings	304 E Warrington  Avenue Pittsburgh, PA 15210	40.4208245	-80.002076
Redbeard&#39;s Bar &amp; Grill	201 Shiloh  Street Pittsburgh, PA 15211	40.430555	-80.0072245
Redbeard&#39;s On Sixth	144 6th Street Pittsburgh, PA 15222	40.4428606	-80.0025287
Redfin Blues	100 Waterfront Dr Pittsburgh, PA 15222	40.4633812	-79.9775303
Redstone Tavern	19 Foster  Avenue Pittsburgh, PA 15205	40.4407574	-80.0687071
Reflections Lounge AMF Bowling City Mt Leb 	1601 Washington Rd Pittsburgh, PA 15228	40.353583	-80.0492831
Regina Elena	615 Main St Pittsburgh, PA 15215	40.494418	-79.93531
Remedy Restaurant &amp; Lounge	5121 Butler St Pittsburgh, PA 15201	40.4790048	-79.9555297
Renaissance Pittsburgh / Braddock&#39;s American Brasserie	107 6th Street Pittsburgh, PA 15222	40.4438021	-80.0022338
Restaurant Depot #449	100 35th  Street Pittsburgh, PA 15201	40.4642665	-79.9654658
Revel &amp; Roost @ Tower Two-Sixty	250 Forbes Avenue Pittsburgh, PA 15222	40.4402813	-80.0014158
Rex Theatre	1602 Carson  Street Pittsburgh, PA 15203	40.428708	-79.9824275
Rey Azteca Mexican	3448 Wm Penn Highway Pittsburgh, PA 15235		
Rialto Pizza	623 Greenfield Ave Pittsburgh, PA 15207	40.4263908	-79.9387555
Rich&#39;s Parkside Den	1907 Donner St Mc Keesport, PA 15135	40.310637	-79.827454
Rico&#39;s	1 Rico Ln Pittsburgh, PA 15237	40.5149179	-80.0023519
Riggs Lounge &amp; Restaurant	1206 Brighton Road Pittsburgh, PA 15233	40.4547842	-80.0148094
Riley&#39;s Pour House	215 Main Street Carnegie, PA 15106	40.4085892	-80.0852276
Rivers Casino / 44Six Club	777 Casino Dr Pittsburgh, PA 15212	40.4474198	-80.0223528
Rivers Casino / Andrews Steak and Seafood	777 Casino Dr Pittsburgh, PA 15212	40.4474198	-80.0223528
Rivers Casino / Casino Service Bar #1	777 Casino Dr Pittsburgh, PA 15212	40.4474198	-80.0223528
Rivers Casino / Casino Service Bar #2	777 Casino Dr Pittsburgh, PA 15212	40.4474198	-80.0223528
Rivers Casino / Casino Service Bar #3	777 Casino Dr Pittsburgh, PA 15212	40.4474198	-80.0223528
Rivers Casino / Drum Bar	777 Casino Dr Pittsburgh, PA 15212	40.4474198	-80.0223528
Rivers Casino / Grand View Buffet Ser #1	777 Casino Dr Pittsburgh, PA 15212	40.4474198	-80.0223528
Rivers Casino / Grand View Buffet Ser #2	777 Casino Dr Pittsburgh, PA 15212	40.4474198	-80.0223528
Rivers Casino / Grand View Restaurant Serv Kit&amp;Bar	777 Casino Dr Pittsburgh, PA 15212	40.4474198	-80.0223528
Rivers Casino / Levels Bar	777 Casino Dr Pittsburgh, PA 15212	40.4474198	-80.0223528
Rivers Casino / Spiral Bar	777 Casino Dr Pittsburgh, PA 15212	40.4474198	-80.0223528
Rivers Casino / Wheelhouse	777 Casino Dr Pittsburgh, PA 15212	40.4474198	-80.0223528
Rivertowne Inn	500 Jones Street Verona, PA 15147	40.5020089	-79.8438008
Rivertowne North Shore	337 North Shore  Drive Pittsburgh, PA 15212	40.4459861	-80.0108802
Rivertowne Pour House	312 Center Rd Monroeville, PA 15146	40.4464045	-79.7642468
Riverview Golf Course	97 Golf Course Dr Elizabeth, PA 15037		
RoadRunner&#39;s Lounge	2401 Saw Mill Run  Boulevard Pittsburgh, PA 15234	40.3848298	-79.994741
Roasted Barrelhouse &amp; Eatery	3705 Butler Street Pittsburgh, PA 15201	40.466497	-79.9648206
Robert Morris University Island Sports Ctr Cafe	7600 Grand Ave Pittsburgh, PA 15225	40.5191741	-80.1523447
Robinson&#39;s Bar &amp; Grill	3184 McClure  Street Pittsburgh, PA 15212	40.4737827	-80.0349702
Roccos Inn	7105 Harrison St Pittsburgh, PA 15218	40.4857654	-79.9470022
Rock &#39;n&#39; Joe&#39;s Coffee Bar	524 Penn Avenue Pittsburgh, PA 15222	40.442327	-80.002868
Rock Bottom Brewery / Sing Sing Piano Bar	171 E Bridge  Street Homestead, PA 15120		
Rock Room	1054 Herron Ave Pittsburgh, PA 15219	40.4579648	-79.9637577
Rock Run Inn	800 Rock Run Rd Elizabeth, PA 15037	40.2678354	-79.8125871
Rockefeller&#39;s Grille	1833 McKees Rocks Rd Mc Kees Rocks, PA 15136	40.4680611	-80.0948826
Rocks Landing Bar &amp; Grille	506 Chartiers  Avenue Mc Kees Rocks, PA 15136	40.465097	-80.058908
Rockwell&#39;s Red Lion	201 2nd St Elizabeth, PA 15037	40.2720803	-79.8874215
Rocky&#39;s Lounge	1201 Washington Avenue Extension Carnegie, PA 15106		
Rocky&#39;s Rt 8	602 Willruth Dr Allison Park, PA 15101		
Rodi Lounge	604 Tulip Road Pittsburgh, PA 15235	40.449625	-79.827607
Roland&#39;s Seafood Grill	1904 Penn Avenue Pittsburgh, PA 15222	40.4506464	-79.9842605
Roma Italian Restaurant	928 Route 910 Indianola, PA 15051	40.5809904	-79.866275
Roman Bistro &amp; Blvd Bottle Shop	2104 Ardmore Boulevard Pittsburgh, PA 15221	40.4194553	-79.8502569
Ron&#39;s Bar	3000 Shadeland  Avenue Pittsburgh, PA 15212	40.47168	-80.030552
Rookies&#39; Bar	3619 Brownsville Rd Pittsburgh, PA 15227	40.3733382	-79.9754648
Rooster&#39;s Roadhouse Restaurant	5021 Thoms Run Road Oakdale, PA 15071	40.3788716	-80.146341
Rose Ridge Golf Course	4769 Route  910 Allison Park, PA 15101		
Rosecliff Tavern	4040 Monroeville Blvd Monroeville, PA 15146	40.4349945	-79.7690818
Rosing Lounge	7217 Frankstown Ave Pittsburgh, PA 15208	40.457444	-79.895374
Roundabout Brewery	4901 Butler Street Pittsburgh, PA 15201	40.4772547	-79.9570726
Row House Cinema / Atlas Bottle Works	4115 Butler Street Pittsburgh, PA 15201	40.4699387	-79.9610646
Royal Lounge	600 Weyman Rd Pittsburgh, PA 15236	40.3588798	-80.000411
Royal Place	2660 Library Rd Pittsburgh, PA 15234	40.3793534	-80.0016027
Rudy&#39;s Grill	107 Island Ave Mc Kees Rocks, PA 15136	40.4661211	-80.0608335
Rugger&#39;s Pub	40 S 22nd St Pittsburgh, PA 15203	40.4301186	-79.9745694
Rullo&#39;s Bar &amp; Grill	65 Station St Pittsburgh, PA 15205	40.434657	-80.067023
Rum Runners	3385 Babcock  Boulevard Pittsburgh, PA 15237	40.5368264	-80.0221225
Rumerz Restaurant &amp; Pizza	1216 Woods Run  Avenue Pittsburgh, PA 15212	40.4765767	-80.0306048
Rumfish Grille 	1155 Washington Pike Bridgeville, PA 15017	40.3692707	-80.1055518
Rupe&#39;s Roadhouse	325 Camp Horne Road Pittsburgh, PA 15202	40.51864	-80.090051
Rustic Lantern	623 Butler Street Pittsburgh, PA 15223	40.502756	-79.947205
Rusty Barrel Saloon	149 18th Street Pittsburgh, PA 15203	40.4504201	-79.9849843
Ruth &amp; Herb&#39;s Hotel Restaurant	370 Rochester Rd Pittsburgh, PA 15237	40.531447	-80.0447076
Ruth&#39;s Chris Steak House	6 PPG Pl Pittsburgh, PA 15222	40.4394399	-80.0038532
Ryan&#39;s Pub	607 Braddock Avenue Pittsburgh, PA 15221	40.403264	-79.868095
SMOKE BarBeque Taqueria	4115 Butler Street Pittsburgh, PA 15201	40.4699387	-79.9610646
Safari Club	704 W Grant St Duquesne, PA 15110	40.372105	-79.852418
Saga Hibachi Steakhouse	1040 Settlers Ridge Center Drive Pittsburgh, PA 15205		
Saga Steakhouse &amp; Sushi	710 Mall Circle Drive Monroeville, PA 15146	40.4293997	-79.7907405
Sake Asian Cusine &amp; Sushi Bar	2773 Sidney Street Pittsburgh, PA 15203	40.4272376	-79.9650002
Sakura Teppanyaki &amp; Sushi	5882 Forbes Ave Pittsburgh, PA 15217	40.4377949	-79.919667
Sal&#39;s Scotch Bottom Deli	4901 2nd Ave Pittsburgh, PA 15207	40.6720719	-79.9878565
Salonika Gyro&#39;s	133 6th Street Pittsburgh, PA 15222	40.4430735	-80.0019771
Salvatore&#39;s Pizza House	612 Penn Ave Pittsburgh, PA 15221	40.4435718	-79.885566
Sam&#39;s Bar	3011 W Liberty  Avenue Pittsburgh, PA 15216	40.3928759	-80.0370551
Sammy&#39;s	217 9th Street Pittsburgh, PA 15222	40.4431975	-79.9979013
Sanremo	10 Market St Pittsburgh, PA 15222	40.4380682	-80.0043036
Sapporo Japanese Steak &amp; Seafood	4260 Steubenville Pike Pittsburgh, PA 15205	40.4399653	-80.0909413
Satalio&#39;s	27 Bailey Ave Pittsburgh, PA 15211	40.42722	-80.0042252
Sauce	500 Washington  Pike Bridgeville, PA 15017	40.3583782	-80.1122898
Savoy	2623 Penn Avenue Pittsburgh, PA 15222	40.4554975	-79.9780389
Saxon Inn	1210 Saxonburg Boulevard Natrona Heights, PA 15065	40.638042	-79.715157
Sciulli&#39;s Bar &amp; Grill	1562 Island  Avenue Mc Kees Rocks, PA 15136	40.4889551	-80.0790173
Scoglio / Green Tree	661 Andersen Drive / 7 Foster Plaza Pittsburgh, PA 15220		
Scoreboard Lounge	6179 (Route 8) Wm Flynn  Highway Valencia, PA 16059		
Scotty&#39;s	1212 Crawford Avenue Duquesne, PA 15110	40.362755	-79.853568
Scotty&#39;s Bar &amp; Lounge	1200 5th St West Elizabeth, PA 15088	40.268164	-79.9042708
Scratch Food &amp; Beverage	1720 Lowrie Street Pittsburgh, PA 15212	40.4645022	-79.9823262
Seasons	1200 Stayton Street Pittsburgh, PA 15212	40.46962	-80.0273396
Secrets Bar &amp; Grill	633 McGowan Avenue West Mifflin, PA 15122		
Segneri&#39;s Italian Restaurant	314 Mill St Coraopolis, PA 15108	40.5185785	-80.1638635
Senor Frog Tavern &amp; Restaurant	2506 W Liberty Ave Pittsburgh, PA 15226	40.399096	-80.025575
Senti 	3473 Butler Street Pittsburgh, PA 15201	40.463919	-79.9663689
Sesame Inn	711 Browns Ln Pittsburgh, PA 15237	40.5465182	-80.0194404
Sesame Inn	715 Washington Rd Pittsburgh, PA 15228	40.3795795	-80.0447734
Settle Inn	297 Mahoney Road Coraopolis, PA 15108	40.4515042	-80.2061792
Seven	130 7th Street Pittsburgh, PA 15222	40.4436301	-80.0007491
Seviche	930 Penn Avenue Pittsburgh, PA 15222	40.4438779	-79.9968621
Sewickley Hotel	509 Beaver  Street Sewickley, PA 15143	40.5401276	-80.1799108
Sewickley Hts Golf Club	126 Backbone Rd Sewickley, PA 15143	40.582518	-80.1704181
Sewickley Pizza Roma	426 Beaver St Sewickley, PA 15143	40.5404595	-80.1809695
Sewickley Speakeasy	17 Ohio River Blvd Sewickley, PA 15143	40.5262515	-80.1573781
Shady Grove Restaurant &amp; Bar	5500 Walnut St Pittsburgh, PA 15232	40.4509561	-79.93355
Shadyside Hideaway Bar	227 Greenbriar Way Pittsburgh, PA 15232	40.4579643	-79.9256011
Shale&#39;s 	1208 5th Ave Pittsburgh, PA 15219	40.4384767	-79.9885323
Shamrock Inn	917 Western Avenue Pittsburgh, PA 15233	40.4515892	-80.0171568
Shannopin Country Club Restaurant	1 Windmere Rd Pittsburgh, PA 15202	40.5146499	-80.069086
Shar-Wood Lounge	470 Broadway Ave Pitcairn, PA 15140	40.4017937	-79.7784087
Sharp Edge Beer Emporium 	302 S Saint Clair Street Pittsburgh, PA 15206	40.4599557	-79.930726
Sharp Edge Bistro	510 Beaver St / Rear Sewickley, PA 15143		
Sharp Edge Bistro	922 Penn Avenue Pittsburgh, PA 15222	40.4437926	-79.9971759
Sharp Edge Creekhouse	288 W   Steuben St Pittsburgh, PA 15205	40.4402786	-80.0808277
Sharpsburg Veterans Assoc	1017 Main St Pittsburgh, PA 15215	40.4943246	-79.9320463
Sharpsburger	401 S Main Street Pittsburgh, PA 15215	40.4415901	-80.0328907
Shawn Ryans Pub	2907 Brownsville Rd Pittsburgh, PA 15227	40.3826058	-79.9765224
Shelby&#39;s Station	820 McLaughlin Run Road Bridgeville, PA 15017	40.356821	-80.1058717
Shenanigans	2310 Babcock Blvd Pittsburgh, PA 15237	40.5137375	-80.0007812
Sheraton Pittsburgh Airport Restaurant	1160 Thorn Run Rd Extension Coraopolis, PA 15108		
Sheraton Station Sq / Bar	300 W Station Sq Dr Pittsburgh, PA 15219		
Sheraton Station Sq / Main Kitchen-Banquet	300 W Station Sq Dr Pittsburgh, PA 15219		
Sheraton Station Sq / Trackside Restaurant	300 W Station Sq Dr Pittsburgh, PA 15219		
Shiek&#39;s Place	2239 Main St Pittsburgh, PA 15235	40.4679969	-79.792429
Shiloh Grill	123 Shiloh St Pittsburgh, PA 15211	40.4309181	-80.0069905
Shirl The Pearls	2407 Wylie  Avenue Pittsburgh, PA 15219	40.4477095	-79.9731313
Shogun Japanese Restaurant 	8 Tech  Drive Monroeville, PA 15146	40.4326139	-79.783238
Shooters	1173 Island Ave Mc Kees Rocks, PA 15136	40.4791383	-80.0678906
Shooti&#39;s Bar &amp; Grille	100 Boyce Park Plaza Pittsburgh, PA 15239		
Sidelines Bar &amp; Grill	621 Evergreen Avenue Pittsburgh, PA 15209	40.4854851	-79.9725011
Sidelines Beer House	518 Locust  Place Sewickley, PA 15143	40.5410184	-80.1803833
Sieb&#39;s Pub &amp; Restaurant	3382 Babcock Blvd Pittsburgh, PA 15237	40.5370345	-80.0210442
Sienna Mercato / Emporio / Mezzo / Il Tetto	942 Penn Avenue Pittsburgh, PA 15222	40.443983	-79.9964184
Sienna on the Square	22 Graeme Street Pittsburgh, PA 15222	40.441136	-80.0027218
Silk Elephant	1712 Murray Ave Pittsburgh, PA 15217	40.4375175	-79.9231221
Silkroad Gourmet Chinese Restaurant	5301 Grove Rd Pittsburgh, PA 15236	40.3586613	-80.0016524
Silky&#39;s Crow&#39;s Nest	5 19th (River Rd) Street Pittsburgh, PA 15215		
Silky&#39;s Pub	5135 Liberty Avenue Pittsburgh, PA 15224	40.4582515	-79.9422772
Silky&#39;s Sports Bar &amp; Grill	1731 Murray Ave Pittsburgh, PA 15217	40.437116	-79.9226226
Silvionis Casa Di Pasta	2125 Babcock Blvd Pittsburgh, PA 15209	40.5092331	-79.9914562
Simmie&#39;s Restaurant / Frankstown Fish Co.	8500 Frankstown  Avenue Pittsburgh, PA 15235	40.4570999	-79.8776694
Sir Pizza	2624 Brandt School  Road Wexford, PA 15090	40.6155836	-80.0929885
Sir Pizza	320 Sewickley-Oakmont  Road Pittsburgh, PA 15237	40.5385517	-80.0497771
Six Penn Kitchen	146 6th Street Pittsburgh, PA 15222	40.442799	-80.002503
Skyvue Restaurant	3230 Lebanon Church Rd West Mifflin, PA 15122	40.3506026	-79.9231447
Slapshots	2999 W Liberty Avenue Pittsburgh, PA 15216	40.3930675	-80.0366727
Slate Bistro	24 Donati Road Pittsburgh, PA 15241	40.338568	-80.050482
Slavonic Social Club	1025 Woodlawn Ave Braddock, PA 15104	40.3984847	-79.8626741
Slice On Broadway	115 Federal  Street Pittsburgh, PA 15212	40.4471507	-80.0064087
Slicks Capitol Bar &amp; Grill	101 Capital Ave Pittsburgh, PA 15226	40.4052662	-80.0184931
Sloan&#39;s Carousel Marina	200 Carousel Drive Bunola, PA 15020		
Sloppy Joe&#39;s Cafe	217 Shiloh St. Pittsburgh, PA 15211	40.430195	-80.0072447
Slovak American Club #831	147 7th Avenue Tarentum, PA 15084	40.600149	-79.760453
Slovenian Assn Of Center Pa	528 Thomas St Pittsburgh, PA 15239	40.475854	-79.754385
Smallman Galley	2016 Smallman  Street Pittsburgh, PA 15222	40.4519642	-79.9843602
Smallman Street Deli	1912 Murray Ave Pittsburgh, PA 15217	40.435556	-79.923256
Smiling Moose	1306 E Carson St Pittsburgh, PA 15203	40.4285915	-79.9849508
Smitty&#39;s Grill	3106 Chartiers Avenue Pittsburgh, PA 15204	40.4537519	-80.0612616
Smokey Bones Bar &amp; Fire Grill # 7634	1030 Pittsburgh Mills Boulevard Tarentum, PA 15084	40.5704487	-79.799651
Smokey Bones Bar &amp; Fire Grill #7526	6050 Robinson Center Drive Pittsburgh, PA 15205		
Smokey&#39;s Tavern	139 Howard  Street Pittsburgh, PA 15209	40.461577	-79.855632
Smokin&#39; Joe&#39;s Saloon	2001 E Carson St Pittsburgh, PA 15203	40.4287791	-79.9774281
SoHo Restaurant	203 Federal Street Pittsburgh, PA 15212	40.4483202	-80.0043176
Soba Lounge / UMI	5847 Ellsworth  Avenue Pittsburgh, PA 15232	40.4571033	-79.9296345
Social 	6425 Penn Avenue Pittsburgh, PA 15206	40.4571652	-79.9168342
Social House	123 7th Street Pittsburgh, PA 15222	40.4440719	-80.0003438
Sokol Club	2912 E Carson St Pittsburgh, PA 15203	40.4247173	-79.9638928
Someone Else&#39;s Bar	3841 Willow  Avenue Pittsburgh, PA 15234	40.365113	-80.0261797
Somma Pizza Restaurant &amp; Sports Bar	380 Cox Comb Hill Rd Verona, PA 15147	40.5291261	-79.791764
Sonny&#39;s Tavern	630 S Millvale  Avenue Pittsburgh, PA 15224	40.4579023	-79.9475577
Sonoma Grille	947 Penn Avenue Pittsburgh, PA 15222	40.4444445	-79.996451
Sons of Columbus Santa Maria Council 4	630 Miller Ave Clairton, PA 15025	40.2916389	-79.8834084
Sophie&#39;s Saloon	1918 Brownsville Rd Pittsburgh, PA 15210	40.395346	-79.9872298
Souper Bowl	910 5th Ave Pittsburgh, PA 15219	40.4385869	-79.9912575
South Hills Country Club	4305 Brownsville Rd Pittsburgh, PA 15236	40.3610899	-79.9854816
South Hills Country Club #10	4305 Brownsville Rd Pittsburgh, PA 15236	40.3610899	-79.9854816
South Hills Italian Club	1038 Brownsville Rd Pittsburgh, PA 15210	40.405507	-79.991493
South Park Grille	1 East Park  Drive Library, PA 15129	40.3261498	-79.9999081
Southside BBQ Company	75 S 17th St Pittsburgh, PA 15203	40.4293726	-79.981787
Spencer&#39;s Down Under	426 Lebanon Rd West Mifflin, PA 15122	40.370262	-79.9279356
Spice Island Tea House 	251 Atwood  Street Pittsburgh, PA 15213	40.440086	-79.955946
Spin Bartini / Element 	5744 Ellsworth  Avenue Pittsburgh, PA 15232	40.4555937	-79.9310507
Spirit	242 51st Street Pittsburgh, PA 15201	40.4783262	-79.9556973
Spoon / BRGR	134 Highland Avenue Pittsburgh, PA 15206	40.4600328	-79.9252566
Spoonwood Brewing Co	5981 Baptist  Road Pittsburgh, PA 15236	40.3453599	-80.01403
Spork	5430 Penn Avenue Pittsburgh, PA 15206	40.4645962	-79.9353247
Sports Haven Snack/Last Shot	143 Carol Ave Bridgeville, PA 15017	40.3607709	-80.1095293
Sportsmans Bar	330 State St Clairton, PA 15025	40.295627	-79.874269
Springdale Veterans Assn	1151 Pittsburgh Street Springdale, PA 15144	40.5438987	-79.7722218
Springhill Suites Bakery Square Restaurant	134 Bakery Square Boulevard Pittsburgh, PA 15206	40.4565774	-79.914794
Squirrel Hill Cafe	5802 Forbes Ave Pittsburgh, PA 15217	40.4378655	-79.9226711
Squirrel Hill Sports Bar	5832 Forward Avenue Pittsburgh, PA 15217	40.4293275	-79.9223808
St Clair Beneficial Assn	206 Fernleaf St Pittsburgh, PA 15210	40.4160939	-79.9763727
St Clair Country Club	2300 Old Washington Rd Pittsburgh, PA 15241		
St Mary&#39;s Lyceum	910 Chestnut St Pittsburgh, PA 15212	40.456473	-79.994749
St Nicholas Cathedral	419 S Dithridge St Pittsburgh, PA 15213	40.4447008	-79.9499189
Stack&#39;d Burgers &amp; Beer	3716 Forbes Pittsburgh, PA 15213		
Stack&#39;d Burgers &amp; Beer/ Fieldhouse	728 Copeland Street Pittsburgh, PA 15232	40.4511071	-79.9350265
Stage AE / Beer Wall	400 Shore Drive Pittsburgh, PA 15212	40.4461863	-80.0120666
Stage AE / Lounge RM #201	400 Shore Drive Pittsburgh, PA 15212	40.4461863	-80.0120666
Stage AE / Main Bar #134	400 Shore Drive Pittsburgh, PA 15212	40.4461863	-80.0120666
Stagioni	2104 Carson Pittsburgh, PA 15203		
Stak Shak	2684 Wildwood Road Allison Park, PA 15101	40.5899103	-79.9569786
Stanley&#39;s Lounge	7403 Frankstown Ave Pittsburgh, PA 15208	40.456567	-79.8915449
Stardust Lounge	950 Brodhead Rd Coraopolis, PA 15108	40.5194533	-80.2235918
Starlite Lounge	364 Freeport Road Pittsburgh, PA 15238	40.4940191	-79.8602891
Station	4744 Liberty  Avenue Pittsburgh, PA 15224	40.4611146	-79.9485427
Station Brake Cafe	501 Station St Wilmerding, PA 15148	40.3932353	-79.8097944
Steel Cactus	5505 Walnut Street Pittsburgh, PA 15232	40.4514173	-79.9336013
Steel Cactus	1831 Carson Street Pittsburgh, PA 15203	40.4288775	-79.9792102
Steel Cactus 	115 Federal  Street Pittsburgh, PA 15212	40.4471507	-80.0064087
Steel City Steakhouse	2101 Mosside Boulevard Monroeville, PA 15146	40.3982351	-79.7688989
Steel Towne Inn	1251 Wilkins  Avenue Pittsburgh, PA 15221	40.416752	-79.865515
Stepps West End Tavern	240 7th Avenue Tarentum, PA 15084	40.599755	-79.762237
Stewart&#39;s Too	9755 Saltsburg Rd Pittsburgh, PA 15239	40.485514	-79.714834
Stinky&#39;s Bar &amp; Grill	4901 Hatfield  Street Pittsburgh, PA 15201	40.477711	-79.9577734
Stoke&#39;s Grill	4771 McKnight Rd Pittsburgh, PA 15237	40.5207632	-80.0057933
Stone Neapolitan Pizzeria	300 Liberty Avenue Pittsburgh, PA 15222	40.4405818	-80.0062491
Storms Restaurant	429 4th  Avenue Pittsburgh, PA 15219	40.4385156	-79.9983547
Streets on Carson	1120 Carson Street Pittsburgh, PA 15203	40.4286167	-79.9866243
Strike Zone	&nbsp; Wm Penn Hwy Monroeville, PA 15146		
Stroll Inn	12 Fairhaven Rd Mc Kees Rocks, PA 15136	40.4749384	-80.099839
Sub Alpine Club	108 9th Street Turtle Creek, PA 15145	40.402868	-79.820694
Suds &amp; Subs	700 Chartiers Avenue Mc Kees Rocks, PA 15136	40.4655848	-80.061492
Sunny Jim&#39;s Tavern	255 Camp Horne  Road Pittsburgh, PA 15202	40.5172794	-80.0938524
Sunset Inn	7992 Steubenville Pike Oakdale, PA 15071	40.442015	-80.23775
Sushi Kim	1241 Penn Avenue Pittsburgh, PA 15222	40.446483	-79.9916699
Sushi Tomo	4812 McKnight Rd Pittsburgh, PA 15237	40.5257827	-80.0051187
Sushi Too	5432 Walnut St Pittsburgh, PA 15232	40.4507778	-79.9341424
Suzich Cafe	917 Grant Ave Duquesne, PA 15110	40.371221	-79.854596
Sweeney&#39;s Irish Pub	142 Grant Avenue Pittsburgh, PA 15209	40.5497237	-80.0389057
Swissvale Bowl A-Rama / Franks Place 	2023 Noble  Street Pittsburgh, PA 15218	40.4213593	-79.8857575
Sylvan Bar	302 Railroad Avenue Verona, PA 15147	40.4994535	-79.845621
T.G.I.  Friday&#39;s	5300 Corporate Dr Pittsburgh, PA 15237	40.562534	-80.0247059
T.G.I. Friday&#39;s	&nbsp; Pgh Intl Airport / AC-07 Pittsburgh, PA 15231		
T.G.I. Friday&#39;s	200 Park Manor Drive Pittsburgh, PA 15205	40.451106	-80.163778
T.G.I. Friday&#39;s #1101	185 Waterfront Dr Homestead, PA 15120	40.4108518	-79.915587
T.G.I. Friday&#39;s #1817	2800 Oxford Dr Bethel Park, PA 15102	40.3456016	-80.0487768
T.G.I. Friday&#39;s #1818	240 Mall  Boulevard Monroeville, PA 15146	40.4337646	-79.7877167
T.G.I. Friday&#39;s - PPG PAINTS Arena	1027 5th Avenue Pittsburgh, PA 15219	40.4388107	-79.9905583
T.G.I. Friday&#39;s Cafe	&nbsp; Pgh Intl Airport / NE-10B Pittsburgh, PA 15231		
T.G.I. Friday&#39;s Pub	&nbsp; Pgh Intl Airport / NW-07 Pittsburgh, PA 15231		
TJ&#39;s Pub	21 Yost  Boulevard Pittsburgh, PA 15221	40.4139839	-79.8471261
Tables on the Green	1299 Lane  Avenue Natrona Heights, PA 15065	40.627177	-79.730787
Taboo Night Club	8023 Bennett  Street Pittsburgh, PA 15221	40.454608	-79.883573
Tad&#39;s On East Carson	1109 E Carson St Pittsburgh, PA 15203	40.428936	-79.987071
Tailgater&#39;s Lounge &amp; Grill	1101 Freeport Road Cheswick, PA 15024	40.5408376	-79.81357
Taipei Chinese Restaurant	1124 Freeport Road Pittsburgh, PA 15238	40.4876008	-79.8805802
Taipei Tokyo Restaurant	304 Mall Blvd Monroeville, PA 15146	40.4342481	-79.7857912
Take A Break Bar	3821 Penn Ave Pittsburgh, PA 15201	40.4648408	-79.9606831
Take A Break Too	362 Helen St Mc Kees Rocks, PA 15136	40.4758788	-80.0584991
Tako / Butcher &amp; The Rye	214 6th Street Pittsburgh, PA 15219	40.4422204	-80.0022556
Tamarind Savoring India	2101 Greentree Road / Ste B117 Pittsburgh, PA 15220	40.3905672	-80.0724608
Tammy&#39;s Place	1354 Goettman Street Pittsburgh, PA 15212	40.4582526	-79.9898029
Tan Izakaya	815 Aiken Avenue Pittsburgh, PA 15232	40.4504742	-79.9351568
Tana Ethiopian Cuisine	5929 Baum Blvd Pittsburgh, PA 15206	40.4606335	-79.9269102
Tavern 245	245 4th Avenue Pittsburgh, PA 15222	40.439691	-80.0015484
Tavern 51	4604 Clairton Boulevard Pittsburgh, PA 15236	40.3572628	-79.9811182
Tavern In The Wall	211 Commercial  Avenue Pittsburgh, PA 15215	40.4904586	-79.9045874
Tea Bags	4114 Main St Pittsburgh, PA 15224	40.465157	-79.9547682
Ten Penny Restaurant	960 Penn Avenue Pittsburgh, PA 15222	40.4441377	-79.9958823
Tender Bar &amp; Kitchen	4300 Butler Street Pittsburgh, PA 15201	40.470571	-79.9600709
Tennyson Lodge Restaurant	4797 Library  Road Bethel Park, PA 15102	40.347443	-80.026692
Teppanyaki Kyoto Restaurant	5808 Bryant Street Pittsburgh, PA 15206	40.4757439	-79.9204743
Tequila Cowboy	380 North Shore Drive Pittsburgh, PA 15212	40.4459041	-80.0113183
Terrace Gardens	1180 Woodland Ave Clairton, PA 15025		
Tessaro&#39;s	4601 Liberty Ave Pittsburgh, PA 15224	40.4627963	-79.950653
Teutonia Mannerchor	857 Phineas St Pittsburgh, PA 15212	40.4551665	-79.9949766
Texas De Brazil Churrascaria 	204 Bessemer St Pittsburgh, PA 15219	40.3953682	-79.8443819
Texas Roadhouse	8650 Duncan Avenue Pittsburgh, PA 15237	40.5624113	-80.0272582
Texas Roadhouse #293	1155 Washington Pike Bridgeville, PA 15017	40.3692707	-80.1055518
Thaddeus Kosciuszko Assn	2622 5th Ave Mc Keesport, PA 15132	40.356113	-79.833325
Thai Place	5528 Walnut St Pittsburgh, PA 15232	40.4513611	-79.9325239
Thai Place II	1034 Freeport Rd Pittsburgh, PA 15238	40.4869455	-79.8857437
Thai Place North	12009 Perry Hwy Wexford, PA 15090	40.6314343	-80.0590886
The 412 Bar &amp; Grill	1700 Mt Royal Blvd Glenshaw, PA 15116		
The Abbey On Butler Street	4635 Butler  Street Pittsburgh, PA 15201	40.473877	-79.958319
The Allegheny Wine Mixer	5326 Butler Street Pittsburgh, PA 15201	40.4824782	-79.951515
The Alpine	1544 Beechview Ave Pittsburgh, PA 15216	40.4110121	-80.0250292
The Bar	202 5th Avenue Tarentum, PA 15084	40.6016586	-79.7547908
The Barking Shark	616 North  Avenue Pittsburgh, PA 15209	40.4454588	-79.884437
The Beerhive	2117 Penn Avenue Pittsburgh, PA 15222	40.4521836	-79.9827881
The Bierhaus Tavern	919 Spring Garden Ave Pittsburgh, PA 15212	40.4577611	-79.994649
The Boulevard Lounge	1150 Brookline Blvd Pittsburgh, PA 15226	40.3919734	-80.0139959
The Brew Gentlemen Beer Co	512 Braddock Avenue Braddock, PA 15104	40.404099	-79.870272
The Brookline Pub 	734 Brookline Blvd Pittsburgh, PA 15226	40.3939766	-80.0207405
The Burgh Sportz Bar	&nbsp; Pgh Intl Airport / SE-1 Pittsburgh, PA 15231		
The Burgh Sportz Bar	&nbsp; Pgh Intl Airport / NW-2 Pittsburgh, PA 15231		
The Cafe @ The Frick Art Center	7227 Reynolds  Street Pittsburgh, PA 15208	40.446587	-79.902277
The Carlton	500 Grant Street Pittsburgh, PA 15219	40.4396782	-79.9959316
The Carrick Inn	1144 Brownsville Rd Pittsburgh, PA 15210	40.404138	-79.990668
The Cheesecake Factory	1000 Ross Park Mall Dr / Suite #LL03 Pittsburgh, PA 15237		
The Cheesecake Factory	415 S 27th St Pittsburgh, PA 15203	40.4284111	-79.9653483
The Church Brew Works	3525 Liberty  Avenue Pittsburgh, PA 15201	40.4622408	-79.9643931
The Churchill Haus	700 Brown Avenue Turtle Creek, PA 15145	40.427166	-79.835044
The Club At Nevillewood	1000 Nevillewood Drive Presto, PA 15142	40.386606	-80.127324
The Club Bar &amp; Grille	1 Racquet  Lane Monroeville, PA 15146	40.4329437	-79.7853033
The Club at Nevillewood / Halfway House 10th	1000 Nevillewood Drive Presto, PA 15142	40.386606	-80.127324
The Coal Mine	3160 Library  Road Pittsburgh, PA 15234	40.3717019	-80.0090216
The Crafty Jackalope	608 Washington  Avenue Bridgeville, PA 15017	40.3571938	-80.1131843
The Eatery @ American Natural	2 Rich Hill  Road Cheswick, PA 15024	40.549958	-79.8394607
The Elbow Room	201 5th  Avenue Mc Keesport, PA 15132	40.350776	-79.8666415
The Fan Club Sports Bar	314 Airbrake Avenue Wilmerding, PA 15148	40.395578	-79.805909
The Fireside Inn	4214 Steubenville Pike Pittsburgh, PA 15205	40.4398942	-80.0891657
The Flats On Carson	1500 Carson Street Pittsburgh, PA 15203	40.4286882	-79.9833114
The Foundry	381 North Shore Drive Pittsburgh, PA 15212	40.4457049	-80.0112674
The Goldmark	4517 Butler Street Pittsburgh, PA 15201	40.4727315	-79.9591819
The Gra&#39; Mu Lounge	11752 Frankstown  Road Pittsburgh, PA 15235	40.468071	-79.824575
The Grotto	401 Perry Highway Pittsburgh, PA 15229	40.518261	-80.0316524
The Grove	395 Jacks Run Rd Pittsburgh, PA 15202	40.5009988	-80.0421541
The Half Time Lounge	1413 Cathell  Road Pittsburgh, PA 15236	40.384971	-79.950005
The Halfway House	445 Bairdford  Road Bairdford, PA 15006	40.632272	-79.879667
The Hangar	500 Flaugherty Run Road Coraopolis, PA 15108	40.5266227	-80.2493988
The Hartwood Restaurant &amp; Whispers Pub	3400 Harts Run Road Glenshaw, PA 15116	40.554563	-79.9187723
The Hollow 	5836 Brownsville Road Pittsburgh, PA 15236	40.3277603	-79.9871722
The Homeville Trolley Stop	3704 Greensprings Ave West Mifflin, PA 15122	40.3918242	-79.8847539
The Hop House	5510 Babcock Blvd Pittsburgh, PA 15237	40.5456563	-80.029804
The Hop House Wood Fired Food &amp; Ale	2749 Noblestown Road Pittsburgh, PA 15205	40.4210678	-80.0667369
The Huddle	1648 Broadway Ave Pittsburgh, PA 15216	40.4091389	-80.0249461
The Iron Gate Inn	119 1st Avenue Pittsburgh, PA 15222	40.4389736	-80.0047137
The Jaggerbush	133 23rd St Pittsburgh, PA 15203	40.494382	-79.914408
The Kickstand	1100 Hayden Blvd Elizabeth, PA 15037	40.2648707	-79.8787749
The Library	2302 E Carson St Pittsburgh, PA 15203	40.4281425	-79.9728382
The Linden Grove	1100 Grove Road Pittsburgh, PA 15234	40.3675213	-80.014219
The Livermore / The Cloakroom	124 Highland Avenue Pittsburgh, PA 15206	40.522584	-80.030428
The Map Room	1126 S Braddock Ave Pittsburgh, PA 15218	40.4321614	-79.8937624
The Meadows Harmar	1 Anchor Drive Pittsburgh, PA 15238	40.539644	-79.836916
The Melting Pot	125 Station Square Drive Pittsburgh, PA 15219		
The Mighty Oak Barrel Resturant 	939 3rd Street Oakmont, PA 15139	40.5274082	-79.8421221
The New Hazlett Theater	6 Allegheny Square Pittsburgh, PA 15212	40.4530939	-80.0052985
The New J R&#39;s	520 Ohio Street Pittsburgh, PA 15212	40.4538355	-80.0000115
The Olive Garden #1148	260 Mall Blvd Monroeville, PA 15146	40.4340718	-79.786916
The Olive Garden #1157	527 Clairton Blvd Pittsburgh, PA 15236	40.3329736	-79.9456907
The Olive Garden #1163	971 Greentree Road Pittsburgh, PA 15220	40.4198341	-80.0456525
The Olive Garden #1309	8400 McKnight Rd Pittsburgh, PA 15237	40.5641195	-80.0250349
The Olive Garden #1345	6000 Oxford Dr Bethel Park, PA 15102	40.347895	-80.05019
The Olive Garden #1589	6000 Robinson Center Drive Pittsburgh, PA 15205		
The Olive Garden #1675	1010 Pittsburgh Mills Blvd Tarentum, PA 15084	40.5700889	-79.7986136
The Original Oyster House	5 McMasters Way Pittsburgh, PA 15222	40.4407907	-80.0020809
The Oven Pizza Co Wexford	2000 Village Run  Road Wexford, PA 15090	40.6333314	-80.0563708
The Palermo	228 Center Road Monroeville, PA 15146	40.4416286	-79.7666394
The Penthouse Club	1620 Pennsylvania  Avenue Pittsburgh, PA 15233	40.4532815	-80.0303674
The Pines Tavern	5018 Bakerstown Rd Gibsonia, PA 15044	40.6589274	-79.997584
The Pit Stop	1798 Saxonburg Boulevard Tarentum, PA 15084	40.639275	-79.849339
The Pizza Company Draft House &amp; Bottle Shop	3504 Main St Homestead, PA 15120	40.3856456	-79.9031425
The Porch At Schenley	221 Schenley Drive Pittsburgh, PA 15213	40.4428952	-79.9532229
The Pour House	4655 Wm Flynn Hwy #118-119 Allison Park, PA 15101		
The Pub @ 333	333 Allegheny  Avenue Oakmont, PA 15139	40.515893	-79.8438366
The Rathskellar Lounge	620 7th Avenue Tarentum, PA 15084	40.605059	-79.748236
The Rib Crib	504 Park Avenue Elizabeth, PA 15037	40.272293	-79.872271
The River&#39;s Edge	301 Grant St / 1 Oxford Ctr  411 Pittsburgh, PA 15219		
The Rivers Club	301 Grant St / 1 Oxford Ctr  411 Pittsburgh, PA 15219		
The Rochester Inn &amp; Hardwood	505 Rochester Rd Pittsburgh, PA 15237	40.5364471	-80.0509005
The Roo Bar &amp; Grill	699 O&#39;Neil Boulevard Mc Keesport, PA 15132		
The Rose	2811 Lincoln Way Mc Keesport, PA 15131	40.3237966	-79.7831357
The Round Corner Cantina	3720 Butler St Pittsburgh, PA 15201	40.4666633	-79.964218
The Rusty Dory Pub	850 Ohio River Blvd Pittsburgh, PA 15202	40.4957731	-80.067674
The Saloon Of Mt Lebanon	622 Washington  Road Pittsburgh, PA 15228	40.3820222	-80.0444379
The Sea Shell	932 Beaver Grade Rd Coraopolis, PA 15108	40.5108883	-80.2140605
The South Park Clubhouse	2200 Brownsville Rd Library, PA 15129	40.3020039	-79.9956542
The South Paw 	2210 Carson Street Pittsburgh, PA 15203	40.4281754	-79.9740894
The Spare Room	1501 Highwood Avenue North Versailles, PA 15137	40.3835934	-79.8210249
The Spot	11675B Frankstown  Road Pittsburgh, PA 15235	40.4667337	-79.8267988
The Spotlight	1100 Grandview Ave Mc Keesport, PA 15133	40.3460206	-79.8366696
The Summit	200 Shiloh  Street Pittsburgh, PA 15211	40.4306913	-80.0076041
The Tap Club	401 Mc Coy Rd Mc Kees Rocks, PA 15136		
The Tenth Floor	4099 Willian Penn Highway Monroeville, PA 15146		
The Theme	15 DeWalt St Pittsburgh, PA 15227	40.364926	-79.9834587
The Tonidale	7001 Steubenville Pike Oakdale, PA 15071	40.4458329	-80.1712102
The Twentieth Century Club	4201 Bigelow Blvd Pittsburgh, PA 15213	40.4461992	-79.9565304
The Twisted Frenchman	128 Highland Avenue Pittsburgh, PA 15206	40.522581	-80.030753
The Ugly Dog	2351 Noblestown Road Pittsburgh, PA 15205	40.4268152	-80.0551373
The Urban Tap	1209 Carson Street Pittsburgh, PA 15203	40.4289466	-79.9858642
The Village Idiot	1840 Homeville Rd West Mifflin, PA 15122	40.3648846	-79.8723733
The Village Restaurant	5850 Meridian Rd Gibsonia, PA 15044	40.6534085	-79.9590325
The Warhol Cafe 	117 Sandusky  Street Pittsburgh, PA 15212	40.4483738	-80.0024974
The Wexford Pub at Whole Foods #10377	10576 Perry Highway Wexford, PA 15090	40.6122793	-80.0527532
The Wheel Bar &amp; Lounge	3058 Washington Pike Bridgeville, PA 15017	40.3514748	-80.1142596
The Yard	736 Bellefonte Street Pittsburgh, PA 15232	40.4513696	-79.9341804
The Yard Gastropub	100 5th Avenue Pittsburgh, PA 15222	40.44139	-80.0028792
Theater Square / Cabaret Theater and Backstage Bar	655 Penn Avenue Pittsburgh, PA 15222	40.4432054	-80.0010347
Theatre Bar	1005 Walnut St Mc Keesport, PA 15132	40.3459192	-79.8636384
Thee Olde Place Inn	1209 Streets Run Rd Pittsburgh, PA 15236	40.3518576	-79.9612599
There Ultra Lounge	931 Liberty Avenue Pittsburgh, PA 15222	40.4434471	-79.9969003
Thirsty&#39;s Sports Bar &amp; Grill	2412 Ferguson Road Allison Park, PA 15101	40.5549666	-79.9721783
Thompson Run Athletic Assn	4901 Ball Ave West Mifflin, PA 15122	40.3730545	-79.8975995
Tiki Lounge	2003 E Carson St Pittsburgh, PA 15203	40.4287769	-79.9773657
Tillie&#39;s	308 36th St Mc Keesport, PA 15132	40.3279758	-79.8398666
Tilted Kilt	120 Andrew Drive Pittsburgh, PA 15275	40.4510522	-80.175012
Tilted Kilt North Shore	353 Shore Drive Pittsburgh, PA 15212	40.4458199	-80.0108553
Tim&#39;s Bar	2155 Wylie Ave Pittsburgh, PA 15219	40.4458312	-79.9775681
Tim&#39;s Corner Bar	700 4th Ave West Elizabeth, PA 15088	40.2727288	-79.8959814
Tinker&#39;s	62 McGovern Blvd Glenwillard, PA 15046		
Tipsy Cow Burger Bar	5741 Ellsworth Avenue Pittsburgh, PA 15232	40.455763	-79.931512
Tolerico&#39;s	2525 Monroeville Blvd Monroeville, PA 15146	40.4279561	-79.7884798
Tom &amp; Tuds	353 Freeport Rd Pittsburgh, PA 15215	40.4890593	-79.9013505
Tom&#39;s Diner / Vasta Inn	2937 W Liberty  Avenue Pittsburgh, PA 15216	40.3942793	-80.0350803
Tomasino&#39;s Restaurant &amp; Lounge	260 Little Deer Creek Road Cheswick, PA 15024	40.59846	-79.828979
Tonic Bar &amp; Grill	971 Liberty Avenue Pittsburgh, PA 15222	40.4438089	-79.9954857
Tony&#39;s Cafe	307 W Main St Carnegie, PA 15106	40.4042449	-80.09138
Top Shabu Shabu &amp; Lounge	114 Atwood  Street Pittsburgh, PA 15213	40.4412353	-79.9581511
Toro&#39;s	5128 Penn Ave Pittsburgh, PA 15224	40.4646232	-79.941717
TownePlace Suites by Marriott	2785  Freeport Road Pittsburgh, PA 15238	40.5387924	-79.8328038
Tramps 	412 Greentree Road Pittsburgh, PA 15220	40.4356744	-80.0340732
Tre Rios	115 Federal Street Pittsburgh, PA 15212	40.4471507	-80.0064087
Tri Boro Bar &amp; Grill	825 5th  Avenue East Mc Keesport, PA 15035	40.3832385	-79.8056234
Triangle Grille	2122 Monongahela Ave Pittsburgh, PA 15218	40.4176095	-79.8879368
Triple L&#39;s	601 Allegheny Ave Glassport, PA 15045	40.32585	-79.893216
Trolley Stop Inn	6247 Library  Road Bethel Park, PA 15102	40.2934009	-80.0303141
Tube City Cafe	901 5th Ave Mc Keesport, PA 15132	40.351898	-79.855606
Tugboat&#39;s	105 West St East Pittsburgh, PA 15112	40.4104018	-79.8419823
Tuns Tavern	1202 Bell Ave Braddock, PA 15104	40.4001028	-79.8587742
Twelve 	1224 Carson Street Pittsburgh, PA 15203	40.4285979	-79.9854442
Twin Oaks Lounge	1985 Lincoln Way Mc Keesport, PA 15131	40.3383835	-79.8067112
UMAI	297 Beverly  Road Pittsburgh, PA 15228	40.3885913	-80.0493988
UUBU 6	178 Pius St Pittsburgh, PA 15203	40.4238737	-79.9783052
Umami	202 38th Street Pittsburgh, PA 15201	40.4667762	-79.964211
Uncle Bill&#39;s Lowrie Street Inn	1535-37 Lowrie  Street Pittsburgh, PA 15212	40.4620001	-79.9838764
Uncle Sam&#39;s Sandwich Bar #4	225 Summit Park Drive Pittsburgh, PA 15275	40.4482121	-80.1794251
Union Grill	413 S Craig  Street Pittsburgh, PA 15213	40.4448085	-79.9484396
Union Pig &amp; Chicken / Harvard &amp; Highland	220 Highland  Avenue Pittsburgh, PA 15206	40.4582441	-79.9254299
United Brotherhood Home Assn / Bretheren Lodge DOH Club 	44 Prospect Street Pittsburgh, PA 15223	40.496325	-79.946017
Universal Joint 	2310 Main St Pittsburgh, PA 15235	40.4932768	-79.913608
Upstairs Saloon / Arsenal Bowling Lanes	4310 Butler  Street Pittsburgh, PA 15201	40.4709811	-79.9597497
VFW  / Post #6664 Library	6544 Church St Library, PA 15129	40.2873734	-80.0224338
VFW /  Post #3372 Leetsdale	515 Beaver St Leetsdale, PA 15056	40.56349	-80.205895
VFW / Penn-Plum #6836	1160 Milltown Rd Verona, PA 15147	40.499725	-79.7903819
VFW / Post #118	605 North Avenue Pittsburgh, PA 15209	40.44577	-79.88455
VFW / Post #1810 Brentwood	3801 Clairton Blvd Pittsburgh, PA 15227	40.3689243	-79.9830935
VFW / Post #5008	401 Draper St East Pittsburgh, PA 15112	40.3954138	-79.8446922
VFW / Post #5758	208 4th Avenue Tarentum, PA 15084	40.6012603	-79.7548294
VFW / Post #6681	429 Cline St East Pittsburgh, PA 15112	40.412161	-79.833977
VFW / West View Post 2754	386 Perry  Highway Pittsburgh, PA 15229	40.5180582	-80.0304831
VFW McCormick-Dorman Post #694	3014 W Liberty  Avenue Pittsburgh, PA 15216	40.3929294	-80.0372319
VFW Post #1940	970 Hough Dr Pittsburgh, PA 15236	40.324843	-79.983176
Valentines	1101 Pittsburgh Street Springdale, PA 15144	40.5428405	-79.7731198
Valley Hotel	1004 New England Rd Clairton, PA 15025	40.3186062	-79.8993427
Vallozzi&#39;s Pittsburgh / Earth Inspired Salads	220 5th Avenue Pittsburgh, PA 15222	40.4407975	-80.0016781
Vergia&#39;s Bar &amp; Lounge	3383 Rainbow Run Rd Monongahela, PA 15063	40.19989	-79.867569
Verona Village Inn	551 Wildwood Avenue Verona, PA 15147	40.5024411	-79.8379248
Vicki&#39;s Place	901 Monroe  Avenue Mc Keesport, PA 15133	40.344851	-79.875231
Victory Hills Golf Club	357 Pineview Dr Elizabeth, PA 15037	40.2352429	-79.8458
Villa Reale	628 Smithfield Street Pittsburgh, PA 15222	40.4421258	-79.9969342
Village Inn	823 Miller Avenue Clairton, PA 15025	40.286515	-79.883888
Village Tavern &amp; Trattoria	424 Main Street Pittsburgh, PA 15220	40.441469	-80.0338139
Vincent&#39;s Pizza Park	998 Ardmore Boulevard Pittsburgh, PA 15221	40.4105635	-79.8447436
Vincent&#39;s of Green Tree	333 Mansfield Avenue Pittsburgh, PA 15220	40.4210095	-80.0500766
Vino Volo	&nbsp; Pgh Int&#39;l Airport / SE-9B Pittsburgh, PA 15231		
Viola&#39;s Pasta &amp; More	1300 Brodhead Road Coraopolis, PA 15108	40.5350153	-80.2294548
Vivo Kitchen	432 Beaver Street Sewickley, PA 15143	40.5403251	-80.1808326
Voodoo Brewery Homestead 	205 9th  Avenue Homestead, PA 15120	40.4066303	-79.9100555
Vue 412	1200 Grandview  Avenue Pittsburgh, PA 15211	40.4379144	-80.0182064
Walker&#39;s Bar &amp; Grill	176 McGovern Blvd Glenwillard, PA 15046		
Walker&#39;s Pub	2024 Sarah St Pittsburgh, PA 15203	40.4274382	-79.9767405
Wallace&#39;s Taproom @ Hotel Indigo	123 Highland  Avenue Pittsburgh, PA 15206	40.522055	-80.030603
Walnut Grill Bridgeville	1595 Washington Pike Bridgeville, PA 15017	40.382368	-80.094557
Walnut Grill Robinson	1210 Settlers Ridge Center Drive Pittsburgh, PA 15205		
Walnut Grill Waterworks	911 Freeport Rd Pittsburgh, PA 15238	40.4869739	-79.8889533
Walnut Grill Wexford	12599 Perry Hwy Wexford, PA 15090	40.6373163	-80.0635423
Walnut Street Lounge	4324 Walnut St Mc Keesport, PA 15132	40.3206782	-79.8362852
Wenzel&#39;s Tavern	345 Pittsburgh Street Springdale, PA 15144	40.5413714	-79.7888853
West End Cafe	408 Main Street Pittsburgh, PA 15220	40.4656516	-79.9551926
Westin Hotel / Banquet Kitchen	1000 Penn  Avenue Pittsburgh, PA 15222	40.441728	-79.8793015
Westin Hotel / Main Restaurant	1000 Penn Avenue Pittsburgh, PA 15222	40.441728	-79.8793015
Westwood Golf Club	825 Commonwealth Avenue West Mifflin, PA 15122	40.376674	-79.88248
Wheelfish	635 Sangree Road Pittsburgh, PA 15237	40.5394099	-79.991666
White Eagle Inn	2300 E Carson St Pittsburgh, PA 15203	40.4280867	-79.9729357
White Hawk Social Club	77 Universal Rd Pittsburgh, PA 15235	40.4659596	-79.8245921
Whitfield @ Ace Hotel	120 Whitfield  Street Pittsburgh, PA 15206	40.4613153	-79.9263448
Whoville&#39;s Bar / Carrick Classic Lanes	2036  Brownsville Rd Pittsburgh, PA 15210	40.3938199	-79.9867544
Wicked Fox Bar &amp; Grill	1335 Freeport  Road Pittsburgh, PA 15238	40.4897415	-79.8737479
Wicked Witches Dam View Hotel	919 Freeport Road Cheswick, PA 15024	40.540702	-79.815455
Wiegand&#39;s	656 Center Ave Pittsburgh, PA 15229	40.5026323	-80.0669922
Wigle Whiskey Barrell House &amp; Garden	1055 Spring Garden  Avenue Pittsburgh, PA 15212	40.4591763	-79.9933653
Wigle Whiskey Distillery	2401 Smallman Street Pittsburgh, PA 15222	40.4542951	-79.98158
Wildwood Golf Club Restaurant	2195 Sample Rd Allison Park, PA 15101	40.5777726	-79.9839739
Willees Tavern	11150 Babcock Blvd Gibsonia, PA 15044	40.67126	-79.9959673
William Penn Tavern	739 Bellefonte Street Pittsburgh, PA 15232	40.4514968	-79.9338838
Willow	634 Camp Horne Rd Pittsburgh, PA 15237	40.5210402	-80.076658
Win-Green Bar &amp; Grill	601 Greenfield Avenue Pittsburgh, PA 15207	40.4263565	-79.9396425
Winghart&#39;s	1505 Carson Street Pittsburgh, PA 15203	40.4413	-80.021126
Winghart&#39;s	5 Market  Square Pittsburgh, PA 15222	40.4400929	-80.0024463
Wings Suds &amp; Spuds	8806 University Blvd Coraopolis, PA 15108		
Wooden Nickel	4006 Berger  Lane Monroeville, PA 15146	40.4372425	-79.7723365
Woody&#39;s Italian Restaurant	5300 Walnut St Mc Keesport, PA 15132	40.3144545	-79.8298979
Wyndham Garden Pittsburgh Airport Restaurant	1 Industry Lane Pittsburgh, PA 15275	40.465847	-80.1989809
Wyndham Grand / Banquet Kitchen	600 Commonwealth Place Pittsburgh, PA 15222	40.4417018	-80.0064211
Wyndham Grand / Scenes	600 Commonwealth Place Pittsburgh, PA 15222	40.4417018	-80.0064211
Wyndham Grand / Three Rivers Bar	600 Commonwealth Place Pittsburgh, PA 15222	40.4417018	-80.0064211
Wyndham Grand / Three Rivers Restaurant	600 Commonwealth Place Pittsburgh, PA 15222	40.4417018	-80.0064211
Wyndham University Center / Bridges Restaurant &amp; Lounge	100 Lytton  Avenue Pittsburgh, PA 15213	40.4461088	-79.9546865
Xtaza / Static	1630  Smallman Street Pittsburgh, PA 15222	40.4498574	-79.9869969
Xtra Innings Sports Bar &amp; Grille	1590 Saxonburg  Boulevard Tarentum, PA 15084	40.650354	-79.843384
Ya Fei	1980 Park Manor Blvd Pittsburgh, PA 15205	40.4542608	-80.1692898
Yamato Hibachi Grill	3450 Wm Penn  Highway Pittsburgh, PA 15235		
Yesterday&#39;s Bar &amp; Restaurant	501 Greenfield Avenue Pittsburgh, PA 15207	40.4257263	-79.9423875
Yokoso Japanese Steakhouse	153 E Bridge St Homestead, PA 15120		
Yough Country Club / 19th Hole	1901 Greennock Buena Vista Rd Mc Keesport, PA 15135		
Youghiogheny Country Club	1901 Greenock Buena Vista Rd Mc Keesport, PA 15135	40.3000097	-79.8146439
Young Brothers	1441 Woods Run Ave Pittsburgh, PA 15212	40.4750817	-80.0349943
Yuva India Indian Eatery	412 S Craig Street Pittsburgh, PA 15213	40.444838	-79.9488538
Zangaro&#39;s / Pat &amp; Tammy Inc.	3891 Brighton Road Pittsburgh, PA 15212	40.486749	-80.037346
Zano&#39;s Pubhouse	3806 Acorn Street Pittsburgh, PA 15207	40.4264589	-79.9499909
Zarra&#39;s	3887 Bigelow  Boulevard Pittsburgh, PA 15213	40.4547128	-79.9543098
Ziggys Lounge.Com	201 6th Avenue Tarentum, PA 15084	40.6021929	-79.7553571
Zippy&#39;s Saloon	542 Brookline Blvd Pittsburgh, PA 15226	40.3952979	-80.02267
Zone 28	2525 Freeport Road Pittsburgh, PA 15238	40.5351722	-79.8443433
Zottola&#39;s Pub &amp; Eatery	5068 Bakerstown - Culmerville Road Tarentum, PA 15084	40.655104	-79.841516
